{"type": "Feature", "geometry": {"type": "Polygon", "coordinates": [[[135.3946667, 34.8059164], [135.3944786, 34.8061728], [135.3943883, 34.8062678], [135.3943194, 34.80634], [135.3942472, 34.8064353], [135.3941653, 34.8065069], [135.3941533, 34.8065175], [135.3940603, 34.8065989], [135.3940403, 34.8066161], [135.3938856, 34.8067514], [135.3935311, 34.8070436], [135.3932061, 34.8073297], [135.3931447, 34.8074275], [135.3930953, 34.8075064], [135.3930614, 34.80756], [135.3930269, 34.8076147], [135.3929025, 34.8078131], [135.39283, 34.8079772], [135.3928156, 34.80815], [135.3927662, 34.8083333], [135.3927578, 34.8083647], [135.3926928, 34.8085797], [135.3924325, 34.8092058], [135.3923944, 34.8092739], [135.3923592, 34.8093372], [135.3922967, 34.8094497], [135.3922014, 34.8096208], [135.3921069, 34.8097903], [135.3920669, 34.8098814], [135.39201, 34.8100114], [135.3919881, 34.8100617], [135.3919644, 34.8101153], [135.391795, 34.8105022], [135.3917728, 34.8105528], [135.3916875, 34.8107478], [135.3916667, 34.8109083], [135.3916658, 34.8109147], [135.3912103, 34.8115231], [135.3911164, 34.8115944], [135.3910511, 34.8117736], [135.3909356, 34.8120122], [135.3908269, 34.8122269], [135.3906825, 34.8123939], [135.3905306, 34.8125281], [135.3903714, 34.8126772], [135.39014, 34.8130053], [135.3898075, 34.8133992], [135.3895906, 34.8137508], [135.3894819, 34.8140431], [135.3894458, 34.8141981], [135.3893303, 34.8144667], [135.3891856, 34.8148306], [135.3890844, 34.8150036], [135.3889975, 34.8150869], [135.38873, 34.8152481], [135.3883831, 34.8154331], [135.3882108, 34.8154928], [135.3881439, 34.8155158], [135.3881081, 34.8155283], [135.3879305, 34.8155336], [135.38789, 34.8155342], [135.3877458, 34.8154981], [135.3875068, 34.8153914], [135.3872467, 34.8151953], [135.3869772, 34.8149939], [135.3863569, 34.81453], [135.3861922, 34.8144069], [135.3860258, 34.8143233], [135.385845, 34.8142519], [135.3856861, 34.8141861], [135.3854764, 34.8141803], [135.3851061, 34.8141011], [135.3848317, 34.8140431], [135.3842419, 34.8139164], [135.3840561, 34.8138767], [135.3838544, 34.8138336], [135.3837046, 34.8137794], [135.3835169, 34.8136836], [135.3833333, 34.8136037], [135.3831192, 34.8135106], [135.3828688, 34.8133951], [135.3825263, 34.8132362], [135.3822383, 34.8131361], [135.3819328, 34.8130297], [135.3818319, 34.8129947], [135.3816369, 34.8129111], [135.3814506, 34.8128525], [135.3813333, 34.8128156], [135.3808633, 34.8126725], [135.3803717, 34.8124936], [135.3799233, 34.8123264], [135.3794894, 34.8121953], [135.3789758, 34.812055], [135.3787825, 34.8120019], [135.3785875, 34.8119483], [135.3784989, 34.8119242], [135.3781692, 34.8118494], [135.3779711, 34.8118047], [135.3775228, 34.8117333], [135.37706, 34.8116794], [135.3767564, 34.8113753], [135.3766044, 34.8112858], [135.3763578, 34.8111797], [135.3759392, 34.8109994], [135.3757369, 34.8108922], [135.3755233, 34.8108147], [135.3754003, 34.8107697], [135.3753756, 34.8107608], [135.3753258, 34.8107097], [135.3752886, 34.8106714], [135.3752958, 34.81057], [135.3753319, 34.8104031], [135.3754189, 34.8102956], [135.3755489, 34.8102539], [135.3757586, 34.8101764], [135.37586, 34.8100867], [135.3758444, 34.8099147], [135.3758406, 34.8098703], [135.3758311, 34.8097647], [135.37599, 34.8093353], [135.3760769, 34.8091833], [135.3764311, 34.8085867], [135.3765386, 34.8083808], [135.3765633, 34.8083333], [135.3766333, 34.8081989], [135.3769517, 34.8076383], [135.3770167, 34.8074803], [135.3771033, 34.8073072], [135.3773419, 34.8068542], [135.3775156, 34.8065319], [135.3777033, 34.8061569], [135.3777911, 34.8059822], [135.3778869, 34.8057906], [135.3779597, 34.8056453], [135.3779856, 34.8055939], [135.3781736, 34.8052181], [135.3786739, 34.8041767], [135.3787739, 34.8039686], [135.3789778, 34.8035922], [135.3790486, 34.8034617], [135.3791208, 34.8032944], [135.3793439, 34.8029125], [135.3794031, 34.8028114], [135.3795322, 34.8025522], [135.3795547, 34.8025072], [135.3801189, 34.8015558], [135.3803214, 34.8011206], [135.3804094, 34.8009636], [135.3804553, 34.8008817], [135.380485, 34.8008281], [135.380535, 34.8007389], [135.3807189, 34.8004106], [135.3809368, 34.8], [135.3813408, 34.7992386], [135.3815506, 34.7988628], [135.3817711, 34.7984769], [135.3818458, 34.7983467], [135.3820931, 34.7979147], [135.3822156, 34.7977356], [135.3829889, 34.7966039], [135.3830114, 34.7965708], [135.3832858, 34.7962786], [135.3833333, 34.7962054], [135.3833942, 34.7961117], [135.3834231, 34.795885], [135.3834306, 34.7957242], [135.3833333, 34.7956311], [135.3832933, 34.7955928], [135.3830981, 34.7955214], [135.3829389, 34.7954617], [135.3827872, 34.7954436], [135.3827003, 34.7954914], [135.3826064, 34.7955869], [135.3824978, 34.7956819], [135.3823894, 34.7957058], [135.3822158, 34.7956939], [135.38197, 34.7956583], [135.3819572, 34.7956539], [135.3819028, 34.7956344], [135.3817083, 34.7955656], [135.3812542, 34.795405], [135.3809503, 34.7952856], [135.3807697, 34.7951961], [135.3805311, 34.7949994], [135.3804442, 34.7949158], [135.3803053, 34.7947347], [135.3802217, 34.7946256], [135.3801494, 34.7945314], [135.3800656, 34.7944225], [135.3797575, 34.7940211], [135.3797163, 34.7938987], [135.3796853, 34.7938061], [135.3796347, 34.7936033], [135.3795911, 34.79352], [135.3795622, 34.7934006], [135.3794828, 34.7932544], [135.3793958, 34.7930397], [135.3793814, 34.7929025], [135.3793597, 34.7923897], [135.3792803, 34.7923481], [135.3789983, 34.7923419], [135.3788536, 34.7923003], [135.3787669, 34.7922286], [135.3786439, 34.7920139], [135.3786078, 34.7918828], [135.3785303, 34.7917692], [135.3784825, 34.7916992], [135.3784602, 34.7916667], [135.3784194, 34.7916072], [135.3783836, 34.7915547], [135.3783764, 34.7914592], [135.3784342, 34.7913339], [135.3784631, 34.7912564], [135.3784703, 34.7911011], [135.3784847, 34.7909819], [135.3784414, 34.7908744], [135.3782461, 34.7907433], [135.3781739, 34.7907253], [135.3780944, 34.7907792], [135.3779208, 34.7909044], [135.3777906, 34.7909519], [135.3776992, 34.7909408], [135.3775956, 34.7909283], [135.3774006, 34.7909519], [135.3773208, 34.7910297], [135.3771764, 34.7913517], [135.3770967, 34.7914889], [135.3769811, 34.7915367], [135.3768147, 34.7915606], [135.3766122, 34.7915428], [135.3766019, 34.7915367], [135.3764822, 34.791465], [135.3764314, 34.7913994], [135.3764242, 34.7912444], [135.3764822, 34.7910356], [135.3765039, 34.7908567], [135.3765039, 34.7906983], [135.3765039, 34.7905881], [135.3764458, 34.7904511], [135.3763592, 34.7904092], [135.3762869, 34.7904569], [135.3763086, 34.7906061], [135.3763447, 34.7908089], [135.3763158, 34.7909133], [135.3762072, 34.7910564], [135.3761061, 34.7911281], [135.3760192, 34.7911339], [135.3758458, 34.7910444], [135.3757011, 34.7909969], [135.3755419, 34.7911578], [135.3754914, 34.7912653], [135.3755131, 34.7913189], [135.3756578, 34.7914742], [135.3757195, 34.7916667], [135.3757228, 34.7916769], [135.3757156, 34.7918617], [135.3756939, 34.7921597], [135.3756289, 34.7923806], [135.3755708, 34.7924342], [135.3755003, 34.7924267], [135.3754047, 34.7924164], [135.3753106, 34.7923892], [135.3752175, 34.7923625], [135.3751133, 34.7923322], [135.3750556, 34.7923158], [135.375, 34.7922997], [135.3749492, 34.792285], [135.3747611, 34.7922553], [135.3746961, 34.7922611], [135.3746092, 34.7923925], [135.3745442, 34.7924044], [135.3743633, 34.7924044], [135.3743611, 34.7924042], [135.3740164, 34.7923447], [135.3737128, 34.7922792], [135.3734453, 34.792285], [135.3732933, 34.7924222], [135.3732067, 34.7925536], [135.3730764, 34.7929294], [135.3729681, 34.7931978], [135.372845, 34.7933767], [135.37278, 34.7935556], [135.3727078, 34.7936928], [135.3726717, 34.7938719], [135.3725908, 34.7938306], [135.3725197, 34.7937944], [135.3722016, 34.7936944], [135.3718967, 34.7936373], [135.3715696, 34.7935733], [135.3713253, 34.7935289], [135.3712519, 34.7935153], [135.37123, 34.7935111], [135.3712306, 34.7935244], [135.3712444, 34.7939106], [135.3712011, 34.7939464], [135.3711614, 34.7939417], [135.3711, 34.7939344], [135.3710275, 34.7938511], [135.3709842, 34.7937081], [135.3709697, 34.7933144], [135.3708939, 34.7931742], [135.370875, 34.7931606], [135.3708289, 34.7931269], [135.3708278, 34.7931264], [135.3705297, 34.79291], [135.3702361, 34.7926969], [135.3701719, 34.7926636], [135.3700236, 34.7925864], [135.3699033, 34.7925239], [135.3697806, 34.7923986], [135.3697661, 34.792315], [135.3697878, 34.7922017], [135.3697917, 34.7921833], [135.3698167, 34.7920644], [135.3697828, 34.7918917], [135.3697733, 34.7918439], [135.3697686, 34.7917561], [135.3697661, 34.7917067], [135.3697724, 34.7916667], [135.3698014, 34.7914817], [135.3698275, 34.7913158], [135.3699217, 34.7907675], [135.3699644, 34.7904775], [135.3700156, 34.7901292], [135.3700444, 34.7899858], [135.3700806, 34.7898486], [135.3701383, 34.7896875], [135.3701617, 34.7896164], [135.3701908, 34.7895281], [135.3702217, 34.7894342], [135.3705181, 34.7886767], [135.3705969, 34.7884356], [135.3706211, 34.7883608], [135.3708833, 34.7875583], [135.370955, 34.7872889], [135.3710133, 34.7870692], [135.3711364, 34.7866814], [135.3711942, 34.7865503], [135.3713158, 34.7863253], [135.3714617, 34.7860553], [135.371715, 34.78559], [135.3718089, 34.7854169], [135.3720644, 34.7849231], [135.3720661, 34.78492], [135.3721053, 34.7848442], [135.3721506, 34.7847728], [135.3721997, 34.784695], [135.3723103, 34.7845369], [135.3723592, 34.7844539], [135.3724692, 34.7842686], [135.3726933, 34.7838631], [135.3727481, 34.7837011], [135.3728161, 34.7834992], [135.3728775, 34.7833333], [135.3729394, 34.7831661], [135.3730547, 34.782855], [135.3731633, 34.7823092], [135.3732644, 34.7820764], [135.3733586, 34.7817367], [135.3733803, 34.7815219], [135.37345, 34.7812297], [135.3736883, 34.7809356], [135.3739631, 34.780715], [135.3741583, 34.7805897], [135.3744836, 34.7805003], [135.3747006, 34.7804822], [135.3749028, 34.7805067], [135.3749547, 34.7805131], [135.375, 34.7805185], [135.3750314, 34.7805222], [135.3750478, 34.7805242], [135.3752681, 34.7806033], [135.3752792, 34.7806075], [135.3754164, 34.7807031], [135.3755106, 34.7807747], [135.3756983, 34.7807269], [135.3758069, 34.7806314], [135.3758431, 34.7805061], [135.3759372, 34.780375], [135.3760311, 34.780345], [135.3761828, 34.7803597], [135.3761836, 34.7803597], [135.3763419, 34.780375], [135.3763781, 34.7797906], [135.37636, 34.7794347], [135.3763564, 34.7793611], [135.3763928, 34.7791703], [135.3764103, 34.7791319], [135.3764169, 34.7791172], [135.3764939, 34.7789494], [135.3764939, 34.7788361], [135.3765372, 34.7787825], [135.3767467, 34.7787706], [135.3771444, 34.7787883], [135.3773325, 34.7787825], [135.3774986, 34.7788183], [135.3777447, 34.7789136], [135.3778386, 34.7789197], [135.3779181, 34.7788839], [135.3779617, 34.7787644], [135.3780339, 34.7786153], [135.3782147, 34.7786272], [135.37832, 34.7786586], [135.3785272, 34.7787206], [135.3786644, 34.7787617], [135.3788944, 34.7788303], [135.3789883, 34.7787436], [135.3790639, 34.7785756], [135.3791053, 34.7784839], [135.3791764, 34.7783261], [135.3792992, 34.7780158], [135.3794367, 34.7775569], [135.37948, 34.7772169], [135.3795017, 34.7769603], [135.3795253, 34.7767764], [135.3795958, 34.7762294], [135.3796392, 34.7760922], [135.3797403, 34.7759133], [135.3799428, 34.7756867], [135.3801164, 34.7755497], [135.3802972, 34.7754603], [135.3804056, 34.7754125], [135.3804608, 34.7753822], [135.3807453, 34.7752275], [135.3808828, 34.7751261], [135.380996, 34.775], [135.3810272, 34.7749653], [135.3810986, 34.7748433], [135.3811375, 34.7747772], [135.3811422, 34.7747689], [135.3812369, 34.7746072], [135.3813311, 34.7745058], [135.3814394, 34.7744403], [135.3815986, 34.7742731], [135.3816131, 34.7740764], [135.3816131, 34.7738644], [135.3816564, 34.7738108], [135.3818372, 34.773805], [135.3824664, 34.7738228], [135.3825314, 34.7738269], [135.3826875, 34.7738372], [135.382835, 34.7738467], [135.3832969, 34.7739661], [135.3833122, 34.77397], [135.3833333, 34.7739754], [135.3834353, 34.7740017], [135.3836161, 34.7740256], [135.3835508, 34.7738825], [135.3833333, 34.7736207], [135.3832833, 34.7735606], [135.3832111, 34.7734769], [135.3832353, 34.7733478], [135.3832411, 34.7733161], [135.3832775, 34.7731228], [135.3832778, 34.7731211], [135.3833189, 34.7729017], [135.3833333, 34.7728238], [135.3833339, 34.7728208], [135.3836956, 34.7728567], [135.3838764, 34.7721586], [135.3839342, 34.7718186], [135.3839486, 34.7716725], [135.3839436, 34.7716397], [135.3839219, 34.7715011], [135.3839125, 34.77144], [135.3839119, 34.7714281], [135.3839053, 34.7713028], [135.3838619, 34.7711658], [135.3834836, 34.7708536], [135.3834569, 34.7708317], [135.3833333, 34.7707856], [135.3832328, 34.7707481], [135.3829797, 34.7706944], [135.3828206, 34.7706767], [135.3826108, 34.7706169], [135.3825458, 34.7705036], [135.3825314, 34.7703425], [135.3825386, 34.7699011], [135.3825531, 34.7697461], [135.3826086, 34.7697231], [135.3826542, 34.7697042], [135.3826844, 34.7697], [135.3827361, 34.7696925], [135.3828639, 34.7696744], [135.3829003, 34.7696386], [135.3829219, 34.7694775], [135.3833333, 34.7694906], [135.3833486, 34.7694911], [135.38339, 34.7694922], [135.3834328, 34.7694936], [135.3838639, 34.7695072], [135.3839486, 34.76951], [135.3839558, 34.7695103], [135.3839869, 34.7689522], [135.3839992, 34.7687353], [135.3840411, 34.7687356], [135.3846644, 34.7687411], [135.3849189, 34.7687319], [135.3850647, 34.7687264], [135.3856478, 34.7687053], [135.3859586, 34.7687233], [135.3861828, 34.7687589], [135.3863203, 34.7687919], [135.3864367, 34.7688031], [135.3865083, 34.7688097], [135.3866744, 34.7688394], [135.3868167, 34.7688622], [135.3868625, 34.7688694], [135.3869539, 34.7688803], [135.3869639, 34.7688814], [135.387, 34.768935], [135.3869725, 34.7689786], [135.3869464, 34.7690203], [135.3868792, 34.7691269], [135.3867831, 34.76928], [135.3867367, 34.7693536], [135.3866108, 34.7695539], [135.386595, 34.7695789], [135.3865728, 34.7696681], [135.3865586, 34.7697258], [135.3865372, 34.7698117], [135.3865517, 34.7699308], [135.3866022, 34.7699906], [135.3868408, 34.7700203], [135.3869783, 34.7700383], [135.3872097, 34.7700622], [135.3873469, 34.7700981], [135.3873325, 34.7702531], [135.3873353, 34.7703228], [135.3873386, 34.7704003], [135.3873397, 34.7704275], [135.3873833, 34.7706125], [135.3875131, 34.7707019], [135.3877156, 34.7707139], [135.3878386, 34.7706842], [135.3879253, 34.7705469], [135.3881928, 34.7704575], [135.3885617, 34.7704456], [135.3889303, 34.7704872], [135.3891111, 34.7705111], [135.3892125, 34.7705767], [135.3892558, 34.7706842], [135.3892992, 34.7707497], [135.3895739, 34.7708272], [135.3896244, 34.7708242], [135.3896514, 34.7707511], [135.3896753, 34.7706869], [135.3897114, 34.7705378], [135.3897547, 34.7704306], [135.3897981, 34.7700906], [135.3899147, 34.7700094], [135.3900294, 34.7699294], [135.3900875, 34.7696847], [135.3901742, 34.7693272], [135.3901886, 34.7692019], [135.3902897, 34.7689811], [135.3903697, 34.7688286], [135.3904125, 34.7687467], [135.3905647, 34.7684564], [135.3906586, 34.7682864], [135.39067, 34.7681003], [135.3906756, 34.7680128], [135.3906803, 34.7679342], [135.3906408, 34.7677886], [135.3905931, 34.7676111], [135.3904711, 34.7671603], [135.3904128, 34.7669444], [135.3902659, 34.7666667], [135.3902392, 34.7666161], [135.3902031, 34.7665089], [135.3901886, 34.7662106], [135.3901597, 34.7658914], [135.3900828, 34.7656189], [135.3900508, 34.7655061], [135.3900367, 34.7654558], [135.3900786, 34.7654322], [135.3902836, 34.7653172], [135.3903031, 34.7653064], [135.3903983, 34.7652531], [135.3906947, 34.7651994], [135.3909986, 34.7651517], [135.3912372, 34.7652056], [135.3914972, 34.7652769], [135.3916667, 34.7653012], [135.3917069, 34.7653069], [135.3918586, 34.765295], [135.3920539, 34.7652411], [135.3922564, 34.7651158], [135.3924156, 34.7650325], [135.3925747, 34.7649431], [135.3928206, 34.7647642], [135.3930014, 34.7646211], [135.3930231, 34.7644661], [135.3930297, 34.7643475], [135.3930328, 34.7642961], [135.3930369, 34.7642214], [135.3930447, 34.7640842], [135.3932256, 34.7640364], [135.3932644, 34.7640339], [135.3934133, 34.7640244], [135.3936447, 34.7639917], [135.3938242, 34.7638808], [135.3939342, 34.7638128], [135.3940286, 34.7637211], [135.3942594, 34.7634967], [135.3943389, 34.7634847], [135.3944547, 34.7635086], [135.3945339, 34.7635025], [135.3946281, 34.7634131], [135.3947075, 34.7633058], [135.3947492, 34.7632544], [135.3949217, 34.7630425], [135.3950908, 34.7628344], [135.3951919, 34.7627808], [135.3954028, 34.7627406], [135.3955969, 34.7627033], [135.3956983, 34.7626678], [135.39585, 34.7625603], [135.3958964, 34.7624622], [135.3959544, 34.7623397], [135.3959733, 34.7623003], [135.3960211, 34.7621997], [135.3960453, 34.7621486], [135.3961936, 34.7619722], [135.3962911, 34.7618564], [135.3964575, 34.7617847], [135.3965047, 34.7617761], [135.3966383, 34.7617519], [135.3970158, 34.7615528], [135.3972603, 34.7614239], [135.3974989, 34.7613403], [135.3977156, 34.761215], [135.39786, 34.7611317], [135.3982708, 34.7610111], [135.3985108, 34.7609408], [135.3987219, 34.7609733], [135.3988514, 34.7609931], [135.3989247, 34.7610044], [135.3990564, 34.7610244], [135.3992339, 34.7610517], [135.399285, 34.7610597], [135.3994436, 34.7610839], [135.3997619, 34.7611436], [135.4, 34.7611741], [135.4002647, 34.7612081], [135.4004631, 34.7612336], [135.4006219, 34.7612539], [135.4006703, 34.7612714], [135.4007122, 34.7612864], [135.4008536, 34.7613375], [135.4008681, 34.7615044], [135.4008897, 34.7616417], [135.4008867, 34.7618608], [135.4008847, 34.7620053], [135.4008842, 34.7620422], [135.4008825, 34.7621725], [135.4009258, 34.7622264], [135.4014031, 34.7622619], [135.4016364, 34.7622719], [135.4018297, 34.76228], [135.4020033, 34.7623217], [135.4020394, 34.7623286], [135.4020811, 34.7623364], [135.402285, 34.7623753], [135.4024078, 34.7624708], [135.4026706, 34.7627475], [135.4027478, 34.7628289], [135.4026611, 34.7630317], [135.4025897, 34.7631542], [135.4023933, 34.7634906], [135.4024006, 34.7635892], [135.40251, 34.7639186], [135.4025669, 34.7640903], [135.4025525, 34.7642692], [135.4025431, 34.7643964], [135.4025275, 34.7646097], [135.4025122, 34.7648142], [135.4025019, 34.7649553], [135.4025081, 34.7650622], [135.4025222, 34.7653136], [135.4025225, 34.7653169], [135.4025278, 34.7654114], [135.4025311, 34.7654719], [135.4025381, 34.7655933], [135.4025092, 34.7656769], [135.4025814, 34.7657633], [135.4028344, 34.7657097], [135.4029889, 34.7656014], [135.4030967, 34.7655256], [135.4035142, 34.7652325], [135.403695, 34.7651072], [135.4038036, 34.765], [135.4039842, 34.7648628], [135.4040639, 34.7647194], [135.4040956, 34.7646408], [135.4041378, 34.7645364], [135.4041433, 34.7645228], [135.4042025, 34.7644808], [135.4042356, 34.7644572], [135.4043508, 34.7643756], [135.4045394, 34.7642414], [135.4046058, 34.7641944], [135.4046858, 34.7641419], [135.4048156, 34.7640572], [135.4049531, 34.7640275], [135.4052928, 34.7639797], [135.4054767, 34.763955], [135.4055603, 34.7639439], [135.4056689, 34.7639022], [135.4057483, 34.763795], [135.4057772, 34.7634403], [135.4057992, 34.7631008], [135.4058022, 34.7630556], [135.4058208, 34.7627661], [135.4058569, 34.7625336], [135.4060839, 34.7625369], [135.4061508, 34.7625381], [135.4062403, 34.7625394], [135.4062586, 34.7625047], [135.4063197, 34.7623903], [135.4064425, 34.7622592], [135.4067536, 34.7622592], [135.4067608, 34.7620325], [135.4068114, 34.7618594], [135.4068178, 34.7617964], [135.4068258, 34.7617161], [135.4071369, 34.7608606], [135.4073803, 34.760855], [135.4074278, 34.7608542], [135.4076175, 34.7608497], [135.4079381, 34.7608428], [135.4082067, 34.7608367], [135.4083114, 34.7607828], [135.4083333, 34.7607714], [135.4083622, 34.7607564], [135.4085539, 34.7606578], [135.4089517, 34.7606694], [135.4092842, 34.7607233], [135.4094917, 34.7607697], [135.4097108, 34.7608186], [135.4101878, 34.7609858], [135.4102822, 34.7610203], [135.4103206, 34.7610344], [135.4103544, 34.7610467], [135.4104408, 34.7610783], [135.4105494, 34.7609292], [135.4106947, 34.7606953], [135.4107161, 34.7606611], [135.4108386, 34.7604639], [135.4109231, 34.7603558], [135.4109833, 34.7602789], [135.4110536, 34.7601853], [135.4111133, 34.7601058], [135.4116589, 34.7600519], [135.4120383, 34.7600275], [135.4121186, 34.7600222], [135.4124078, 34.7599467], [135.4124147, 34.7599447], [135.4125653, 34.7598908], [135.4127333, 34.7597497], [135.4127681, 34.7597208], [135.4127814, 34.7597094], [135.4129992, 34.7595269], [135.4131367, 34.7593839], [135.4138525, 34.7593481], [135.4139958, 34.7593072], [135.41406, 34.7592892], [135.4140869, 34.7592814], [135.4142286, 34.7592411], [135.4143197, 34.7591308], [135.4143369, 34.7591097], [135.4143397, 34.7589794], [135.4143411, 34.7589189], [135.4143422, 34.7588589], [135.4143442, 34.7587697], [135.4143883, 34.7586308], [135.4144164, 34.7585431], [135.4145102, 34.7583333], [135.4145178, 34.7583164], [135.4146625, 34.7580717], [135.4149372, 34.7577019], [135.41506, 34.7575767], [135.4151975, 34.7573797], [135.4152089, 34.7572917], [135.4152144, 34.7572481], [135.4152211, 34.7571964], [135.4152625, 34.7568731], [135.4153928, 34.7567836], [135.4154892, 34.7567842], [135.4157042, 34.7567856], [135.4161931, 34.7567889], [135.4162964, 34.7567894], [135.4163831, 34.7568075], [135.4164192, 34.7569028], [135.4164408, 34.7570461], [135.4164192, 34.7575111], [135.4164481, 34.7575767], [135.4164625, 34.7575833], [135.4165014, 34.7576008], [135.4166578, 34.7576722], [135.4166667, 34.7576757], [135.4167808, 34.7577197], [135.4169014, 34.7578308], [135.4169689, 34.7578928], [135.4169472, 34.7580061], [135.4168617, 34.7581186], [135.4167081, 34.7583211], [135.416699, 34.7583333], [135.4166667, 34.7583771], [135.416584, 34.7584889], [135.4163745, 34.7586949], [135.4162514, 34.7588151], [135.4161473, 34.7589168], [135.4157903, 34.7592589], [135.4156794, 34.7594178], [135.4155081, 34.7596642], [135.4154697, 34.7597347], [135.4154431, 34.7597836], [135.4153817, 34.7598308], [135.4153344, 34.7598669], [135.4154936, 34.7598789], [135.4156239, 34.7599386], [135.4158336, 34.7599806], [135.4158567, 34.7600003], [135.4160433, 34.7601594], [135.4160506, 34.7603086], [135.4160794, 34.7605531], [135.4161444, 34.7607917], [135.4161519, 34.7608589], [135.4161561, 34.7608944], [135.4161878, 34.7611764], [135.4162131, 34.7613844], [135.4162167, 34.761415], [135.4162253, 34.7615067], [135.4162336, 34.7615922], [135.4162456, 34.7617131], [135.4162236, 34.7619219], [135.4162, 34.7621206], [135.4161947, 34.7621664], [135.4161947, 34.7621669], [135.4161967, 34.7621939], [135.4162092, 34.7623811], [135.4162236, 34.7624589], [135.4162961, 34.7624944], [135.4164478, 34.7625125], [135.4165708, 34.76259], [135.4166667, 34.7626024], [135.4167083, 34.7626078], [135.4167656, 34.7626081], [135.4168119, 34.7626086], [135.4171414, 34.7626108], [135.4175469, 34.7626139], [135.4181256, 34.7625958], [135.4181589, 34.7625933], [135.4185014, 34.7625661], [135.4186603, 34.762575], [135.4187889, 34.7625719], [135.4188989, 34.7625692], [135.4189283, 34.7627867], [135.4189353, 34.7628375], [135.4189419, 34.7629892], [135.4189472, 34.763105], [135.4189542, 34.76326], [135.4189586, 34.7633567], [135.4189628, 34.7634486], [135.4189717, 34.7636475], [135.4189733, 34.7636878], [135.4189786, 34.7638039], [135.4188917, 34.7640008], [135.41878, 34.7641392], [135.4186567, 34.7642917], [135.4185447, 34.76443], [135.4185017, 34.7645969], [135.4184872, 34.7648536], [135.4181833, 34.7649789], [135.4179558, 34.7651381], [135.4178508, 34.7652114], [135.4178, 34.7653247], [135.4177928, 34.7654322], [135.4178436, 34.7655664], [135.4179217, 34.7656658], [135.4179522, 34.7657053], [135.4180025, 34.7657692], [135.4181472, 34.765835], [135.4182442, 34.7658436], [135.4183011, 34.7658486], [135.4184625, 34.7658631], [135.4185642, 34.7658719], [135.4186819, 34.7658825], [135.4192028, 34.7659006], [135.4198681, 34.7658825], [135.4202294, 34.7658706], [135.4204472, 34.7660567], [135.4205031, 34.7661044], [135.4205575, 34.7661508], [135.4206631, 34.7662411], [135.4208261, 34.7663803], [135.4209297, 34.7664692], [135.4210322, 34.7665567], [135.4210966, 34.7666667], [135.4212886, 34.7669944], [135.4213336, 34.7670714], [135.4214056, 34.7671939], [135.4214578, 34.7672833], [135.4215092, 34.7673706], [135.4215644, 34.7674681], [135.4216689, 34.7676517], [135.4217261, 34.7677525], [135.4217308, 34.7677856], [135.4217392, 34.7678422], [135.4217478, 34.7679017], [135.4217044, 34.7681881], [135.4215742, 34.7689336], [135.4214583, 34.7690144], [135.4213142, 34.7691156], [135.4213097, 34.7694328], [135.4213036, 34.7698608], [135.4212997, 34.7701414], [135.4212969, 34.7702575], [135.4212853, 34.7707736], [135.4213894, 34.7707967], [135.4215026, 34.7708216], [135.4214735, 34.7712927], [135.4214663, 34.7715566], [135.4215311, 34.7715881], [135.4217117, 34.7715642], [135.42182, 34.7715103], [135.4219503, 34.7713911], [135.4221311, 34.7712419], [135.422225, 34.7711822], [135.4223192, 34.7711225], [135.4224058, 34.7709856], [135.4224419, 34.7708483], [135.4225253, 34.7708447], [135.4225747, 34.7708425], [135.4226131, 34.7708408], [135.4227094, 34.7708364], [135.4228181, 34.7707886], [135.4228758, 34.7706217], [135.4229119, 34.7703172], [135.4229361, 34.77031], [135.4230386, 34.7702797], [135.4231956, 34.7702328], [135.4234061, 34.77017], [135.42359, 34.7701153], [135.4238183, 34.7700469], [135.4240111, 34.7699894], [135.4240517, 34.7699947], [135.4242425, 34.7700194], [135.4246258, 34.7700194], [135.4248283, 34.7699894], [135.425, 34.7699049], [135.4251608, 34.7698256], [135.4256378, 34.7696525], [135.4258186, 34.7696344], [135.4261442, 34.7696883], [135.4265186, 34.7697019], [135.4267508, 34.7697103], [135.4269611, 34.7697181], [135.4271564, 34.7697003], [135.4272794, 34.7696703], [135.4274964, 34.769545], [135.4276331, 34.7694133], [135.4277567, 34.7692944], [135.4278506, 34.7692586], [135.4281617, 34.7693272], [135.4282119, 34.7693464], [135.4283425, 34.7693967], [135.4287833, 34.7695658], [135.4292244, 34.7697689], [135.429745, 34.7699358], [135.4298317, 34.7699786], [135.430125, 34.7701242], [135.4303958, 34.7702581], [135.4307644, 34.7704069], [135.4309164, 34.7704967], [135.4310964, 34.7705978], [135.4313936, 34.770765], [135.4317481, 34.7709647], [135.4318925, 34.7710125], [135.4320444, 34.7710244], [135.4322036, 34.7710125], [135.4324219, 34.7710225], [135.4326011, 34.7710306], [135.4330475, 34.7710153], [135.4333028, 34.7710067], [135.4333333, 34.7710074], [135.4334011, 34.7710092], [135.4335269, 34.7710125], [135.4338306, 34.7710125], [135.4340617, 34.7710425], [135.4342233, 34.771095], [135.4343003, 34.77112], [135.4343458, 34.7711342], [135.4345681, 34.7712033], [135.4346836, 34.7712392], [135.4351681, 34.77143], [135.4353031, 34.7714528], [135.4354589, 34.7714792], [135.4356453, 34.7715106], [135.4361081, 34.7715167], [135.4362353, 34.7715486], [135.4363467, 34.7715764], [135.4364481, 34.7716478], [135.4365058, 34.7717969], [135.4365211, 34.7721806], [135.4365347, 34.7725189], [135.4375253, 34.7725308], [135.4378869, 34.7725367], [135.4384797, 34.7725247], [135.4384942, 34.7731125], [135.4385158, 34.7732972], [135.4385231, 34.7734464], [135.4385667, 34.7735936], [135.4385953, 34.7736908], [135.4386386, 34.7741142], [135.4386747, 34.7742217], [135.4387328, 34.7744306], [135.4388011, 34.7744281], [135.4388725, 34.7744256], [135.4393883, 34.7744064], [135.4397089, 34.7743947], [135.4397667, 34.7743828], [135.4397811, 34.7740964], [135.4397161, 34.7737208], [135.4398806, 34.7736989], [135.440035, 34.7736786], [135.4400928, 34.7736708], [135.4401706, 34.7736606], [135.4403367, 34.7736383], [135.4404519, 34.7736231], [135.4405825, 34.7736058], [135.4407014, 34.77359], [135.4407936, 34.7735778], [135.4411189, 34.7735658], [135.4414806, 34.77353], [135.4416667, 34.7735138], [135.44203, 34.7734822], [135.4421747, 34.7734553], [135.4421603, 34.7727456], [135.4423267, 34.7726858], [135.4425647, 34.7726686], [135.4429917, 34.7726381], [135.4432158, 34.7726203], [135.4433097, 34.7725783], [135.4433675, 34.7725069], [135.4433603, 34.7724114], [135.4432592, 34.7722325], [135.4432158, 34.7720717], [135.4432519, 34.7718808], [135.4432664, 34.7717556], [135.4432158, 34.7715706], [135.4432014, 34.7714333], [135.4432231, 34.7712306], [135.44325, 34.7711206], [135.4432953, 34.7709353], [135.4433242, 34.7707683], [135.4433169, 34.7706669], [135.4432017, 34.7705953], [135.4431697, 34.7705894], [135.4430589, 34.7705694], [135.4429703, 34.7705536], [135.4428111, 34.7705417], [135.4427739, 34.7705431], [135.4427086, 34.7705458], [135.4426064, 34.77055], [135.4424825, 34.770555], [135.4424647, 34.7705556], [135.4423778, 34.7705592], [135.4419289, 34.7705772], [135.4418783, 34.7705356], [135.4418494, 34.7704519], [135.4418131, 34.7702314], [135.4417769, 34.7701658], [135.4417047, 34.7700881], [135.4416667, 34.7700794], [135.4415744, 34.7700583], [135.4409889, 34.7700703], [135.4409378, 34.7700719], [135.4408081, 34.7700764], [135.4405478, 34.7700106], [135.4403886, 34.7699867], [135.4401428, 34.7699033], [135.4399403, 34.7698258], [135.4398031, 34.7698467], [135.4396222, 34.76996], [135.439145, 34.7701867], [135.4386894, 34.7704133], [135.4381039, 34.7705864], [135.4378725, 34.7706578], [135.4377422, 34.7706639], [135.4376411, 34.7706578], [135.4374747, 34.770485], [135.4373808, 34.7703], [135.4373519, 34.7701747], [135.4373569, 34.7701633], [135.4374025, 34.7700553], [135.4376203, 34.7699567], [135.4378183, 34.7698672], [135.4378508, 34.7698525], [135.4383642, 34.7696319], [135.4385956, 34.7695961], [135.4392678, 34.7692919], [135.4394847, 34.7691725], [135.4396872, 34.7690233], [135.4399186, 34.7688864], [135.4399214, 34.7688853], [135.4403019, 34.7687194], [135.4404036, 34.768675], [135.4405333, 34.7686181], [135.4407042, 34.7685669], [135.4412764, 34.768395], [135.4413286, 34.7683794], [135.4415903, 34.7683189], [135.4416667, 34.7683011], [135.4417408, 34.7682839], [135.4420242, 34.7682378], [135.4422903, 34.7681944], [135.4423617, 34.7681928], [135.4427133, 34.7681839], [135.4427678, 34.7681825], [135.4428733, 34.7681883], [135.4432956, 34.7682122], [135.4434672, 34.7682469], [135.4435775, 34.7682692], [135.4437089, 34.7683047], [135.4441489, 34.7684242], [135.4444811, 34.7685078], [135.4446967, 34.7685292], [135.4446806, 34.7685753], [135.4446567, 34.7686442], [135.4445406, 34.7689781], [135.4444869, 34.7691317], [135.4444986, 34.7693275], [135.4445028, 34.7693958], [135.4445158, 34.769615], [135.4445014, 34.7698119], [135.4446647, 34.7701039], [135.4447617, 34.7702769], [135.4448558, 34.7704975], [135.4449786, 34.77076], [135.4452681, 34.7711986], [135.4453836, 34.7714192], [135.4454197, 34.7716817], [135.4454342, 34.7720517], [135.4454269, 34.7721708], [135.4454517, 34.7726972], [135.4454569, 34.7728075], [135.4454694, 34.7730792], [135.4454711, 34.7731169], [135.4455139, 34.7740467], [135.4455933, 34.7742494], [135.4456511, 34.7745956], [135.4456656, 34.7749058], [135.4456507, 34.775], [135.4456439, 34.7750428], [135.4456706, 34.7750958], [135.4457219, 34.7751978], [135.4459858, 34.7752494], [135.4461792, 34.7752872], [135.4462153, 34.7753828], [135.4462225, 34.7757136], [135.4462078, 34.7759583], [135.4462006, 34.7762925], [135.4462006, 34.7770678], [135.446185, 34.7771553], [135.4461717, 34.7772289], [135.4461136, 34.7773064], [135.4459403, 34.7773542], [135.4455789, 34.7773961], [135.4454775, 34.7774733], [135.4454342, 34.7775986], [135.4454197, 34.7779803], [135.44539, 34.7781531], [135.4453692, 34.7782756], [135.4452969, 34.7785678], [135.4451233, 34.7793433], [135.4450075, 34.7799517], [135.4449717, 34.7801289], [135.4449642, 34.7801664], [135.4449858, 34.7802647], [135.4451231, 34.7803542], [135.445165, 34.7804425], [135.4451881, 34.7804914], [135.4451303, 34.7807419], [135.4448847, 34.7811058], [135.4447906, 34.7812908], [135.4447039, 34.7814161], [135.4445086, 34.7815711], [135.4444797, 34.78212], [135.4442989, 34.7822211], [135.4439808, 34.7822392], [135.4438578, 34.7822569], [135.4438567, 34.7822594], [135.44383, 34.7823114], [135.4438, 34.7823703], [135.4438182, 34.7833333], [135.4438268, 34.7837888], [135.4438289, 34.7839003], [135.4438289, 34.7840675], [135.4438144, 34.7841569], [135.4437061, 34.7842106], [135.4433083, 34.7842167], [135.4431069, 34.7842386], [135.442925, 34.7842583], [135.4426906, 34.7843003], [135.4424911, 34.7843358], [135.4423175, 34.7844847], [135.4423031, 34.7848814], [135.4423972, 34.785305], [135.44252, 34.7854661], [135.4425489, 34.7855375], [135.4425781, 34.7856092], [135.4425925, 34.7859014], [135.4426378, 34.7860028], [135.4426936, 34.7861281], [135.4427586, 34.7862356], [135.4427658, 34.7863311], [135.4427225, 34.7865158], [135.4424767, 34.7871419], [135.4421442, 34.7878786], [135.4416958, 34.7888631], [135.4416814, 34.7889447], [135.4416667, 34.7890276], [135.441645, 34.7891494], [135.4416164, 34.7893758], [135.4416008, 34.7894981], [135.4415944, 34.7895489], [135.4416378, 34.7896472], [135.4416667, 34.7896673], [135.4417319, 34.7897128], [135.4418908, 34.789695], [135.4419456, 34.7896392], [135.4420428, 34.7895397], [135.4420861, 34.7893553], [135.4421586, 34.7893314], [135.4422742, 34.7893433], [135.4423872, 34.7893378], [135.4428744, 34.7893133], [135.4423247, 34.7896175], [135.4423683, 34.7897069], [135.4424767, 34.7897725], [135.4426864, 34.7898322], [135.4427369, 34.7898917], [135.4427081, 34.790005], [135.4425633, 34.7900528], [135.4423319, 34.7901303], [135.4422164, 34.7902856], [135.4420439, 34.79034], [135.4418047, 34.7904158], [135.4416667, 34.7904594], [135.4415944, 34.7904822], [135.4414364, 34.7905625], [135.4413703, 34.7905958], [135.4412764, 34.7906972], [135.4414353, 34.7907686], [135.4416667, 34.7907756], [135.4418331, 34.7907806], [135.4420633, 34.7908383], [135.4424544, 34.7909367], [135.4426647, 34.7909894], [135.4427586, 34.7910192], [135.4427947, 34.7910669], [135.4427875, 34.7911744], [135.4426719, 34.79121], [135.4424261, 34.7912339], [135.4418824, 34.7916667], [135.4417031, 34.7918094], [135.4416667, 34.7918671], [135.4416089, 34.7919586], [135.441515, 34.7919644], [135.441265, 34.7919133], [135.4411433, 34.7918883], [135.4410533, 34.79187], [135.4408528, 34.7918289], [135.4407031, 34.7917983], [135.4406856, 34.7917947], [135.4405822, 34.7917736], [135.4396058, 34.7918333], [135.438695, 34.7918928], [135.4384781, 34.7920003], [135.4383883, 34.7920975], [135.4381889, 34.7923133], [135.4379717, 34.7925358], [135.437895, 34.7926147], [135.4377406, 34.7927728], [135.4370103, 34.7935481], [135.4364317, 34.7941417], [135.4363603, 34.7942181], [135.4361858, 34.7944042], [135.4360372, 34.7945533], [135.4356933, 34.7948983], [135.4353833, 34.7952094], [135.4348406, 34.7957819], [135.4346314, 34.7960025], [135.4340747, 34.7965931], [135.4340531, 34.7968406], [135.4340531, 34.7971508], [135.4345467, 34.7972578], [135.4346025, 34.79727], [135.4345275, 34.7978319], [135.4345231, 34.7978664], [135.4345103, 34.7979261], [135.4344633, 34.7981478], [135.4344488, 34.7982398], [135.4338586, 34.7981934], [135.433768, 34.7981096], [135.4336033, 34.7979553], [135.4334456, 34.7978067], [135.4333333, 34.7977716], [135.4332358, 34.7977411], [135.4330261, 34.7979283], [135.4329683, 34.7979797], [135.4328019, 34.7982242], [135.4326283, 34.7983317], [135.4324186, 34.7984211], [135.4317681, 34.7984092], [135.4316483, 34.7984264], [135.431535, 34.7984431], [135.4313414, 34.7984711], [135.4312331, 34.7984867], [135.4311897, 34.7989581], [135.4311681, 34.7992475], [135.4310233, 34.7992711], [135.4309153, 34.7995347], [135.4308497, 34.7996953], [135.4308353, 34.7997303], [135.4308289, 34.7997381], [135.4308072, 34.7997647], [135.4306856, 34.799915], [135.4306166, 34.8], [135.4305039, 34.8001392], [135.4304814, 34.8001672], [135.4303853, 34.8002856], [135.430315, 34.8003725], [135.4303122, 34.8003758], [135.4302517, 34.8004506], [135.4301753, 34.8005444], [135.4301528, 34.8005725], [135.4300569, 34.8006908], [135.4299603, 34.80081], [135.4299314, 34.8009889], [135.4299242, 34.8011142], [135.4298953, 34.8012097], [135.4297869, 34.8012603], [135.4296278, 34.8012842], [135.4295481, 34.8013261], [135.4294903, 34.8014453], [135.4293022, 34.801505], [135.4291072, 34.8015228], [135.4289561, 34.8022908], [135.4289194, 34.8024783], [135.4289061, 34.802545], [135.4288903, 34.8026261], [135.4288178, 34.8026358], [135.4287692, 34.8026422], [135.4286661, 34.8026561], [135.4286442, 34.8029125], [135.428695, 34.8030497], [135.428695, 34.8031333], [135.4286369, 34.8031811], [135.4284492, 34.8031811], [135.4283839, 34.8031153], [135.4283831, 34.8031103], [135.4283622, 34.8029661], [135.428355, 34.8028231], [135.4282828, 34.8027633], [135.4280008, 34.8027217], [135.4278347, 34.8026858], [135.4277261, 34.8025189], [135.4276058, 34.8022983], [135.4273488, 34.802295], [135.4269141, 34.802295], [135.4267339, 34.8023001], [135.4264669, 34.8025155], [135.4262558, 34.8027001], [135.4261378, 34.8026283], [135.4260198, 34.8025975], [135.4259267, 34.8024437], [135.4252249, 34.8025001], [135.425, 34.8023399], [135.4249082, 34.8022745], [135.4242375, 34.8021514], [135.423896, 34.8020848], [135.4237403, 34.8020533], [135.4236922, 34.8017922], [135.4236344, 34.8014639], [135.4232769, 34.8014289], [135.423085, 34.8014103], [135.4228536, 34.8014164], [135.4224703, 34.8014878], [135.4220942, 34.8016072], [135.4219406, 34.8016339], [135.4215808, 34.8016967], [135.4214361, 34.8017083], [135.4212817, 34.8017211], [135.42114, 34.8017325], [135.4210244, 34.8017533], [135.4205181, 34.801795], [135.4200914, 34.8018069], [135.4197733, 34.801795], [135.4193789, 34.8018025], [135.4191497, 34.8018069], [135.4189556, 34.8018106], [135.4188261, 34.8018131], [135.4185586, 34.8018189], [135.4183153, 34.8018064], [135.4182117, 34.8018011], [135.4177344, 34.8017803], [135.4175858, 34.8017586], [135.4171631, 34.8016967], [135.4170192, 34.8016767], [135.41678, 34.8016431], [135.4166667, 34.8016456], [135.4165194, 34.8016489], [135.4159569, 34.8016444], [135.4158036, 34.8016431], [135.4150158, 34.8015953], [135.4146108, 34.8015892], [135.4143922, 34.8015769], [135.4142353, 34.8015681], [135.4141583, 34.8015636], [135.4133575, 34.8015186], [135.4131792, 34.8015086], [135.4130156, 34.8014897], [135.4128792, 34.8014739], [135.4126656, 34.8014492], [135.4122031, 34.8014731], [135.4117836, 34.8015206], [135.4114861, 34.8015481], [135.4114386, 34.8015522], [135.4113061, 34.8015644], [135.4111814, 34.8015761], [135.4110836, 34.801585], [135.4110214, 34.8015908], [135.4108781, 34.8016039], [135.4106994, 34.8016203], [135.4105836, 34.8016311], [135.4100672, 34.8016786], [135.4099036, 34.8016936], [135.4094411, 34.8015983], [135.4090072, 34.8015386], [135.4086992, 34.8014553], [135.4086094, 34.8014311], [135.4084378, 34.801395], [135.4083333, 34.8013733], [135.408315, 34.8013694], [135.4077761, 34.8012564], [135.4076839, 34.8012372], [135.4075683, 34.8012075], [135.4072789, 34.8011778], [135.40712, 34.8011597], [135.4068058, 34.8011428], [135.4066792, 34.8011358], [135.4063031, 34.8011119], [135.4061583, 34.8010583], [135.4059775, 34.8010406], [135.405645, 34.8009747], [135.4054281, 34.8008733], [135.405305, 34.8007422], [135.4049694, 34.8005656], [135.4048061, 34.8004797], [135.4044736, 34.8004319], [135.4042133, 34.8004439], [135.404105, 34.8004856], [135.4040256, 34.8006108], [135.4039097, 34.8007839], [135.4038736, 34.8009092], [135.4038131, 34.8010133], [135.4037892, 34.8010542], [135.4037072, 34.8011953], [135.4035064, 34.8015772], [135.4034686, 34.8016486], [135.4033964, 34.8017919], [135.4033294, 34.8019067], [135.4032861, 34.8019808], [135.4032514, 34.8020406], [135.4032081, 34.8021147], [135.4031164, 34.8022719], [135.403085, 34.8023256], [135.4030275, 34.8024242], [135.4027889, 34.8029192], [135.4026625, 34.80318], [135.4025817, 34.8033461], [135.4025675, 34.8033756], [135.4024131, 34.8036942], [135.4023967, 34.8037278], [135.4023189, 34.8038883], [135.4019514, 34.8045981], [135.4017794, 34.8049297], [135.4017353, 34.8050153], [135.4016825, 34.8051172], [135.4014511, 34.8055556], [135.4013211, 34.8058119], [135.4011844, 34.8063281], [135.4011633, 34.8064086], [135.4011475, 34.8064681], [135.4010681, 34.80682], [135.4008872, 34.8074942], [135.4007858, 34.8078133], [135.4006513, 34.8083333], [135.4006486, 34.8083439], [135.4006404, 34.8083333], [135.4005208, 34.8081806], [135.4004244, 34.8080575], [135.4003353, 34.8079144], [135.4001111, 34.8077297], [135.4, 34.807632], [135.3998942, 34.8075389], [135.3997639, 34.8074972], [135.3996628, 34.807515], [135.3994458, 34.8076939], [135.3993228, 34.8077892], [135.3992003, 34.8079264], [135.3990917, 34.8080517], [135.3990267, 34.8080694], [135.3989036, 34.8080694], [135.3988294, 34.8080594], [135.3986681, 34.8080378], [135.3985161, 34.8080172], [135.3984344, 34.8080064], [135.3983347, 34.8079931], [135.398195, 34.8079742], [135.3980722, 34.8079742], [135.3978625, 34.8079472], [135.39779, 34.8078817], [135.3977756, 34.8077386], [135.3977289, 34.8076147], [135.3976878, 34.8075061], [135.3976486, 34.8074022], [135.3976022, 34.8072794], [135.3976022, 34.8071481], [135.3975586, 34.8069872], [135.3975153, 34.8067842], [135.3971394, 34.8066764], [135.3970511, 34.8066508], [135.3970381, 34.8066472], [135.3969225, 34.8065933], [135.3968006, 34.8064744], [135.3966478, 34.806325], [135.396525, 34.8062772], [135.3961128, 34.8061997], [135.3957006, 34.8060328], [135.3953536, 34.8059253], [135.3947967, 34.8057492], [135.3946667, 34.8059164]]]}, "properties": {"uri": "https://uedayou.net/loa/兵庫県伊丹市", "name": "兵庫県伊丹市", "prefecture": "兵庫県", "municipality": "伊丹市", "notation": "兵庫県伊丹市"}}