{"type": "Feature", "geometry": {"type": "Polygon", "coordinates": [[[135.3744836, 34.7805003], [135.3741583, 34.7805897], [135.3739631, 34.780715], [135.3736883, 34.7809356], [135.37345, 34.7812297], [135.3734958, 34.7810386], [135.373785, 34.7800456], [135.3738311, 34.7797925], [135.3738503, 34.7796878], [135.3739153, 34.7792525], [135.3739469, 34.7790167], [135.3739514, 34.7789839], [135.3739297, 34.7787811], [135.3739275, 34.7787244], [135.3739225, 34.7785961], [135.3739803, 34.7777283], [135.3739947, 34.7771081], [135.3740383, 34.7768875], [135.3740386, 34.7767144], [135.3740503, 34.7764286], [135.3740519, 34.7763911], [135.3740733, 34.7758631], [135.3740747, 34.7758314], [135.3740814, 34.7757964], [135.3741108, 34.7756406], [135.3741078, 34.7755728], [135.3741036, 34.7754767], [135.3741325, 34.7750708], [135.3741388, 34.775], [135.3741542, 34.7748267], [135.3741614, 34.7746297], [135.3741469, 34.774415], [135.3741181, 34.7742122], [135.3741397, 34.7737469], [135.3741758, 34.7735739], [135.3741758, 34.7732011], [135.3741469, 34.7729206], [135.3741469, 34.7727239], [135.3741253, 34.7725389], [135.3741325, 34.7723542], [135.3741542, 34.7714714], [135.3741856, 34.7711542], [135.3742192, 34.7708122], [135.3742336, 34.7706094], [135.3742844, 34.7704067], [135.3742989, 34.7702156], [135.3743567, 34.7697328], [135.3743639, 34.7695597], [135.3743422, 34.7693569], [135.374335, 34.7692019], [135.37433, 34.7690194], [135.3743206, 34.7686889], [135.3743322, 34.7686108], [135.3743494, 34.768495], [135.3743422, 34.76831], [135.3743231, 34.7677547], [135.3743206, 34.7676778], [135.3743086, 34.7674322], [135.3742989, 34.7672364], [135.3743133, 34.7671111], [135.3743133, 34.7666667], [135.3743133, 34.7665683], [135.3743047, 34.7665117], [135.37427, 34.766285], [135.3742153, 34.7660094], [135.3741542, 34.7657006], [135.3741614, 34.7655275], [135.3741342, 34.7653611], [135.3741108, 34.7652172], [135.3740169, 34.7649489], [135.3738992, 34.7644931], [135.3738686, 34.7643753], [135.3738369, 34.7642531], [135.3738364, 34.7642511], [135.3737783, 34.7640333], [135.3736844, 34.7635861], [135.3735978, 34.7632103], [135.3735689, 34.7630072], [135.3734892, 34.7626375], [135.3734675, 34.7625003], [135.3734242, 34.7623036], [135.3734097, 34.7621247], [135.3733664, 34.7619697], [135.37333, 34.7617519], [135.3732722, 34.7614478], [135.3732369, 34.7610536], [135.3732289, 34.7609644], [135.3732236, 34.7608119], [135.3732217, 34.7607556], [135.3732361, 34.7600697], [135.3732072, 34.7598908], [135.3732217, 34.7597061], [135.3732217, 34.7593511], [135.3732072, 34.7590708], [135.3732289, 34.7588858], [135.3732465, 34.7583333], [135.3732506, 34.7582058], [135.3732939, 34.7578], [135.3733183, 34.7575903], [135.3733519, 34.7572992], [135.3734097, 34.7569564], [135.3734811, 34.7566933], [135.3735181, 34.7565567], [135.3736122, 34.7558944], [135.3736606, 34.7556758], [135.3737061, 34.7554708], [135.3737192, 34.7553875], [135.3738003, 34.7548683], [135.3738942, 34.7545167], [135.3739481, 34.7542544], [135.3739664, 34.7541647], [135.3740894, 34.7536339], [135.3741472, 34.7534789], [135.3742419, 34.7532447], [135.3744878, 34.7527478], [135.3745272, 34.7526825], [135.3745889, 34.7525808], [135.3747189, 34.7522769], [135.3748761, 34.7518139], [135.3749933, 34.7514686], [135.375, 34.7514426], [135.3752894, 34.7503111], [135.3753846, 34.75], [135.3755931, 34.7493183], [135.3756958, 34.7489969], [135.3758242, 34.7485964], [135.3759761, 34.7480417], [135.3760428, 34.7478675], [135.3761494, 34.7475883], [135.3762244, 34.7472414], [135.3762289, 34.7472203], [135.3764094, 34.7465997], [135.3765467, 34.7460719], [135.3767275, 34.7454753], [135.3768864, 34.7451592], [135.3769875, 34.7449861], [135.3770067, 34.74494], [135.3772258, 34.7444136], [135.377315, 34.7442419], [135.3776292, 34.7436375], [135.3776519, 34.7435933], [135.3782225, 34.7426628], [135.3786703, 34.741995], [135.3788703, 34.7416667], [135.3789375, 34.7415564], [135.3792122, 34.7410911], [135.379855, 34.7401681], [135.3800067, 34.7399175], [135.3800717, 34.7398103], [135.3802742, 34.7393511], [135.3804294, 34.7390681], [135.3804764, 34.7389828], [135.3805728, 34.7386736], [135.3805728, 34.7386733], [135.3806494, 34.7384281], [135.3806642, 34.7383803], [135.3807292, 34.7379403], [135.3807544, 34.7376167], [135.3807581, 34.7375706], [135.380795, 34.7370203], [135.3808014, 34.7369264], [135.3807869, 34.7364506], [135.3807842, 34.7362172], [135.38078, 34.7359019], [135.3806861, 34.7350919], [135.3805344, 34.7341736], [135.3804806, 34.7340072], [135.3804419, 34.7338878], [135.3802624, 34.7333333], [135.3802019, 34.7331461], [135.3799492, 34.7323647], [135.3798272, 34.7318836], [135.3797142, 34.7314392], [135.3796892, 34.7313403], [135.3796172, 34.730875], [135.3796331, 34.730715], [135.3796606, 34.730435], [135.3797183, 34.7301011], [135.3797542, 34.7299506], [135.3797978, 34.7297669], [135.3799928, 34.7292672], [135.3802892, 34.7286667], [135.3804842, 34.7283086], [135.3807514, 34.7279508], [135.381445, 34.7271767], [135.3823547, 34.7261092], [135.3827233, 34.7256797], [135.3831025, 34.7250681], [135.3831454, 34.725], [135.3832603, 34.7248181], [135.3833333, 34.7247024], [135.3837164, 34.7240958], [135.3839189, 34.7237736], [135.3840344, 34.7234772], [135.3841717, 34.7230594], [135.3842656, 34.7226547], [135.3842944, 34.7225303], [135.3843161, 34.7222439], [135.3843164, 34.7218644], [135.3843164, 34.7217547], [135.3843117, 34.7217275], [135.3843039, 34.7216822], [135.3842989, 34.7216528], [135.3842658, 34.7214622], [135.3842419, 34.7213797], [135.3841792, 34.7211642], [135.3840131, 34.7207464], [135.3834139, 34.7193561], [135.3833333, 34.7191694], [135.3833267, 34.7191539], [135.3830508, 34.7184367], [135.3829872, 34.7182711], [135.38266, 34.7175317], [135.3823372, 34.7168036], [135.3822814, 34.7166667], [135.3821925, 34.7164478], [135.3821125, 34.7162514], [135.3821117, 34.7162497], [135.3820858, 34.7161864], [135.3820053, 34.7159883], [135.3819703, 34.7159025], [135.3819256, 34.7157925], [135.3818808, 34.7156692], [135.3815778, 34.7148358], [135.3813475, 34.7142031], [135.3808567, 34.7127294], [135.3804883, 34.7116139], [135.3803511, 34.7113664], [135.3803478, 34.7113564], [135.3800692, 34.7105311], [135.3798028, 34.7098172], [135.3796719, 34.7094664], [135.3793256, 34.7084492], [135.3792808, 34.7083333], [135.3787186, 34.7068806], [135.3785081, 34.7063503], [135.3784875, 34.7062989], [135.3784639, 34.7062508], [135.3784361, 34.7061944], [135.3774186, 34.7041306], [135.3764072, 34.7020336], [135.3758081, 34.7008047], [135.3754647, 34.7], [135.375425, 34.6999069], [135.375, 34.6989833], [135.3744575, 34.6978042], [135.3744472, 34.6977831], [135.3739133, 34.6966753], [135.3738528, 34.6965494], [135.3733657, 34.6955388], [135.3724341, 34.6936062], [135.3737545, 34.6930179], [135.3737268, 34.6929519], [135.3737147, 34.6929236], [135.3737097, 34.6929251], [135.3736799, 34.6928593], [135.3736379, 34.6927666], [135.3734921, 34.6924254], [135.3733652, 34.6921293], [135.3733422, 34.6920755], [135.3731718, 34.6916789], [135.3731665, 34.6916667], [135.3730466, 34.691386], [135.3729307, 34.6911147], [135.3728964, 34.6910312], [135.3728706, 34.6909711], [135.3728095, 34.690828], [135.3727851, 34.6907713], [135.3727086, 34.6905972], [135.3725302, 34.6901846], [135.372406, 34.6898833], [135.3723546, 34.6897922], [135.3723335, 34.6897546], [135.372157, 34.6894394], [135.3717628, 34.6887537], [135.3714601, 34.6882261], [135.3710379, 34.6874915], [135.3704048, 34.6863863], [135.3702147, 34.6860584], [135.3697075, 34.6851774], [135.369248, 34.6843778], [135.3691774, 34.6842522], [135.3691, 34.6841184], [135.3690909, 34.6841213], [135.3690391, 34.6840301], [135.3688768, 34.6837501], [135.3686299, 34.6833333], [135.3685614, 34.6832177], [135.3687997, 34.6830142], [135.368832, 34.6829869], [135.3690571, 34.6827957], [135.3691374, 34.682726], [135.3695917, 34.6823385], [135.3706337, 34.6814375], [135.3712844, 34.6808664], [135.372733, 34.6821729], [135.3735622, 34.6828941], [135.3735892, 34.6829181], [135.3738356, 34.6831371], [135.3739626, 34.6832501], [135.3740562, 34.6833333], [135.3741524, 34.6834189], [135.3741747, 34.6834388], [135.375, 34.6841738], [135.3750769, 34.6842424], [135.3750823, 34.6842356], [135.376721, 34.6856797], [135.3775728, 34.684852], [135.3776156, 34.6848091], [135.3776612, 34.6848402], [135.3776522, 34.6848493], [135.3776822, 34.6848698], [135.377661, 34.6848911], [135.3776364, 34.6848741], [135.3767734, 34.685722], [135.3767816, 34.6857265], [135.3754178, 34.6870633], [135.3753154, 34.6871655], [135.3753631, 34.6872687], [135.3753361, 34.6872938], [135.3753017, 34.6873251], [135.3752904, 34.6873415], [135.3753139, 34.6873499], [135.3754574, 34.6872108], [135.375469, 34.687219], [135.3753112, 34.687372], [135.375336, 34.6874375], [135.3753207, 34.6874419], [135.3760501, 34.689174], [135.3760395, 34.6892011], [135.376048, 34.6892236], [135.3760699, 34.6892302], [135.3771063, 34.6916667], [135.3771128, 34.6916821], [135.3771565, 34.6916667], [135.3771635, 34.6916642], [135.3771781, 34.6916591], [135.3772106, 34.691634], [135.377243, 34.6916089], [135.3772401, 34.6915954], [135.377319, 34.6915767], [135.3773245, 34.6915834], [135.3773519, 34.6915922], [135.3773842, 34.6916667], [135.377498, 34.691929], [135.3774873, 34.6919449], [135.3774792, 34.6919494], [135.3774847, 34.6919584], [135.3774032, 34.6919839], [135.3774004, 34.6919749], [135.3773786, 34.6919751], [135.3773047, 34.6919622], [135.3772864, 34.691967], [135.3774747, 34.6924099], [135.3774959, 34.6924041], [135.3776082, 34.6926609], [135.3783341, 34.6924516], [135.3783477, 34.6924514], [135.3783587, 34.6924558], [135.3783697, 34.6924625], [135.378378, 34.6924737], [135.3783869, 34.6924978], [135.3784419, 34.6924811], [135.3784887, 34.6924669], [135.3784815, 34.692457], [135.3784786, 34.6924436], [135.3784757, 34.6924323], [135.378481, 34.6924165], [135.3784917, 34.6924051], [135.3785135, 34.6924004], [135.3789267, 34.6922774], [135.3787719, 34.6918979], [135.3787633, 34.6918664], [135.3787575, 34.6918417], [135.3787626, 34.6918101], [135.3787675, 34.6917717], [135.3787835, 34.6917378], [135.3788104, 34.6917083], [135.3788374, 34.6916855], [135.3788642, 34.6916667], [135.3788698, 34.6916627], [135.3788969, 34.6916489], [135.3789323, 34.6916373], [135.3792845, 34.6915456], [135.3792817, 34.691538], [135.3793591, 34.6915178], [135.3793611, 34.6915173], [135.3793641, 34.6915249], [135.3807491, 34.6911711], [135.3808523, 34.6911454], [135.3808931, 34.6911383], [135.3809204, 34.6911358], [135.3809477, 34.6911401], [135.3809778, 34.6911443], [135.3810216, 34.691153], [135.381011, 34.6911801], [135.3810412, 34.6911979], [135.3810687, 34.6912157], [135.3810881, 34.6912358], [135.3811047, 34.6912604], [135.3811124, 34.6912718], [135.3811409, 34.6913142], [135.381166, 34.6913591], [135.3813438, 34.6916667], [135.3814032, 34.6917695], [135.3818859, 34.6926083], [135.381897, 34.6926285], [135.3821983, 34.6931555], [135.3822319, 34.693216], [135.3824355, 34.6935681], [135.3826387, 34.69367], [135.3827838, 34.6937138], [135.3828869, 34.6936679], [135.3829386, 34.6936562], [135.382974, 34.6936469], [135.3830148, 34.6936397], [135.383053, 34.6936372], [135.383113, 34.6936366], [135.3831677, 34.6936429], [135.3832634, 34.6936624], [135.38331, 34.69368], [135.3833333, 34.693691], [135.3833759, 34.693711], [135.3834446, 34.6937487], [135.3834806, 34.6937867], [135.3835138, 34.6938247], [135.3835556, 34.6938943], [135.3837033, 34.6941386], [135.3837284, 34.6941835], [135.3837618, 34.6942396], [135.3838321, 34.6943582], [135.3841694, 34.6949264], [135.3842883, 34.6951267], [135.3846891, 34.6958018], [135.3847123, 34.6958136], [135.3847257, 34.6958227], [135.3847409, 34.6958377], [135.3847703, 34.6958761], [135.3847829, 34.6958958], [135.3847958, 34.6959098], [135.3848152, 34.6959301], [135.3848362, 34.6959404], [135.3848564, 34.6959496], [135.3850173, 34.6961461], [135.3850395, 34.6961797], [135.3850767, 34.6961648], [135.385103, 34.6962123], [135.3850388, 34.6962403], [135.3850765, 34.6963086], [135.3852225, 34.6962545], [135.3853124, 34.6964133], [135.3866872, 34.6958649], [135.3865219, 34.6955767], [135.386373, 34.695317], [135.3862363, 34.6950838], [135.3862278, 34.6948404], [135.3861978, 34.6948362], [135.3861759, 34.6948319], [135.3861484, 34.6948209], [135.3861236, 34.694803], [135.3861043, 34.6947852], [135.3860931, 34.6947627], [135.3860847, 34.6947425], [135.3860817, 34.69472], [135.3860868, 34.6946974], [135.3860947, 34.6946726], [135.3861135, 34.6946476], [135.3860997, 34.6946365], [135.3860914, 34.6946253], [135.3860857, 34.6946096], [135.3860855, 34.6945915], [135.3860907, 34.6945734], [135.3861014, 34.6945553], [135.3860876, 34.6945442], [135.3860794, 34.6945375], [135.3860683, 34.6945241], [135.3860598, 34.6945039], [135.3860541, 34.6944814], [135.3860511, 34.6944589], [135.3860536, 34.6944386], [135.3860642, 34.6944182], [135.3860803, 34.6943955], [135.386072, 34.6943866], [135.3860609, 34.6943731], [135.3860553, 34.6943574], [135.386055, 34.6943371], [135.3860602, 34.6943168], [135.3860709, 34.6942987], [135.3860571, 34.6942898], [135.3860517, 34.6942921], [135.3860155, 34.6942338], [135.3860236, 34.6942292], [135.3860208, 34.6942202], [135.3860205, 34.6942022], [135.3860284, 34.6941773], [135.3860229, 34.6941729], [135.3860064, 34.694164], [135.3859926, 34.6941529], [135.3859843, 34.6941417], [135.3859759, 34.6941237], [135.3859757, 34.6941057], [135.385959, 34.694081], [135.3859508, 34.6940789], [135.385926, 34.6940633], [135.3859179, 34.6940656], [135.3858761, 34.6939984], [135.3858842, 34.6939938], [135.3858842, 34.6939915], [135.3858841, 34.6939825], [135.3858839, 34.6939735], [135.3858838, 34.6939623], [135.3858864, 34.6939509], [135.385889, 34.6939442], [135.3858836, 34.6939419], [135.3858726, 34.6939376], [135.3858616, 34.6939331], [135.3858506, 34.693922], [135.3858422, 34.6939085], [135.3858392, 34.6938905], [135.3858363, 34.6938747], [135.3858389, 34.6938612], [135.3858334, 34.693859], [135.3858251, 34.6938546], [135.3858142, 34.6938524], [135.3857977, 34.6938435], [135.3857839, 34.6938279], [135.3857757, 34.6938325], [135.385745, 34.6937741], [135.3857504, 34.6937696], [135.3857503, 34.6937628], [135.3857474, 34.6937516], [135.3857472, 34.6937336], [135.3857552, 34.6937154], [135.3857442, 34.693711], [135.3857304, 34.6937021], [135.3857167, 34.6936933], [135.3857083, 34.6936798], [135.3857027, 34.6936663], [135.3856998, 34.6936483], [135.3857022, 34.6936303], [135.3856967, 34.6936281], [135.3856831, 34.6936236], [135.3856638, 34.6936125], [135.3856473, 34.6935968], [135.3856418, 34.6935969], [135.385625, 34.6935655], [135.385611, 34.6935386], [135.385611, 34.6935363], [135.3856108, 34.6935205], [135.3856106, 34.6935025], [135.3856158, 34.6934844], [135.3856131, 34.6934822], [135.3856021, 34.6934801], [135.3855911, 34.6934734], [135.3855801, 34.6934622], [135.3855717, 34.6934487], [135.3855661, 34.693433], [135.3855631, 34.6934128], [135.3855656, 34.693397], [135.3855574, 34.6933948], [135.3855409, 34.6933904], [135.3855217, 34.6933816], [135.3855079, 34.6933682], [135.3855052, 34.6933682], [135.3854691, 34.6933144], [135.3854772, 34.6933098], [135.3854744, 34.6933031], [135.3854742, 34.6932896], [135.3854739, 34.6932693], [135.3854792, 34.6932535], [135.385471, 34.6932513], [135.3854573, 34.6932469], [135.385449, 34.693238], [135.3854352, 34.6932246], [135.3854295, 34.6932066], [135.3854292, 34.6931863], [135.385429, 34.6931683], [135.3854125, 34.6931617], [135.3853906, 34.6931506], [135.3853713, 34.6931372], [135.3853659, 34.6931395], [135.3853324, 34.6930835], [135.3853379, 34.6930812], [135.385335, 34.6930744], [135.3853349, 34.6930632], [135.3853347, 34.6930474], [135.3853399, 34.6930293], [135.3853288, 34.6930136], [135.3853206, 34.6930114], [135.3853179, 34.6930115], [135.3853069, 34.6930048], [135.3852986, 34.6929936], [135.3852902, 34.6929802], [135.3852873, 34.6929644], [135.3852871, 34.6929486], [135.3852896, 34.6929374], [135.3852732, 34.6929307], [135.385254, 34.6929219], [135.3852375, 34.6929107], [135.3852209, 34.6928929], [135.3852069, 34.6928682], [135.3852012, 34.6928525], [135.3851984, 34.6928412], [135.3851981, 34.6928164], [135.3852059, 34.6927893], [135.3852192, 34.6927622], [135.3852381, 34.6927463], [135.3852625, 34.6927303], [135.3852896, 34.6927165], [135.3853222, 34.6927094], [135.3853495, 34.6927092], [135.3853823, 34.6927157], [135.3854097, 34.6927222], [135.3854472, 34.6926656], [135.3855251, 34.6925725], [135.3855872, 34.6925201], [135.3855928, 34.6925268], [135.3855388, 34.6925724], [135.3855664, 34.6925969], [135.3855912, 34.6926147], [135.3856268, 34.6926257], [135.3856951, 34.6926364], [135.3857333, 34.6926339], [135.3858148, 34.6926106], [135.3881088, 34.6919035], [135.3881495, 34.6918919], [135.3881822, 34.6918871], [135.3882014, 34.6918914], [135.3882829, 34.6918637], [135.3883221, 34.6919445], [135.3887841, 34.6918008], [135.3893067, 34.6919157], [135.3900615, 34.6928742], [135.3902289, 34.6927777], [135.3902094, 34.6927508], [135.3902447, 34.6927347], [135.3903528, 34.692869], [135.390372, 34.6928939], [135.3903667, 34.692897], [135.3903398, 34.6929142], [135.3902399, 34.6927844], [135.390072, 34.6928872], [135.3903992, 34.6932991], [135.3905644, 34.6931985], [135.3904646, 34.6930754], [135.3904929, 34.6930568], [135.3905095, 34.6930723], [135.3906274, 34.6932182], [135.3905949, 34.6932343], [135.3905838, 34.6932231], [135.3904189, 34.6933227], [135.3904629, 34.6933751], [135.3904112, 34.6934031], [135.390456, 34.6934653], [135.3907543, 34.6933275], [135.3916667, 34.694507], [135.3918834, 34.6947872], [135.3920423, 34.6947069], [135.3920776, 34.6947545], [135.3921202, 34.694732], [135.3926081, 34.6953609], [135.3936092, 34.6966441], [135.3935763, 34.6966616], [135.3938031, 34.6969523], [135.3938372, 34.6969341], [135.3938509, 34.6969518], [135.3938169, 34.69697], [135.3938402, 34.6969998], [135.3935637, 34.6971502], [135.3933067, 34.6972765], [135.3933588, 34.697343], [135.393487, 34.6975071], [135.3938551, 34.6979946], [135.3934708, 34.6985121], [135.3934582, 34.6984988], [135.3934205, 34.6985485], [135.3933856, 34.6985955], [135.3933273, 34.6986736], [135.3933085, 34.6987008], [135.3928397, 34.6993765], [135.3928263, 34.6993946], [135.3927433, 34.699517], [135.3927326, 34.6995351], [135.3926441, 34.6996554], [135.3926334, 34.6996757], [135.3925504, 34.6997959], [135.3925369, 34.6998141], [135.3924512, 34.6999365], [135.3924378, 34.6999546], [135.392407, 34.7], [135.3923547, 34.7000771], [135.3923441, 34.7000997], [135.3922556, 34.7002199], [135.3922422, 34.7002381], [135.3922084, 34.7002722], [135.3921394, 34.7003721], [135.3921083, 34.7004144], [135.3920504, 34.7004932], [135.3920816, 34.700552], [135.3921046, 34.700591], [135.3922875, 34.7010129], [135.3921633, 34.7011717], [135.3921589, 34.7011774], [135.3921517, 34.7011866], [135.392227, 34.7012284], [135.3923398, 34.7012913], [135.3924251, 34.7013044], [135.3924568, 34.7013053], [135.3925162, 34.701305], [135.3925538, 34.7013023], [135.3925892, 34.7012983], [135.3926397, 34.7012897], [135.3927259, 34.7012692], [135.3928176, 34.7012421], [135.392912, 34.7012147], [135.3930162, 34.7011737], [135.3930827, 34.7011531], [135.3930967, 34.7011485], [135.3931157, 34.7011162], [135.3932712, 34.7008985], [135.3933812, 34.7007405], [135.3933648, 34.7007326], [135.3936286, 34.7003532], [135.3938744, 34.7], [135.3947147, 34.6987929], [135.39473, 34.6987994], [135.3947442, 34.6988054], [135.394833, 34.6988431], [135.3957689, 34.7], [135.396028, 34.7003202], [135.3967131, 34.7001249], [135.3967949, 34.7001219], [135.3968795, 34.7001212], [135.3970024, 34.7001292], [135.397212, 34.7001578], [135.3974295, 34.7001875], [135.3974574, 34.7001915], [135.3974845, 34.700198], [135.3975092, 34.7002079], [135.3975468, 34.7002283], [135.3978934, 34.7004956], [135.3980533, 34.7006206], [135.3980824, 34.7006486], [135.3981574, 34.7007373], [135.3982403, 34.7006849], [135.3983214, 34.7006338], [135.3982607, 34.7005825], [135.3982302, 34.7005467], [135.3982056, 34.700519], [135.3981674, 34.7004758], [135.3981169, 34.7003899], [135.3980565, 34.7002854], [135.3980464, 34.7002601], [135.3980466, 34.7002404], [135.3980518, 34.700217], [135.3980636, 34.7001964], [135.3980845, 34.7001781], [135.3983249, 34.7000292], [135.3983517, 34.7000187], [135.3983824, 34.7000129], [135.3984118, 34.7000127], [135.3984416, 34.700018], [135.3984778, 34.7000336], [135.3985751, 34.7001071], [135.3987242, 34.7002197], [135.3987828, 34.7003], [135.398861, 34.7002548], [135.3989343, 34.7002125], [135.398853, 34.7001161], [135.3987869, 34.7], [135.3987766, 34.6999819], [135.3987141, 34.6998721], [135.3987099, 34.6998451], [135.3987111, 34.6998314], [135.3987199, 34.6998052], [135.3987367, 34.6997819], [135.3987604, 34.6997629], [135.3987891, 34.6997497], [135.3988211, 34.6997432], [135.398854, 34.6997438], [135.3988855, 34.6997516], [135.3989146, 34.6997666], [135.3990125, 34.6998403], [135.3990291, 34.6998303], [135.3990619, 34.6998682], [135.399138, 34.6998181], [135.3991511, 34.6998134], [135.3994593, 34.6997597], [135.3996378, 34.6997265], [135.3994987, 34.6994956], [135.3994965, 34.6994838], [135.3994982, 34.6994759], [135.399503, 34.6994706], [135.3995375, 34.6994565], [135.3995521, 34.6994809], [135.3995328, 34.6994888], [135.399644, 34.6996747], [135.3996708, 34.6996637], [135.3997116, 34.6997394], [135.3998092, 34.6997702], [135.3998939, 34.6998011], [135.3999445, 34.6998214], [135.3999671, 34.6998305], [135.4, 34.69981], [135.4001028, 34.6997461], [135.4001813, 34.6996958], [135.4002382, 34.699666], [135.4003331, 34.6996178], [135.4010453, 34.6993026], [135.4012324, 34.6992196], [135.4011545, 34.6991119], [135.4010542, 34.698973], [135.4003127, 34.6980337], [135.4001324, 34.6978054], [135.4001348, 34.6977806], [135.4001367, 34.6977175], [135.4001366, 34.6977062], [135.4001404, 34.6975822], [135.4001347, 34.6975597], [135.4001318, 34.6975507], [135.4001041, 34.6975149], [135.4000708, 34.6974701], [135.4000514, 34.6974478], [135.4000065, 34.6973945], [135.4000043, 34.6973919], [135.4, 34.6973864], [135.399971, 34.6973493], [135.3998244, 34.6971627], [135.3997629, 34.6970829], [135.3989418, 34.6960331], [135.3987337, 34.695769], [135.3978684, 34.6946676], [135.3976604, 34.6944013], [135.3974274, 34.6945318], [135.3952278, 34.6917315], [135.3953457, 34.6916667], [135.3954608, 34.6916033], [135.3946426, 34.6905602], [135.3942961, 34.6901349], [135.3942766, 34.6901036], [135.3942212, 34.6900319], [135.3942045, 34.6900096], [135.3935164, 34.6891096], [135.3934331, 34.6890021], [135.3933998, 34.6889573], [135.3928339, 34.6882208], [135.3926618, 34.6882065], [135.3916781, 34.6876583], [135.3916667, 34.687652], [135.391395, 34.6875008], [135.3904059, 34.6869595], [135.3903613, 34.6869351], [135.3885814, 34.6859362], [135.3885036, 34.6858928], [135.3881956, 34.6857256], [135.3876041, 34.6853969], [135.387306, 34.6852304], [135.3870322, 34.6850787], [135.3866955, 34.6848911], [135.3864243, 34.684743], [135.3863282, 34.6846904], [135.3859599, 34.6844854], [135.3849138, 34.6838942], [135.3845485, 34.6836886], [135.3839104, 34.6833333], [135.383336, 34.6830136], [135.3833333, 34.6830121], [135.3819942, 34.6822666], [135.3819065, 34.6822272], [135.381913, 34.682216], [135.381871, 34.6821998], [135.3818661, 34.6822123], [135.3809942, 34.6818909], [135.3801695, 34.6815869], [135.3792006, 34.6812329], [135.3782678, 34.6809023], [135.3758505, 34.6800126], [135.3758398, 34.6800307], [135.3757055, 34.67998], [135.375, 34.6794487], [135.3739153, 34.6786318], [135.3747657, 34.6779169], [135.374763, 34.6779147], [135.3748844, 34.67781], [135.375, 34.6777099], [135.3762122, 34.6766606], [135.3782201, 34.6770986], [135.3809413, 34.6776852], [135.3833333, 34.6782007], [135.3916667, 34.6799966], [135.3919659, 34.6800611], [135.3946432, 34.6833333], [135.3950304, 34.6838065], [135.3957198, 34.6846491], [135.3955707, 34.684732], [135.3955726, 34.6847343], [135.3956592, 34.6848383], [135.395766, 34.6847822], [135.3957848, 34.6847724], [135.3958124, 34.6847579], [135.3967224, 34.6858709], [135.3966996, 34.6858832], [135.3966904, 34.6858881], [135.3966999, 34.6858996], [135.3967085, 34.6858944], [135.3967308, 34.6858811], [135.3971129, 34.686362], [135.3975257, 34.686873], [135.3985493, 34.6881146], [135.3985524, 34.6881125], [135.3985987, 34.6880808], [135.3986235, 34.688115], [135.3986673, 34.6881333], [135.3986969, 34.6881395], [135.3987452, 34.6881097], [135.3987661, 34.6881172], [135.3988374, 34.6881949], [135.3987934, 34.6882246], [135.3992319, 34.6887873], [135.3992516, 34.6888125], [135.3992725, 34.6888392], [135.3998464, 34.6895718], [135.4, 34.6897698], [135.4004734, 34.6903803], [135.4009359, 34.6909707], [135.4012866, 34.6914179], [135.4014825, 34.6916667], [135.401564, 34.6917702], [135.4016672, 34.6919041], [135.4015447, 34.6919708], [135.401542, 34.6919723], [135.4015426, 34.6919731], [135.4015616, 34.6919972], [135.401686, 34.69193], [135.4017132, 34.6919644], [135.4017316, 34.6919895], [135.4022547, 34.6926615], [135.4021865, 34.6926959], [135.4021965, 34.6927094], [135.4022651, 34.6926748], [135.4022809, 34.6926951], [135.4021539, 34.6927591], [135.4021694, 34.6927789], [135.4022963, 34.6927149], [135.4023022, 34.6927225], [135.4027845, 34.6933422], [135.4029699, 34.6935767], [135.4030974, 34.693738], [135.4032498, 34.6939308], [135.4032525, 34.6939337], [135.4032587, 34.6939405], [135.4032591, 34.6939409], [135.4035685, 34.6943399], [135.4035756, 34.694349], [135.4037152, 34.694529], [135.4037211, 34.6945366], [135.4037491, 34.6945727], [135.4036239, 34.6946389], [135.4036463, 34.6946677], [135.4037715, 34.6946014], [135.403889, 34.6947531], [135.4038044, 34.6947978], [135.40382, 34.6948193], [135.4039053, 34.6947741], [135.404457, 34.6954853], [135.4043318, 34.6955515], [135.4044132, 34.6956563], [135.4045103, 34.6957816], [135.4046417, 34.6958143], [135.4047895, 34.6958535], [135.4048061, 34.6958647], [135.4049306, 34.6957937], [135.4059877, 34.6971456], [135.4063535, 34.6975984], [135.407294, 34.6970961], [135.4075086, 34.6973858], [135.4083333, 34.6984625], [135.4085778, 34.6987817], [135.4090689, 34.6992917], [135.40956, 34.6997508], [135.4098777, 34.7], [135.4099861, 34.700085], [135.410835, 34.7007203], [135.4116514, 34.7012631], [135.4128647, 34.7019967], [135.4134878, 34.7022708], [135.4138542, 34.7024322], [135.414645, 34.7027647], [135.4153536, 34.7030325], [135.41635, 34.7034092], [135.4166667, 34.7035133], [135.4177764, 34.7038789], [135.418925, 34.7042547], [135.4197986, 34.7045514], [135.4222836, 34.7052556], [135.4239811, 34.7057117], [135.4245658, 34.7058967], [135.4246258, 34.7059236], [135.4249128, 34.7060519], [135.425, 34.7061054], [135.4251944, 34.7062247], [135.4255308, 34.7064867], [135.42557, 34.7065172], [135.42587, 34.7067842], [135.4262094, 34.7071539], [135.4265561, 34.7076789], [135.427034, 34.7083333], [135.4270906, 34.7084108], [135.4274122, 34.7088642], [135.4278633, 34.7094994], [135.4283619, 34.7101378], [135.4285356, 34.7103336], [135.4286864, 34.7105039], [135.428795, 34.7106269], [135.4294231, 34.7112042], [135.4295789, 34.7113472], [135.430135, 34.7117586], [135.4305467, 34.7120153], [135.4310992, 34.7123478], [135.4318, 34.7127058], [135.4320542, 34.7128325], [135.4323578, 34.7129836], [135.4326992, 34.7131536], [135.43271, 34.7131592], [135.4333333, 34.7134479], [135.4336597, 34.7135992], [135.4346711, 34.7140583], [135.4359097, 34.7145581], [135.4369789, 34.7149514], [135.4381636, 34.7153094], [135.4381908, 34.7153181], [135.4395828, 34.7157553], [135.4407297, 34.7160994], [135.4413164, 34.7162756], [135.441405, 34.7163022], [135.4416667, 34.7163808], [135.4420278, 34.7164892], [135.4425158, 34.7166667], [135.4428236, 34.7167786], [135.4434869, 34.71702], [135.4444403, 34.7173706], [135.4451556, 34.7177464], [135.4458128, 34.7180864], [135.4461703, 34.7183397], [135.4465169, 34.7186617], [135.4469503, 34.7191269], [135.4473333, 34.7196744], [135.4476078, 34.7201992], [135.4478822, 34.7207764], [135.4480339, 34.7212892], [135.4481061, 34.7216889], [135.4480628, 34.7223078], [135.4480256, 34.7225297], [135.4479906, 34.7227372], [135.4478317, 34.7232025], [135.4476339, 34.7237422], [135.4475789, 34.7238928], [135.4472683, 34.7244536], [135.4469269, 34.725], [135.4467986, 34.7252053], [135.4465747, 34.7255244], [135.4465119, 34.7256372], [135.4464158, 34.7258106], [135.4462569, 34.7262103], [135.4460256, 34.7269125], [135.4458522, 34.7275269], [135.4456211, 34.7284142], [135.4455561, 34.7289972], [135.4455561, 34.7290819], [135.4455561, 34.7295042], [135.4456356, 34.7300336], [135.4458017, 34.7305644], [135.4459044, 34.7308372], [135.4460906, 34.7313325], [135.4465817, 34.7322914], [135.4468489, 34.7327133], [135.4470814, 34.7330392], [135.4470872, 34.7330472], [135.4473524, 34.7333333], [135.4473692, 34.7333514], [135.4477086, 34.73362], [135.4481131, 34.7338586], [135.4485825, 34.7340136], [135.4489869, 34.7340972], [135.4497961, 34.7341686], [135.45, 34.7341843], [135.451775, 34.7343208], [135.4518911, 34.7343242], [135.45252, 34.7343417], [135.4530608, 34.7343567], [135.4547731, 34.7343328], [135.4553867, 34.7343089], [135.4554492, 34.7343006], [135.4561958, 34.7342017], [135.457135, 34.7340464], [135.4583333, 34.733762], [135.4584928, 34.7337242], [135.4589336, 34.7336003], [135.4593344, 34.7334875], [135.4597552, 34.7333333], [135.4602511, 34.7331517], [135.460295, 34.7331356], [135.4602939, 34.7331383], [135.4602074, 34.7333333], [135.4600136, 34.73377], [135.4599989, 34.7338033], [135.4599964, 34.7338072], [135.4598617, 34.7340181], [135.4597339, 34.7341558], [135.4597136, 34.7341778], [135.4593453, 34.7344461], [135.4593156, 34.7344769], [135.4592081, 34.7345892], [135.4591142, 34.7347742], [135.4590344, 34.7351261], [135.4588972, 34.7351978], [135.4588539, 34.7355958], [135.4588611, 34.7357808], [135.4588394, 34.7358525], [135.4586294, 34.7359939], [135.4584856, 34.7360908], [135.4587239, 34.7364964], [135.45889, 34.7369483], [135.4588944, 34.7369642], [135.4590561, 34.7375553], [135.4591331, 34.7379467], [135.4591864, 34.7382175], [135.4591919, 34.7382772], [135.459265, 34.7390689], [135.4592875, 34.7393133], [135.4593597, 34.7405347], [135.4593886, 34.7407003], [135.4593964, 34.7407969], [135.4594014, 34.7408575], [135.4594608, 34.7415889], [135.4594692, 34.7416667], [135.4595692, 34.7425956], [135.4597061, 34.7435306], [135.4598, 34.7443597], [135.4598017, 34.7445067], [135.4598033, 34.7446703], [135.4598036, 34.7447092], [135.459805, 34.7448456], [135.4598072, 34.7450381], [135.4597964, 34.7456028], [135.4597928, 34.7458003], [135.4598072, 34.7459381], [135.4598361, 34.7462119], [135.4599733, 34.7470631], [135.4601972, 34.7477253], [135.4601814, 34.7478122], [135.4601683, 34.747885], [135.45985, 34.7486792], [135.4598144, 34.7487678], [135.4593883, 34.7498994], [135.4593446, 34.75], [135.4592439, 34.7502319], [135.4592408, 34.7502406], [135.4591861, 34.7503872], [135.4591861, 34.7504706], [135.4592439, 34.7505422], [135.4597567, 34.7508286], [135.4599372, 34.7509167], [135.4599372, 34.751], [135.4599056, 34.7510736], [135.4597783, 34.75137], [135.4593522, 34.7520319], [135.4592511, 34.7520914], [135.4591139, 34.7520975], [135.4588031, 34.7520856], [135.4585069, 34.7519961], [135.4583333, 34.7519208], [135.4582181, 34.7518708], [135.4579219, 34.7516858], [135.4575608, 34.7514056], [135.4575606, 34.7514056], [135.4573044, 34.7512169], [135.4572286, 34.7511611], [135.4570625, 34.7509583], [135.4570253, 34.7510097], [135.4569886, 34.7510608], [135.4568603, 34.7512386], [135.4567664, 34.7514294], [135.456665, 34.7516681], [135.45661, 34.7518428], [135.4565711, 34.7519661], [135.4564917, 34.7523778], [135.4563906, 34.7526583], [135.4563106, 34.7529547], [135.4562317, 34.7532461], [135.4562183, 34.7533608], [135.4561639, 34.7535094], [135.4560439, 34.7538917], [135.4560408, 34.753905], [135.4560056, 34.7540583], [135.4559839, 34.7542158], [135.4559183, 34.7544858], [135.4558311, 34.7549044], [135.45582, 34.7550708], [135.4558364, 34.7552283], [135.4558419, 34.7554714], [135.45588, 34.7556289], [135.4559564, 34.7559733], [135.4559961, 34.7560925], [135.4560328, 34.7562028], [135.4560875, 34.7564411], [135.4561853, 34.7566525], [135.4562183, 34.7567558], [135.4563544, 34.7571792], [135.4564172, 34.7574217], [135.4564364, 34.7574964], [135.4565728, 34.757825], [135.4566581, 34.7580336], [135.4567308, 34.7582119], [135.4567319, 34.7582625], [135.4567336, 34.7583333], [135.4567364, 34.7584506], [135.4566983, 34.7586892], [135.4566931, 34.7588886], [135.4566928, 34.7588961], [135.4566708, 34.7592156], [135.4566381, 34.7595417], [135.4565236, 34.7599647], [135.4564472, 34.7601494], [135.4564089, 34.7601972], [135.4562889, 34.7603475], [135.4559836, 34.760455], [135.4558797, 34.7604914], [135.4557203, 34.7604339], [135.4556575, 34.7604111], [135.4555378, 34.7603681], [135.4555306, 34.7603653], [135.4554575, 34.7603289], [135.4553506, 34.7602753], [135.4552425, 34.7601792], [135.4550072, 34.7599694], [135.4548247, 34.7600064], [135.4546961, 34.7600322], [135.4544561, 34.7598928], [135.4540319, 34.7594569], [135.4538944, 34.7592781], [135.45376, 34.7590564], [135.4536703, 34.7589083], [135.4533667, 34.7583358], [135.453365, 34.7583333], [135.4532008, 34.7580931], [135.4530628, 34.7578914], [135.4528892, 34.7578436], [135.4525928, 34.7578436], [135.4523833, 34.7579494], [135.4522775, 34.7580031], [135.4521519, 34.7580664], [135.4519969, 34.758145], [135.4519206, 34.7581836], [135.4519178, 34.7581858], [135.4517279, 34.7583333], [135.4515258, 34.7584903], [135.4511236, 34.7588025], [135.4510528, 34.7588575], [135.4508736, 34.7590778], [135.4506406, 34.7593647], [135.4502358, 34.7597761], [135.4500694, 34.7600328], [135.4500333, 34.7602744], [135.4500478, 34.7604533], [135.4500869, 34.7606092], [135.4501028, 34.7606725], [135.450125, 34.7607608], [135.4501436, 34.7608353], [135.4501661, 34.7609239], [135.4501844, 34.7609978], [135.4502208, 34.7611425], [135.4502575, 34.7612881], [135.4502744, 34.7613422], [135.4503086, 34.7614506], [135.4504825, 34.7620039], [135.4505106, 34.7620936], [135.4504961, 34.7623261], [135.4505033, 34.7625975], [135.4503803, 34.7630689], [135.4503572, 34.7631372], [135.4502792, 34.7633669], [135.4500261, 34.764035], [135.45, 34.7641851], [135.4499753, 34.7643272], [135.4499536, 34.7645539], [135.4499031, 34.7649625], [135.4499461, 34.7652489], [135.45, 34.7653819], [135.4500186, 34.7654278], [135.4500722, 34.7655], [135.4501036, 34.7655428], [135.4502789, 34.7657797], [135.4504286, 34.7660061], [135.4504525, 34.7660419], [135.45046, 34.7660878], [135.4504742, 34.7661733], [135.4504608, 34.7662039], [135.4504089, 34.7663225], [135.4503078, 34.7664417], [135.4500998, 34.7666667], [135.4500422, 34.7667289], [135.4500403, 34.7667311], [135.45, 34.7667964], [135.4498233, 34.7670831], [135.4496425, 34.7673097], [135.4494906, 34.7674886], [135.4490389, 34.7678008], [135.4489989, 34.7678286], [135.4487389, 34.76796], [135.4485725, 34.7680853], [135.4480592, 34.7683236], [135.4476831, 34.7684667], [135.4473794, 34.7685322], [135.4471064, 34.7685681], [135.4470611, 34.7685739], [135.44688, 34.7685864], [135.4467142, 34.7685978], [135.4464181, 34.7686061], [135.4461864, 34.7686128], [135.4455139, 34.7686128], [135.4453861, 34.7685978], [135.44521, 34.7685769], [135.4449064, 34.7685292], [135.4448081, 34.7685292], [135.4446967, 34.7685292], [135.4444811, 34.7685078], [135.4441489, 34.7684242], [135.4437089, 34.7683047], [135.4435775, 34.7682692], [135.4434672, 34.7682469], [135.4432956, 34.7682122], [135.4428733, 34.7681883], [135.4427678, 34.7681825], [135.4427133, 34.7681839], [135.4423617, 34.7681928], [135.4422903, 34.7681944], [135.4420242, 34.7682378], [135.4417408, 34.7682839], [135.4416667, 34.7683011], [135.4415903, 34.7683189], [135.4413286, 34.7683794], [135.4412764, 34.768395], [135.4407042, 34.7685669], [135.4405333, 34.7686181], [135.4404036, 34.768675], [135.4403019, 34.7687194], [135.4399214, 34.7688853], [135.4399186, 34.7688864], [135.4396872, 34.7690233], [135.4394847, 34.7691725], [135.4392678, 34.7692919], [135.4385956, 34.7695961], [135.4383642, 34.7696319], [135.4378508, 34.7698525], [135.4378183, 34.7698672], [135.4376203, 34.7699567], [135.4374025, 34.7700553], [135.4373569, 34.7701633], [135.4373519, 34.7701747], [135.4373808, 34.7703], [135.4374747, 34.770485], [135.4376411, 34.7706578], [135.4377422, 34.7706639], [135.4378725, 34.7706578], [135.4381039, 34.7705864], [135.4386894, 34.7704133], [135.439145, 34.7701867], [135.4396222, 34.76996], [135.4398031, 34.7698467], [135.4399403, 34.7698258], [135.4401428, 34.7699033], [135.4403886, 34.7699867], [135.4405478, 34.7700106], [135.4408081, 34.7700764], [135.4409378, 34.7700719], [135.4409889, 34.7700703], [135.4415744, 34.7700583], [135.4416667, 34.7700794], [135.4417047, 34.7700881], [135.4417769, 34.7701658], [135.4418131, 34.7702314], [135.4418494, 34.7704519], [135.4418783, 34.7705356], [135.4419289, 34.7705772], [135.4423778, 34.7705592], [135.4424647, 34.7705556], [135.4424825, 34.770555], [135.4426064, 34.77055], [135.4427086, 34.7705458], [135.4427739, 34.7705431], [135.4428111, 34.7705417], [135.4429703, 34.7705536], [135.4430589, 34.7705694], [135.4431697, 34.7705894], [135.4432017, 34.7705953], [135.4433169, 34.7706669], [135.4433242, 34.7707683], [135.4432953, 34.7709353], [135.44325, 34.7711206], [135.4432231, 34.7712306], [135.4432014, 34.7714333], [135.4432158, 34.7715706], [135.4432664, 34.7717556], [135.4432519, 34.7718808], [135.4432158, 34.7720717], [135.4432592, 34.7722325], [135.4433603, 34.7724114], [135.4433675, 34.7725069], [135.4433097, 34.7725783], [135.4432158, 34.7726203], [135.4429917, 34.7726381], [135.4425647, 34.7726686], [135.4423267, 34.7726858], [135.4421603, 34.7727456], [135.4421747, 34.7734553], [135.44203, 34.7734822], [135.4416667, 34.7735138], [135.4414806, 34.77353], [135.4411189, 34.7735658], [135.4407936, 34.7735778], [135.4407014, 34.77359], [135.4405825, 34.7736058], [135.4404519, 34.7736231], [135.4403367, 34.7736383], [135.4401706, 34.7736606], [135.4400928, 34.7736708], [135.440035, 34.7736786], [135.4398806, 34.7736989], [135.4397161, 34.7737208], [135.4397811, 34.7740964], [135.4397667, 34.7743828], [135.4397089, 34.7743947], [135.4393883, 34.7744064], [135.4388725, 34.7744256], [135.4388011, 34.7744281], [135.4387328, 34.7744306], [135.4386747, 34.7742217], [135.4386386, 34.7741142], [135.4385953, 34.7736908], [135.4385667, 34.7735936], [135.4385231, 34.7734464], [135.4385158, 34.7732972], [135.4384942, 34.7731125], [135.4384797, 34.7725247], [135.4378869, 34.7725367], [135.4375253, 34.7725308], [135.4365347, 34.7725189], [135.4365211, 34.7721806], [135.4365058, 34.7717969], [135.4364481, 34.7716478], [135.4363467, 34.7715764], [135.4362353, 34.7715486], [135.4361081, 34.7715167], [135.4356453, 34.7715106], [135.4354589, 34.7714792], [135.4353031, 34.7714528], [135.4351681, 34.77143], [135.4346836, 34.7712392], [135.4345681, 34.7712033], [135.4343458, 34.7711342], [135.4343003, 34.77112], [135.4342233, 34.771095], [135.4340617, 34.7710425], [135.4338306, 34.7710125], [135.4335269, 34.7710125], [135.4334011, 34.7710092], [135.4333333, 34.7710074], [135.4333028, 34.7710067], [135.4330475, 34.7710153], [135.4326011, 34.7710306], [135.4324219, 34.7710225], [135.4322036, 34.7710125], [135.4320444, 34.7710244], [135.4318925, 34.7710125], [135.4317481, 34.7709647], [135.4313936, 34.770765], [135.4310964, 34.7705978], [135.4309164, 34.7704967], [135.4307644, 34.7704069], [135.4303958, 34.7702581], [135.430125, 34.7701242], [135.4298317, 34.7699786], [135.429745, 34.7699358], [135.4292244, 34.7697689], [135.4287833, 34.7695658], [135.4283425, 34.7693967], [135.4282119, 34.7693464], [135.4281617, 34.7693272], [135.4278506, 34.7692586], [135.4277567, 34.7692944], [135.4276331, 34.7694133], [135.4274964, 34.769545], [135.4272794, 34.7696703], [135.4271564, 34.7697003], [135.4269611, 34.7697181], [135.4267508, 34.7697103], [135.4265186, 34.7697019], [135.4261442, 34.7696883], [135.4258186, 34.7696344], [135.4256378, 34.7696525], [135.4251608, 34.7698256], [135.425, 34.7699049], [135.4248283, 34.7699894], [135.4246258, 34.7700194], [135.4242425, 34.7700194], [135.4240517, 34.7699947], [135.4240111, 34.7699894], [135.4238183, 34.7700469], [135.42359, 34.7701153], [135.4234061, 34.77017], [135.4231956, 34.7702328], [135.4230386, 34.7702797], [135.4229361, 34.77031], [135.4229119, 34.7703172], [135.4228758, 34.7706217], [135.4228181, 34.7707886], [135.4227094, 34.7708364], [135.4226131, 34.7708408], [135.4225747, 34.7708425], [135.4225253, 34.7708447], [135.4224419, 34.7708483], [135.4224058, 34.7709856], [135.4223192, 34.7711225], [135.422225, 34.7711822], [135.4221311, 34.7712419], [135.4219503, 34.7713911], [135.42182, 34.7715103], [135.4217117, 34.7715642], [135.4215311, 34.7715881], [135.4214663, 34.7715566], [135.4214735, 34.7712927], [135.4215026, 34.7708216], [135.4213894, 34.7707967], [135.4212853, 34.7707736], [135.4212969, 34.7702575], [135.4212997, 34.7701414], [135.4213036, 34.7698608], [135.4213097, 34.7694328], [135.4213142, 34.7691156], [135.4214583, 34.7690144], [135.4215742, 34.7689336], [135.4217044, 34.7681881], [135.4217478, 34.7679017], [135.4217392, 34.7678422], [135.4217308, 34.7677856], [135.4217261, 34.7677525], [135.4216689, 34.7676517], [135.4215644, 34.7674681], [135.4215092, 34.7673706], [135.4214578, 34.7672833], [135.4214056, 34.7671939], [135.4213336, 34.7670714], [135.4212886, 34.7669944], [135.4210966, 34.7666667], [135.4210322, 34.7665567], [135.4209297, 34.7664692], [135.4208261, 34.7663803], [135.4206631, 34.7662411], [135.4205575, 34.7661508], [135.4205031, 34.7661044], [135.4204472, 34.7660567], [135.4202294, 34.7658706], [135.4198681, 34.7658825], [135.4192028, 34.7659006], [135.4186819, 34.7658825], [135.4185642, 34.7658719], [135.4184625, 34.7658631], [135.4183011, 34.7658486], [135.4182442, 34.7658436], [135.4181472, 34.765835], [135.4180025, 34.7657692], [135.4179522, 34.7657053], [135.4179217, 34.7656658], [135.4178436, 34.7655664], [135.4177928, 34.7654322], [135.4178, 34.7653247], [135.4178508, 34.7652114], [135.4179558, 34.7651381], [135.4181833, 34.7649789], [135.4184872, 34.7648536], [135.4185017, 34.7645969], [135.4185447, 34.76443], [135.4186567, 34.7642917], [135.41878, 34.7641392], [135.4188917, 34.7640008], [135.4189786, 34.7638039], [135.4189733, 34.7636878], [135.4189717, 34.7636475], [135.4189628, 34.7634486], [135.4189586, 34.7633567], [135.4189542, 34.76326], [135.4189472, 34.763105], [135.4189419, 34.7629892], [135.4189353, 34.7628375], [135.4189283, 34.7627867], [135.4188989, 34.7625692], [135.4187889, 34.7625719], [135.4186603, 34.762575], [135.4185014, 34.7625661], [135.4181589, 34.7625933], [135.4181256, 34.7625958], [135.4175469, 34.7626139], [135.4171414, 34.7626108], [135.4168119, 34.7626086], [135.4167656, 34.7626081], [135.4167083, 34.7626078], [135.4166667, 34.7626024], [135.4165708, 34.76259], [135.4164478, 34.7625125], [135.4162961, 34.7624944], [135.4162236, 34.7624589], [135.4162092, 34.7623811], [135.4161967, 34.7621939], [135.4161947, 34.7621669], [135.4161947, 34.7621664], [135.4162, 34.7621206], [135.4162236, 34.7619219], [135.4162456, 34.7617131], [135.4162336, 34.7615922], [135.4162253, 34.7615067], [135.4162167, 34.761415], [135.4162131, 34.7613844], [135.4161878, 34.7611764], [135.4161561, 34.7608944], [135.4161519, 34.7608589], [135.4161444, 34.7607917], [135.4160794, 34.7605531], [135.4160506, 34.7603086], [135.4160433, 34.7601594], [135.4158567, 34.7600003], [135.4158336, 34.7599806], [135.4156239, 34.7599386], [135.4154936, 34.7598789], [135.4153344, 34.7598669], [135.4153817, 34.7598308], [135.4154431, 34.7597836], [135.4154697, 34.7597347], [135.4155081, 34.7596642], [135.4156794, 34.7594178], [135.4157903, 34.7592589], [135.4161473, 34.7589168], [135.4162514, 34.7588151], [135.4163745, 34.7586949], [135.416584, 34.7584889], [135.4166667, 34.7583771], [135.416699, 34.7583333], [135.4167081, 34.7583211], [135.4168617, 34.7581186], [135.4169472, 34.7580061], [135.4169689, 34.7578928], [135.4169014, 34.7578308], [135.4167808, 34.7577197], [135.4166667, 34.7576757], [135.4166578, 34.7576722], [135.4165014, 34.7576008], [135.4164625, 34.7575833], [135.4164481, 34.7575767], [135.4164192, 34.7575111], [135.4164408, 34.7570461], [135.4164192, 34.7569028], [135.4163831, 34.7568075], [135.4162964, 34.7567894], [135.4161931, 34.7567889], [135.4157042, 34.7567856], [135.4154892, 34.7567842], [135.4153928, 34.7567836], [135.4152625, 34.7568731], [135.4152211, 34.7571964], [135.4152144, 34.7572481], [135.4152089, 34.7572917], [135.4151975, 34.7573797], [135.41506, 34.7575767], [135.4149372, 34.7577019], [135.4146625, 34.7580717], [135.4145178, 34.7583164], [135.4145102, 34.7583333], [135.4144164, 34.7585431], [135.4143883, 34.7586308], [135.4143442, 34.7587697], [135.4143422, 34.7588589], [135.4143411, 34.7589189], [135.4143397, 34.7589794], [135.4143369, 34.7591097], [135.4143197, 34.7591308], [135.4142286, 34.7592411], [135.4140869, 34.7592814], [135.41406, 34.7592892], [135.4139958, 34.7593072], [135.4138525, 34.7593481], [135.4131367, 34.7593839], [135.4129992, 34.7595269], [135.4127814, 34.7597094], [135.4127681, 34.7597208], [135.4127333, 34.7597497], [135.4125653, 34.7598908], [135.4124147, 34.7599447], [135.4124078, 34.7599467], [135.4121186, 34.7600222], [135.4120383, 34.7600275], [135.4116589, 34.7600519], [135.4111133, 34.7601058], [135.4110536, 34.7601853], [135.4109833, 34.7602789], [135.4109231, 34.7603558], [135.4108386, 34.7604639], [135.4107161, 34.7606611], [135.4106947, 34.7606953], [135.4105494, 34.7609292], [135.4104408, 34.7610783], [135.4103544, 34.7610467], [135.4103206, 34.7610344], [135.4102822, 34.7610203], [135.4101878, 34.7609858], [135.4097108, 34.7608186], [135.4094917, 34.7607697], [135.4092842, 34.7607233], [135.4089517, 34.7606694], [135.4085539, 34.7606578], [135.4083622, 34.7607564], [135.4083333, 34.7607714], [135.4083114, 34.7607828], [135.4082067, 34.7608367], [135.4079381, 34.7608428], [135.4076175, 34.7608497], [135.4074278, 34.7608542], [135.4073803, 34.760855], [135.4071369, 34.7608606], [135.4068258, 34.7617161], [135.4068178, 34.7617964], [135.4068114, 34.7618594], [135.4067608, 34.7620325], [135.4067536, 34.7622592], [135.4064425, 34.7622592], [135.4063197, 34.7623903], [135.4062586, 34.7625047], [135.4062403, 34.7625394], [135.4061508, 34.7625381], [135.4060839, 34.7625369], [135.4058569, 34.7625336], [135.4058208, 34.7627661], [135.4058022, 34.7630556], [135.4057992, 34.7631008], [135.4057772, 34.7634403], [135.4057483, 34.763795], [135.4056689, 34.7639022], [135.4055603, 34.7639439], [135.4054767, 34.763955], [135.4052928, 34.7639797], [135.4049531, 34.7640275], [135.4048156, 34.7640572], [135.4046858, 34.7641419], [135.4046058, 34.7641944], [135.4045394, 34.7642414], [135.4043508, 34.7643756], [135.4042356, 34.7644572], [135.4042025, 34.7644808], [135.4041433, 34.7645228], [135.4041378, 34.7645364], [135.4040956, 34.7646408], [135.4040639, 34.7647194], [135.4039842, 34.7648628], [135.4038036, 34.765], [135.403695, 34.7651072], [135.4035142, 34.7652325], [135.4030967, 34.7655256], [135.4029889, 34.7656014], [135.4028344, 34.7657097], [135.4025814, 34.7657633], [135.4025092, 34.7656769], [135.4025381, 34.7655933], [135.4025311, 34.7654719], [135.4025278, 34.7654114], [135.4025225, 34.7653169], [135.4025222, 34.7653136], [135.4025081, 34.7650622], [135.4025019, 34.7649553], [135.4025122, 34.7648142], [135.4025275, 34.7646097], [135.4025431, 34.7643964], [135.4025525, 34.7642692], [135.4025669, 34.7640903], [135.40251, 34.7639186], [135.4024006, 34.7635892], [135.4023933, 34.7634906], [135.4025897, 34.7631542], [135.4026611, 34.7630317], [135.4027478, 34.7628289], [135.4026706, 34.7627475], [135.4024078, 34.7624708], [135.402285, 34.7623753], [135.4020811, 34.7623364], [135.4020394, 34.7623286], [135.4020033, 34.7623217], [135.4018297, 34.76228], [135.4016364, 34.7622719], [135.4014031, 34.7622619], [135.4009258, 34.7622264], [135.4008825, 34.7621725], [135.4008842, 34.7620422], [135.4008847, 34.7620053], [135.4008867, 34.7618608], [135.4008897, 34.7616417], [135.4008681, 34.7615044], [135.4008536, 34.7613375], [135.4007122, 34.7612864], [135.4006703, 34.7612714], [135.4006219, 34.7612539], [135.4004631, 34.7612336], [135.4002647, 34.7612081], [135.4, 34.7611741], [135.3997619, 34.7611436], [135.3994436, 34.7610839], [135.399285, 34.7610597], [135.3992339, 34.7610517], [135.3990564, 34.7610244], [135.3989247, 34.7610044], [135.3988514, 34.7609931], [135.3987219, 34.7609733], [135.3985108, 34.7609408], [135.3982708, 34.7610111], [135.39786, 34.7611317], [135.3977156, 34.761215], [135.3974989, 34.7613403], [135.3972603, 34.7614239], [135.3970158, 34.7615528], [135.3966383, 34.7617519], [135.3965047, 34.7617761], [135.3964575, 34.7617847], [135.3962911, 34.7618564], [135.3961936, 34.7619722], [135.3960453, 34.7621486], [135.3960211, 34.7621997], [135.3959733, 34.7623003], [135.3959544, 34.7623397], [135.3958964, 34.7624622], [135.39585, 34.7625603], [135.3956983, 34.7626678], [135.3955969, 34.7627033], [135.3954028, 34.7627406], [135.3951919, 34.7627808], [135.3950908, 34.7628344], [135.3949217, 34.7630425], [135.3947492, 34.7632544], [135.3947075, 34.7633058], [135.3946281, 34.7634131], [135.3945339, 34.7635025], [135.3944547, 34.7635086], [135.3943389, 34.7634847], [135.3942594, 34.7634967], [135.3940286, 34.7637211], [135.3939342, 34.7638128], [135.3938242, 34.7638808], [135.3936447, 34.7639917], [135.3934133, 34.7640244], [135.3932644, 34.7640339], [135.3932256, 34.7640364], [135.3930447, 34.7640842], [135.3930369, 34.7642214], [135.3930328, 34.7642961], [135.3930297, 34.7643475], [135.3930231, 34.7644661], [135.3930014, 34.7646211], [135.3928206, 34.7647642], [135.3925747, 34.7649431], [135.3924156, 34.7650325], [135.3922564, 34.7651158], [135.3920539, 34.7652411], [135.3918586, 34.765295], [135.3917069, 34.7653069], [135.3916667, 34.7653012], [135.3914972, 34.7652769], [135.3912372, 34.7652056], [135.3909986, 34.7651517], [135.3906947, 34.7651994], [135.3903983, 34.7652531], [135.3903031, 34.7653064], [135.3902836, 34.7653172], [135.3900786, 34.7654322], [135.3900367, 34.7654558], [135.3900508, 34.7655061], [135.3900828, 34.7656189], [135.3901597, 34.7658914], [135.3901886, 34.7662106], [135.3902031, 34.7665089], [135.3902392, 34.7666161], [135.3902659, 34.7666667], [135.3904128, 34.7669444], [135.3904711, 34.7671603], [135.3905931, 34.7676111], [135.3906408, 34.7677886], [135.3906803, 34.7679342], [135.3906756, 34.7680128], [135.39067, 34.7681003], [135.3906586, 34.7682864], [135.3905647, 34.7684564], [135.3904125, 34.7687467], [135.3903697, 34.7688286], [135.3902897, 34.7689811], [135.3901886, 34.7692019], [135.3901742, 34.7693272], [135.3900875, 34.7696847], [135.3900294, 34.7699294], [135.3899147, 34.7700094], [135.3897981, 34.7700906], [135.3897547, 34.7704306], [135.3897114, 34.7705378], [135.3896753, 34.7706869], [135.3896514, 34.7707511], [135.3896244, 34.7708242], [135.3895739, 34.7708272], [135.3892992, 34.7707497], [135.3892558, 34.7706842], [135.3892125, 34.7705767], [135.3891111, 34.7705111], [135.3889303, 34.7704872], [135.3885617, 34.7704456], [135.3881928, 34.7704575], [135.3879253, 34.7705469], [135.3878386, 34.7706842], [135.3877156, 34.7707139], [135.3875131, 34.7707019], [135.3873833, 34.7706125], [135.3873397, 34.7704275], [135.3873386, 34.7704003], [135.3873353, 34.7703228], [135.3873325, 34.7702531], [135.3873469, 34.7700981], [135.3872097, 34.7700622], [135.3869783, 34.7700383], [135.3868408, 34.7700203], [135.3866022, 34.7699906], [135.3865517, 34.7699308], [135.3865372, 34.7698117], [135.3865586, 34.7697258], [135.3865728, 34.7696681], [135.386595, 34.7695789], [135.3866108, 34.7695539], [135.3867367, 34.7693536], [135.3867831, 34.76928], [135.3868792, 34.7691269], [135.3869464, 34.7690203], [135.3869725, 34.7689786], [135.387, 34.768935], [135.3869639, 34.7688814], [135.3869539, 34.7688803], [135.3868625, 34.7688694], [135.3868167, 34.7688622], [135.3866744, 34.7688394], [135.3865083, 34.7688097], [135.3864367, 34.7688031], [135.3863203, 34.7687919], [135.3861828, 34.7687589], [135.3859586, 34.7687233], [135.3856478, 34.7687053], [135.3850647, 34.7687264], [135.3849189, 34.7687319], [135.3846644, 34.7687411], [135.3840411, 34.7687356], [135.3839992, 34.7687353], [135.3839869, 34.7689522], [135.3839558, 34.7695103], [135.3839486, 34.76951], [135.3838639, 34.7695072], [135.3834328, 34.7694936], [135.38339, 34.7694922], [135.3833486, 34.7694911], [135.3833333, 34.7694906], [135.3829219, 34.7694775], [135.3829003, 34.7696386], [135.3828639, 34.7696744], [135.3827361, 34.7696925], [135.3826844, 34.7697], [135.3826542, 34.7697042], [135.3826086, 34.7697231], [135.3825531, 34.7697461], [135.3825386, 34.7699011], [135.3825314, 34.7703425], [135.3825458, 34.7705036], [135.3826108, 34.7706169], [135.3828206, 34.7706767], [135.3829797, 34.7706944], [135.3832328, 34.7707481], [135.3833333, 34.7707856], [135.3834569, 34.7708317], [135.3834836, 34.7708536], [135.3838619, 34.7711658], [135.3839053, 34.7713028], [135.3839119, 34.7714281], [135.3839125, 34.77144], [135.3839219, 34.7715011], [135.3839436, 34.7716397], [135.3839486, 34.7716725], [135.3839342, 34.7718186], [135.3838764, 34.7721586], [135.3836956, 34.7728567], [135.3833339, 34.7728208], [135.3833333, 34.7728238], [135.3833189, 34.7729017], [135.3832778, 34.7731211], [135.3832775, 34.7731228], [135.3832411, 34.7733161], [135.3832353, 34.7733478], [135.3832111, 34.7734769], [135.3832833, 34.7735606], [135.3833333, 34.7736207], [135.3835508, 34.7738825], [135.3836161, 34.7740256], [135.3834353, 34.7740017], [135.3833333, 34.7739754], [135.3833122, 34.77397], [135.3832969, 34.7739661], [135.382835, 34.7738467], [135.3826875, 34.7738372], [135.3825314, 34.7738269], [135.3824664, 34.7738228], [135.3818372, 34.773805], [135.3816564, 34.7738108], [135.3816131, 34.7738644], [135.3816131, 34.7740764], [135.3815986, 34.7742731], [135.3814394, 34.7744403], [135.3813311, 34.7745058], [135.3812369, 34.7746072], [135.3811422, 34.7747689], [135.3811375, 34.7747772], [135.3810986, 34.7748433], [135.3810272, 34.7749653], [135.380996, 34.775], [135.3808828, 34.7751261], [135.3807453, 34.7752275], [135.3804608, 34.7753822], [135.3804056, 34.7754125], [135.3802972, 34.7754603], [135.3801164, 34.7755497], [135.3799428, 34.7756867], [135.3797403, 34.7759133], [135.3796392, 34.7760922], [135.3795958, 34.7762294], [135.3795253, 34.7767764], [135.3795017, 34.7769603], [135.37948, 34.7772169], [135.3794367, 34.7775569], [135.3792992, 34.7780158], [135.3791764, 34.7783261], [135.3791053, 34.7784839], [135.3790639, 34.7785756], [135.3789883, 34.7787436], [135.3788944, 34.7788303], [135.3786644, 34.7787617], [135.3785272, 34.7787206], [135.37832, 34.7786586], [135.3782147, 34.7786272], [135.3780339, 34.7786153], [135.3779617, 34.7787644], [135.3779181, 34.7788839], [135.3778386, 34.7789197], [135.3777447, 34.7789136], [135.3774986, 34.7788183], [135.3773325, 34.7787825], [135.3771444, 34.7787883], [135.3767467, 34.7787706], [135.3765372, 34.7787825], [135.3764939, 34.7788361], [135.3764939, 34.7789494], [135.3764169, 34.7791172], [135.3764103, 34.7791319], [135.3763928, 34.7791703], [135.3763564, 34.7793611], [135.37636, 34.7794347], [135.3763781, 34.7797906], [135.3763419, 34.780375], [135.3761836, 34.7803597], [135.3761828, 34.7803597], [135.3760311, 34.780345], [135.3759372, 34.780375], [135.3758431, 34.7805061], [135.3758069, 34.7806314], [135.3756983, 34.7807269], [135.3755106, 34.7807747], [135.3754164, 34.7807031], [135.3752792, 34.7806075], [135.3752681, 34.7806033], [135.3750478, 34.7805242], [135.3750314, 34.7805222], [135.375, 34.7805185], [135.3749547, 34.7805131], [135.3749028, 34.7805067], [135.3747006, 34.7804822], [135.3744836, 34.7805003]]]}, "properties": {"uri": "https://uedayou.net/loa/兵庫県尼崎市", "name": "兵庫県尼崎市", "prefecture": "兵庫県", "municipality": "尼崎市", "notation": "兵庫県尼崎市"}}