{"type": "Feature", "geometry": {"type": "MultiPolygon", "coordinates": [[[[135.3608075, 34.8638164], [135.3610753, 34.8638164], [135.3612131, 34.8638464], [135.3613939, 34.8639], [135.3616039, 34.8639536], [135.3617775, 34.8639775], [135.3619294, 34.8639775], [135.362045, 34.8639536], [135.3620814, 34.8638939], [135.3621103, 34.8638106], [135.3621175, 34.8636972], [135.3621392, 34.8635419], [135.3621464, 34.8631542], [135.3621536, 34.8627964], [135.3621897, 34.8626472], [135.3622486, 34.8624014], [135.3622847, 34.8622881], [135.3623497, 34.8621986], [135.3624511, 34.8621033], [135.3626031, 34.8619958], [135.3628203, 34.8618706], [135.3629869, 34.8617989], [135.3632461, 34.8617011], [135.3632819, 34.8616875], [135.3633342, 34.8616678], [135.3636167, 34.8615842], [135.3640372, 34.8614194], [135.3642397, 34.8613303], [135.3643772, 34.8612231], [135.3646453, 34.8610678], [135.3650769, 34.8607739], [135.3652653, 34.86072], [135.3654606, 34.8607739], [135.365895, 34.8609169], [135.3660758, 34.8609647], [135.3662889, 34.8609767], [135.3664914, 34.8609886], [135.3666, 34.8609944], [135.3666667, 34.8609985], [135.36758, 34.8610542], [135.3677683, 34.8610422], [135.3679131, 34.8610064], [135.3680578, 34.8609586], [135.3681953, 34.8608872], [135.3684194, 34.8607319], [135.3694647, 34.8600506], [135.3696603, 34.8599133], [135.3697978, 34.8597939], [135.3698992, 34.8596092], [135.3699569, 34.8594481], [135.3700075, 34.8592989], [135.3700583, 34.8591461], [135.3701525, 34.859015], [135.37029, 34.8589017], [135.3703986, 34.8587822], [135.3704564, 34.8586689], [135.3705506, 34.8585378], [135.3706664, 34.8584125], [135.3707707, 34.8583333], [135.3708472, 34.8582753], [135.3710067, 34.8581678], [135.3712236, 34.8580844], [135.3714622, 34.8580308], [135.3716939, 34.857995], [135.3720197, 34.8579594], [135.3721981, 34.8579533], [135.3725131, 34.8579419], [135.3727156, 34.8578706], [135.3729039, 34.8577692], [135.3733889, 34.8576019], [135.3735047, 34.8575244], [135.3735989, 34.8574053], [135.3736639, 34.85725], [135.3737072, 34.8570233], [135.3737581, 34.8567847], [135.3738883, 34.8565342], [135.3740114, 34.8563731], [135.3740647, 34.8562414], [135.3740911, 34.8561764], [135.3741778, 34.8559914], [135.3743661, 34.8554428], [135.3744167, 34.8552936], [135.3744528, 34.8550492], [135.3744167, 34.8548642], [135.3742286, 34.8545778], [135.3740331, 34.8543811], [135.3738956, 34.8542917], [135.3737508, 34.8542319], [135.3735336, 34.8541425], [135.3732078, 34.8541244], [135.3728967, 34.8541903], [135.3725131, 34.8542917], [135.3721981, 34.8543292], [135.3721336, 34.8543292], [135.3720081, 34.8543606], [135.3718169, 34.8544147], [135.3715764, 34.8544911], [135.3713797, 34.8545586], [135.3712247, 34.8546308], [135.370815, 34.8547839], [135.3708097, 34.8547864], [135.3704872, 34.8549367], [135.3702306, 34.8550356], [135.3698317, 34.85434], [135.3696694, 34.8540723], [135.3695203, 34.8538311], [135.3694244, 34.8536319], [135.3693719, 34.8535231], [135.3693128, 34.8534006], [135.3692919, 34.8533469], [135.3692689, 34.8532881], [135.3691817, 34.8531531], [135.3690178, 34.8529506], [135.3688156, 34.852745], [135.3686789, 34.8526144], [135.368515, 34.8524931], [135.3683731, 34.8523806], [135.3682092, 34.8521886], [135.3681272, 34.85204], [135.3680453, 34.8518644], [135.3679797, 34.8515647], [135.3679633, 34.8513844], [135.3679686, 34.8512989], [135.3680017, 34.8512358], [135.3683839, 34.8510517], [135.3687281, 34.8508806], [135.3691542, 34.85066], [135.3694044, 34.8505117], [135.3695903, 34.8503858], [135.3697269, 34.8502778], [135.3698689, 34.8501292], [135.3699774, 34.85], [135.3700164, 34.8499536], [135.3702239, 34.8497103], [135.3703169, 34.8495483], [135.3704206, 34.8494403], [135.3705736, 34.8494086], [135.3713056, 34.8494536], [135.3716825, 34.8494583], [135.3718792, 34.8494672], [135.3721981, 34.8494311], [135.3725258, 34.8494044], [135.3727139, 34.8493686], [135.3733147, 34.8492736], [135.3736189, 34.8492556], [135.375, 34.8493667], [135.3751025, 34.849375], [135.3752761, 34.8493689], [135.3754353, 34.8492317], [135.3758261, 34.8487964], [135.3759822, 34.8486222], [135.3765792, 34.8479553], [135.3772883, 34.8471442], [135.3773969, 34.8472633], [135.3775489, 34.8474064], [135.3776792, 34.8475078], [135.377805, 34.8476111], [135.3778242, 34.8476269], [135.3781194, 34.8477969], [135.3782931, 34.8479642], [135.3783944, 34.8482386], [135.3784958, 34.8485008], [135.3786114, 34.8487217], [135.3786981, 34.8488708], [135.3789369, 34.8491214], [135.3793281, 34.849515], [135.3794933, 34.8497511], [135.3796536, 34.8499803], [135.3796559, 34.85], [135.3796814, 34.8502164], [135.3796825, 34.850225], [135.3797983, 34.8503919], [135.3800953, 34.8502489], [135.3802617, 34.8501294], [135.3803631, 34.8500103], [135.3803671, 34.85], [135.3804644, 34.8497536], [135.3805078, 34.8495867], [135.380515, 34.8494197], [135.3805658, 34.8493003], [135.3807106, 34.8492169], [135.3808408, 34.8491094], [135.3810072, 34.8488886], [135.3811375, 34.8485906], [135.3812606, 34.8482267], [135.3813258, 34.8480658], [135.3813908, 34.8478989], [135.3814706, 34.8477675], [135.3816658, 34.8475825], [135.3819556, 34.8473858], [135.3820931, 34.8472367], [135.3822667, 34.84701], [135.3824244, 34.8467533], [135.3825183, 34.8465625], [135.3826342, 34.8464492], [135.3828586, 34.8464553], [135.3833333, 34.846482], [135.3833869, 34.846485], [135.3836114, 34.8465386], [135.3839153, 34.8466758], [135.3840964, 34.8467356], [135.38427, 34.8465864], [135.3843569, 34.8465208], [135.3845017, 34.8464492], [135.3847622, 34.8462225], [135.3850519, 34.8459842], [135.3853631, 34.8457814], [135.3852689, 34.8454892], [135.3852111, 34.8450297], [135.3851822, 34.8446061], [135.3852111, 34.8445108], [135.3852981, 34.8444808], [135.3853897, 34.8444883], [135.3855875, 34.8445047], [135.3860653, 34.8445942], [135.3862747, 34.8446003], [135.3864703, 34.844445], [135.3869842, 34.8439678], [135.3871217, 34.8438608], [135.3873317, 34.8437533], [135.3875706, 34.8437058], [135.3879397, 34.8437414], [135.3881642, 34.8437892], [135.3884031, 34.8437953], [135.3886781, 34.8437892], [135.3893006, 34.8437414], [135.3894956, 34.8437236], [135.3897056, 34.8436758], [135.3898431, 34.8436639], [135.3902796, 34.8436256], [135.3905553, 34.8436014], [135.3908086, 34.8435775], [135.3909897, 34.8435775], [135.3911767, 34.8435786], [135.3916667, 34.8435819], [135.3918872, 34.8435833], [135.3920756, 34.8435714], [135.3922708, 34.8435475], [135.3930814, 34.8433686], [135.3932694, 34.8433389], [135.3935953, 34.8432672], [135.3940803, 34.8431539], [135.3943192, 34.8431419], [135.3944639, 34.84313], [135.3946594, 34.84313], [135.3949128, 34.84316], [135.3951369, 34.84319], [135.3955931, 34.8433389], [135.3957375, 34.8434403], [135.3957989, 34.8434997], [135.3959042, 34.8436014], [135.3960633, 34.8437147], [135.3961792, 34.8438758], [135.3964686, 34.844365], [135.3967417, 34.8448183], [135.3969586, 34.8450331], [135.3973931, 34.8452656], [135.3976825, 34.8453253], [135.3978564, 34.8454147], [135.3984642, 34.8456056], [135.3988478, 34.8457011], [135.3994194, 34.8457728], [135.39965, 34.8457078], [135.4, 34.8456089], [135.4004981, 34.8454683], [135.4006139, 34.8452656], [135.4007153, 34.8450211], [135.4008311, 34.8447467], [135.4009106, 34.844675], [135.4016994, 34.8443708], [135.4025753, 34.8440908], [135.4027706, 34.8440369], [135.4029806, 34.8440311], [135.4034981, 34.844045], [135.4038781, 34.844055], [135.4042039, 34.8438881], [135.4044644, 34.8438403], [135.4046692, 34.8438458], [135.4055419, 34.84387], [135.4064322, 34.8438403], [135.4066061, 34.8437747], [135.4067, 34.8436433], [135.40691, 34.8433808], [135.4070764, 34.8429753], [135.4072286, 34.8428083], [135.4073806, 34.8426889], [135.4075397, 34.8425875], [135.4079603, 34.8423761], [135.4083075, 34.8422864], [135.4083333, 34.8422857], [135.4085247, 34.8422806], [135.4090175, 34.8423033], [135.4090969, 34.8424344], [135.4091039, 34.8424456], [135.4091833, 34.8425486], [135.4093644, 34.8425906], [135.4094917, 34.842595], [135.4096972, 34.8426025], [135.4101317, 34.842555], [135.410385, 34.8424417], [135.4108244, 34.8422631], [135.4114558, 34.8420061], [135.4115372, 34.8419772], [135.4116597, 34.8419339], [135.4117533, 34.8419006], [135.4117651, 34.8418965], [135.4119772, 34.8418211], [135.4119886, 34.8416667], [135.4119989, 34.8415289], [135.4118542, 34.8412725], [135.4118469, 34.8411769], [135.4122089, 34.8406997], [135.4120333, 34.8406233], [135.4119142, 34.8405714], [135.4115656, 34.8405872], [135.4113317, 34.8405978], [135.4111256, 34.8406072], [135.4105069, 34.8406622], [135.4104908, 34.8406636], [135.4103175, 34.8406789], [135.4103783, 34.8405006], [135.4104078, 34.840415], [135.4104258, 34.8403617], [135.4104553, 34.8402761], [135.4104767, 34.8402136], [135.4105214, 34.8400825], [135.4107317, 34.8394678], [135.4107686, 34.8393594], [135.4107792, 34.8393283], [135.4108611, 34.8390892], [135.4108914, 34.8390003], [135.4109639, 34.8387881], [135.4109761, 34.8387503], [135.4110353, 34.8385689], [135.4110858, 34.8384131], [135.4111181, 34.8383144], [135.4111622, 34.8381778], [135.4111778, 34.8381308], [135.411205, 34.8380467], [135.4112206, 34.8379992], [135.4112897, 34.8377864], [135.4112464, 34.8377786], [135.4111286, 34.8377581], [135.4105722, 34.8376597], [135.4103778, 34.8376253], [135.4102414, 34.8375878], [135.4101389, 34.8375594], [135.4098928, 34.8373806], [135.4099506, 34.8372314], [135.4104644, 34.8369392], [135.4106889, 34.8368319], [135.4107033, 34.8366528], [135.4107033, 34.8365692], [135.4103958, 34.8363936], [135.4103222, 34.8363514], [135.4102267, 34.8362758], [135.4101419, 34.8362086], [135.4101042, 34.8361789], [135.4100447, 34.8361317], [135.4099678, 34.8360708], [135.4098739, 34.8360022], [135.4100039, 34.8358472], [135.410191, 34.8356299], [135.4102861, 34.8355194], [135.4103944, 34.8353583], [135.41072, 34.8351139], [135.4107994, 34.8350242], [135.4108789, 34.8348753], [135.4109586, 34.8346722], [135.4109875, 34.834565], [135.4110525, 34.8344397], [135.4112333, 34.8343083], [135.4112117, 34.8342547], [135.4111483, 34.8342128], [135.4111031, 34.8341831], [135.4109514, 34.8340578], [135.4108789, 34.8338789], [135.4108789, 34.8337717], [135.4108717, 34.833685], [135.41083, 34.8336386], [135.4106619, 34.8334525], [135.4105464, 34.8333869], [135.4103442, 34.8333392], [135.4100911, 34.8333569], [135.4099206, 34.8333706], [135.40985, 34.8333764], [135.4097875, 34.8333816], [135.4096572, 34.8334344], [135.4094981, 34.8335061], [135.4092953, 34.833595], [135.4090931, 34.8336611], [135.4089233, 34.8337403], [135.4088417, 34.8337786], [135.4087606, 34.8338164], [135.4086519, 34.8339594], [135.4084378, 34.8341308], [135.4083333, 34.8342146], [135.4082347, 34.8342936], [135.4081675, 34.8343472], [135.4080375, 34.8344069], [135.4079361, 34.8344008], [135.4077917, 34.8342756], [135.4076586, 34.8341231], [135.4075986, 34.8340542], [135.4075603, 34.8340103], [135.4074156, 34.8337239], [135.4074197, 34.8335525], [135.4074228, 34.8334317], [135.4074415, 34.8333333], [135.4074419, 34.8333308], [135.4074503, 34.8332861], [135.4074589, 34.8332406], [135.4074842, 34.8332097], [135.4075331, 34.8331503], [135.4076253, 34.8330378], [135.4077917, 34.8329308], [135.407965, 34.8329069], [135.4080881, 34.8328769], [135.4083333, 34.8328005], [135.4083556, 34.8327936], [135.4083858, 34.8327686], [135.4084372, 34.8327261], [135.4084878, 34.8326844], [135.4085581, 34.8326264], [135.4085722, 34.8325931], [135.4085994, 34.8325297], [135.4086094, 34.8325064], [135.4086233, 34.8324733], [135.4086436, 34.8324258], [135.4087067, 34.8322786], [135.4087389, 34.8322031], [135.4089125, 34.832185], [135.4092594, 34.832185], [135.4093525, 34.8321742], [135.4093608, 34.8321731], [135.4093656, 34.8321261], [135.4093828, 34.8319494], [135.4093864, 34.8319114], [135.4093969, 34.8318033], [135.4094689, 34.8318003], [135.4095703, 34.8317961], [135.4096139, 34.8317944], [135.4097944, 34.8318003], [135.4103153, 34.8319078], [135.4108067, 34.8319672], [135.4113633, 34.8320628], [135.4117194, 34.8321283], [135.4119131, 34.8321642], [135.4120525, 34.8322161], [135.4122167, 34.8322775], [135.4124408, 34.8323072], [135.4127808, 34.8323969], [135.4132147, 34.8324983], [135.4132486, 34.8324089], [135.4132869, 34.8323072], [135.4132158, 34.8322608], [135.4131833, 34.8322397], [135.4130122, 34.8321283], [135.4128747, 34.8320358], [135.4127083, 34.8319583], [135.4125639, 34.8319286], [135.4123758, 34.8319286], [135.4122781, 34.8319172], [135.4122464, 34.8319136], [135.4121453, 34.8319019], [135.4117597, 34.8318572], [135.4117558, 34.8318569], [135.4116528, 34.831845], [135.41119, 34.8317794], [135.4109006, 34.8317436], [135.4107131, 34.8317019], [135.4104308, 34.8316303], [135.4102503, 34.8316125], [135.41012, 34.8314992], [135.4100622, 34.8313081], [135.4100333, 34.8312067], [135.4099175, 34.8311233], [135.4097294, 34.8311053], [135.4095922, 34.8311619], [135.4090136, 34.8314186], [135.4086519, 34.8315975], [135.4083706, 34.8317136], [135.4083333, 34.8317291], [135.4083022, 34.8317419], [135.4082906, 34.8317467], [135.4080375, 34.8318778], [135.4080331, 34.8318836], [135.4079, 34.8320628], [135.4078422, 34.8321819], [135.4077917, 34.8323014], [135.4076397, 34.8324444], [135.4073, 34.8326414], [135.4071719, 34.8326767], [135.4071283, 34.8326886], [135.407075, 34.8327033], [135.4069964, 34.832725], [135.4067794, 34.832725], [135.4064033, 34.8327189], [135.4062156, 34.8327011], [135.4060475, 34.8326686], [135.4059353, 34.8326472], [135.4058753, 34.8326356], [135.405755, 34.8326122], [135.4056333, 34.8325889], [135.4056156, 34.8325856], [135.4054417, 34.8325519], [135.405355, 34.8325161], [135.4054417, 34.8323731], [135.4055283, 34.8322717], [135.4056369, 34.8321642], [135.4058106, 34.8319433], [135.4060131, 34.8317644], [135.4060853, 34.8316244], [135.4061358, 34.8314514], [135.4061972, 34.8312994], [135.40623, 34.8312186], [135.4062878, 34.8309025], [135.4063239, 34.8303481], [135.4063142, 34.8300381], [135.4063114, 34.829945], [135.4063094, 34.8298828], [135.4062978, 34.8298117], [135.4062589, 34.8295725], [135.4061936, 34.8294592], [135.4061481, 34.8294247], [135.4061431, 34.8294208], [135.4061219, 34.829405], [135.4060669, 34.8293633], [135.4060636, 34.8293608], [135.4060231, 34.8293589], [135.4059669, 34.8293564], [135.4058106, 34.8293489], [135.4055575, 34.8293428], [135.405485, 34.8294203], [135.4053564, 34.8295114], [135.4052389, 34.8295944], [135.4051814, 34.8296353], [135.4050297, 34.82951], [135.4048417, 34.8293011], [135.4045742, 34.8290683], [135.4044006, 34.8292356], [135.4042128, 34.8293728], [135.4039089, 34.8295397], [135.4037356, 34.8296053], [135.4036314, 34.8295861], [135.4036053, 34.8295814], [135.4035967, 34.8295558], [135.4035739, 34.8294861], [135.4035619, 34.8294503], [135.4035186, 34.8292056], [135.4034547, 34.8291508], [135.4034322, 34.8291317], [135.4033586, 34.8290686], [135.4033342, 34.8290478], [135.4031353, 34.8288775], [135.4027881, 34.8286836], [135.4026678, 34.8285842], [135.4026011, 34.8285292], [135.4025442, 34.8284825], [135.4024819, 34.8284311], [135.4024714, 34.8284222], [135.4024408, 34.8283969], [135.402405, 34.8283675], [135.4024181, 34.8283392], [135.4025072, 34.8281425], [135.4025746, 34.8279851], [135.4026075, 34.8278301], [135.4026286, 34.8276606], [135.4026419, 34.8275469], [135.4026486, 34.8274894], [135.4026528, 34.8274525], [135.4026556, 34.8274297], [135.4026689, 34.8273144], [135.4026819, 34.8272039], [135.4026981, 34.8270661], [135.4027014, 34.8270375], [135.4026294, 34.8268167], [135.4025353, 34.8266319], [135.4023328, 34.826435], [135.4023111, 34.8263544], [135.4023039, 34.8261694], [135.4022319, 34.8260197], [135.4021697, 34.82589], [135.4021519, 34.8258533], [135.4020075, 34.8257042], [135.4020508, 34.8254956], [135.4021158, 34.8252689], [135.4020942, 34.8251078], [135.4020644, 34.8250956], [135.4020131, 34.8250742], [135.401935, 34.8250422], [135.4018267, 34.8250125], [135.40174, 34.8250361], [135.4016886, 34.82511], [135.4016531, 34.8251614], [135.4014942, 34.8254656], [135.4013639, 34.8256147], [135.4012625, 34.8256803], [135.4011903, 34.8256864], [135.4009806, 34.8256208], [135.4005756, 34.8254358], [135.4004528, 34.8253164], [135.4004022, 34.8252092], [135.4004066, 34.825], [135.4004094, 34.8248572], [135.4002489, 34.8248106], [135.4001853, 34.8247919], [135.4, 34.8247556], [135.399455, 34.8246486], [135.39926, 34.8246308], [135.3990175, 34.8245869], [135.3989064, 34.8245669], [135.3984356, 34.8244817], [135.3984622, 34.8243047], [135.3984917, 34.8241103], [135.3984933, 34.8240997], [135.3992461, 34.8241317], [135.3993539, 34.8241364], [135.3994814, 34.8241417], [135.4, 34.8241638], [135.4000408, 34.8241656], [135.4000914, 34.8239047], [135.4001275, 34.8237181], [135.4002361, 34.8234944], [135.4003458, 34.8233367], [135.4003767, 34.8232922], [135.4004892, 34.8231306], [135.400625, 34.8231556], [135.4008625, 34.8231994], [135.4011036, 34.8232439], [135.4011542, 34.8232258], [135.4012042, 34.8231253], [135.401265, 34.8230028], [135.401295, 34.8229425], [135.401335, 34.8228619], [135.4013639, 34.8227367], [135.4013567, 34.8225461], [135.4012872, 34.8224519], [135.4012553, 34.8224089], [135.4008508, 34.8222897], [135.4008092, 34.8222714], [135.4006483, 34.8222], [135.4005975, 34.8221133], [135.4005489, 34.8220311], [135.4004947, 34.8219389], [135.40047, 34.8218969], [135.4004172, 34.8218069], [135.4004097, 34.8217944], [135.4003075, 34.8215353], [135.4002873, 34.8214841], [135.4002319, 34.8213439], [135.4002072, 34.8212814], [135.4002022, 34.8212272], [135.4001983, 34.8211858], [135.40019, 34.8210939], [135.4001822, 34.8210111], [135.4001781, 34.8209647], [135.4001639, 34.8208131], [135.4002072, 34.8205836], [135.4002122, 34.8205575], [135.4002194, 34.8205192], [135.4002361, 34.8204314], [135.4002603, 34.8203325], [135.4002683, 34.8203], [135.4002786, 34.8202578], [135.4003078, 34.8201394], [135.4003181, 34.8200972], [135.4003497, 34.8199683], [135.4003583, 34.8199336], [135.4003808, 34.8198411], [135.4004675, 34.8195728], [135.4005078, 34.81938], [135.400535, 34.8192511], [135.4006194, 34.8188478], [135.4006311, 34.8185169], [135.4006358, 34.8183844], [135.4006386, 34.8183], [135.4006419, 34.8182078], [135.4006483, 34.8180247], [135.4006444, 34.8179267], [135.4006372, 34.8177547], [135.4006339, 34.8176728], [135.4006628, 34.8175], [135.4007017, 34.8173181], [135.4007639, 34.8170258], [135.4007639, 34.8168289], [135.4008251, 34.8166667], [135.4008292, 34.8166558], [135.4008508, 34.8163039], [135.4008436, 34.8161308], [135.4008653, 34.8157969], [135.4009086, 34.8156633], [135.4010428, 34.8152514], [135.4011039, 34.8150633], [135.4012628, 34.8146964], [135.4013931, 34.8144161], [135.4015161, 34.8141717], [135.4016475, 34.8138847], [135.4016967, 34.8137778], [135.4017692, 34.8135869], [135.4018631, 34.8134678], [135.4019058, 34.8133786], [135.4019717, 34.8132408], [135.40205, 34.8131681], [135.4021958, 34.8130322], [135.40192, 34.8129667], [135.4012919, 34.8128178], [135.4014869, 34.8122897], [135.4015594, 34.8120572], [135.4016533, 34.8116097], [135.4023867, 34.8110897], [135.4029644, 34.8106797], [135.4032008, 34.8105125], [135.403425, 34.8105183], [135.4035769, 34.8105481], [135.403895, 34.8105422], [135.4039167, 34.8100233], [135.4038292, 34.8098269], [135.4036997, 34.8095369], [135.4025592, 34.8090719], [135.4024417, 34.8090239], [135.4017839, 34.8087614], [135.4014075, 34.8086267], [135.4012342, 34.8085647], [135.4010275, 34.8084869], [135.4006486, 34.8083439], [135.4006513, 34.8083333], [135.4007858, 34.8078133], [135.4008872, 34.8074942], [135.4010681, 34.80682], [135.4011475, 34.8064681], [135.4011633, 34.8064086], [135.4011844, 34.8063281], [135.4013211, 34.8058119], [135.4014511, 34.8055556], [135.4016825, 34.8051172], [135.4017353, 34.8050153], [135.4017794, 34.8049297], [135.4019514, 34.8045981], [135.4023189, 34.8038883], [135.4023967, 34.8037278], [135.4024131, 34.8036942], [135.4025675, 34.8033756], [135.4025817, 34.8033461], [135.4026625, 34.80318], [135.4027889, 34.8029192], [135.4030275, 34.8024242], [135.403085, 34.8023256], [135.4031164, 34.8022719], [135.4032081, 34.8021147], [135.4032514, 34.8020406], [135.4032861, 34.8019808], [135.4033294, 34.8019067], [135.4033964, 34.8017919], [135.4034686, 34.8016486], [135.4035064, 34.8015772], [135.4037072, 34.8011953], [135.4037892, 34.8010542], [135.4038131, 34.8010133], [135.4038736, 34.8009092], [135.4039097, 34.8007839], [135.4040256, 34.8006108], [135.404105, 34.8004856], [135.4042133, 34.8004439], [135.4044736, 34.8004319], [135.4048061, 34.8004797], [135.4049694, 34.8005656], [135.405305, 34.8007422], [135.4054281, 34.8008733], [135.405645, 34.8009747], [135.4059775, 34.8010406], [135.4061583, 34.8010583], [135.4063031, 34.8011119], [135.4066792, 34.8011358], [135.4068058, 34.8011428], [135.40712, 34.8011597], [135.4072789, 34.8011778], [135.4075683, 34.8012075], [135.4076839, 34.8012372], [135.4077761, 34.8012564], [135.408315, 34.8013694], [135.4083333, 34.8013733], [135.4084378, 34.801395], [135.4086094, 34.8014311], [135.4086992, 34.8014553], [135.4090072, 34.8015386], [135.4094411, 34.8015983], [135.4099036, 34.8016936], [135.4100672, 34.8016786], [135.4105836, 34.8016311], [135.4106994, 34.8016203], [135.4108781, 34.8016039], [135.4110214, 34.8015908], [135.4110836, 34.801585], [135.4111814, 34.8015761], [135.4113061, 34.8015644], [135.4114386, 34.8015522], [135.4114861, 34.8015481], [135.4117836, 34.8015206], [135.4122031, 34.8014731], [135.4126656, 34.8014492], [135.4128792, 34.8014739], [135.4130156, 34.8014897], [135.4131792, 34.8015086], [135.4133575, 34.8015186], [135.4141583, 34.8015636], [135.4142353, 34.8015681], [135.4143922, 34.8015769], [135.4146108, 34.8015892], [135.4150158, 34.8015953], [135.4158036, 34.8016431], [135.4159569, 34.8016444], [135.4165194, 34.8016489], [135.4166667, 34.8016456], [135.41678, 34.8016431], [135.4170192, 34.8016767], [135.4171631, 34.8016967], [135.4175858, 34.8017586], [135.4177344, 34.8017803], [135.4182117, 34.8018011], [135.4183153, 34.8018064], [135.4185586, 34.8018189], [135.4188261, 34.8018131], [135.4189556, 34.8018106], [135.4191497, 34.8018069], [135.4193789, 34.8018025], [135.4197733, 34.801795], [135.4200914, 34.8018069], [135.4205181, 34.801795], [135.4210244, 34.8017533], [135.42114, 34.8017325], [135.4212817, 34.8017211], [135.4214361, 34.8017083], [135.4215808, 34.8016967], [135.4219406, 34.8016339], [135.4220942, 34.8016072], [135.4224703, 34.8014878], [135.4228536, 34.8014164], [135.423085, 34.8014103], [135.4232769, 34.8014289], [135.4236344, 34.8014639], [135.4236922, 34.8017922], [135.4237403, 34.8020533], [135.4236914, 34.8020744], [135.4234964, 34.8023786], [135.4233083, 34.8026233], [135.4227586, 34.8032286], [135.4226647, 34.8034253], [135.4223681, 34.804165], [135.4221803, 34.8046661], [135.4220572, 34.8049225], [135.4219722, 34.8050433], [135.4218764, 34.8051792], [135.4218764, 34.8056828], [135.4218475, 34.8058381], [135.4217825, 34.8059872], [135.421645, 34.8061661], [135.4214789, 34.8064286], [135.4212767, 34.8067075], [135.4210158, 34.8070669], [135.4207122, 34.8075083], [135.4205386, 34.8077917], [135.4205072, 34.8078303], [135.4204939, 34.8078467], [135.4202064, 34.8082031], [135.4201086, 34.8083333], [135.4199925, 34.8084881], [135.4197364, 34.8088294], [135.4194978, 34.8092647], [135.4192156, 34.8097897], [135.4189481, 34.8102547], [135.4188922, 34.8104483], [135.4188281, 34.8106703], [135.4188189, 34.8107022], [135.4187586, 34.8109111], [135.4187094, 34.8110811], [135.4186642, 34.8111875], [135.4185242, 34.8115147], [135.4184503, 34.8116881], [135.4183986, 34.8118089], [135.4180839, 34.8125056], [135.4180297, 34.8126258], [135.4179864, 34.8127367], [135.41769, 34.8134936], [135.41759, 34.8136311], [135.4175164, 34.8137322], [135.4174886, 34.8138703], [135.4174658, 34.8139828], [135.4171908, 34.8145914], [135.4171031, 34.8147047], [135.4170411, 34.8147842], [135.4169594, 34.8148894], [135.4167136, 34.8155903], [135.4166667, 34.8157353], [135.4165753, 34.8160175], [135.4164894, 34.8162822], [135.416475, 34.8164256], [135.416402, 34.8166667], [135.4163186, 34.8169425], [135.4163089, 34.8169742], [135.4161631, 34.8173031], [135.4159906, 34.8176928], [135.4160542, 34.8185581], [135.4161281, 34.8195597], [135.4160928, 34.819785], [135.4160919, 34.8197894], [135.4161136, 34.8202008], [135.4161858, 34.8204575], [135.4165183, 34.8208511], [135.4166667, 34.8210401], [135.4169303, 34.8213761], [135.4172703, 34.8217758], [135.4175089, 34.8220233], [135.4176608, 34.82219], [135.4182825, 34.8228106], [135.4184344, 34.8229836], [135.4186731, 34.8232042], [135.41882, 34.82332], [135.4193311, 34.8237233], [135.4197069, 34.8240453], [135.4201408, 34.8244539], [135.4203203, 34.8246614], [135.4204661, 34.8248297], [135.4207194, 34.825], [135.4208206, 34.8250681], [135.4210519, 34.8252947], [135.4214206, 34.8257303], [135.4216003, 34.8259669], [135.4216781, 34.8260694], [135.4217606, 34.8261778], [135.42197, 34.8263328], [135.4223822, 34.8269086], [135.4227869, 34.8275886], [135.4229533, 34.8278806], [135.4229967, 34.8280236], [135.4231992, 34.82834], [135.4233367, 34.8285725], [135.4234017, 34.8288558], [135.4235897, 34.82919], [135.4237272, 34.8297447], [135.4237994, 34.8299475], [135.4237922, 34.8301739], [135.4237886, 34.8303842], [135.423785, 34.8306094], [135.4237631, 34.8309614], [135.4237528, 34.8311792], [135.4237269, 34.8317339], [135.4237414, 34.8320561], [135.4237197, 34.8326344], [135.4236833, 34.8331475], [135.4236364, 34.8332772], [135.4236161, 34.8333333], [135.4235894, 34.8334069], [135.4235936, 34.8338369], [135.423595, 34.8339736], [135.4235953, 34.8340169], [135.4235967, 34.8341467], [135.4237558, 34.8347492], [135.4238497, 34.8350889], [135.4239292, 34.8353453], [135.4239536, 34.8354561], [135.4239622, 34.8354958], [135.4239725, 34.8355414], [135.4240894, 34.8360725], [135.4240956, 34.8361], [135.4241969, 34.8363683], [135.4242794, 34.8365694], [135.42433, 34.8371228], [135.42433, 34.8376175], [135.424315, 34.8377367], [135.4243144, 34.8377403], [135.4242939, 34.8379039], [135.4242286, 34.83822], [135.4239175, 34.8389297], [135.4238908, 34.8389811], [135.4235397, 34.8396547], [135.4234325, 34.8398603], [135.4229547, 34.8408861], [135.4228364, 34.8411533], [135.4226217, 34.8416378], [135.4226097, 34.8416667], [135.4225278, 34.8418644], [135.4224914, 34.8421028], [135.4222817, 34.8426636], [135.4220869, 34.8430753], [135.4219083, 34.8434578], [135.4218336, 34.8436181], [135.4216961, 34.8438447], [135.4215583, 34.8440594], [135.421305, 34.8445722], [135.4212256, 34.8447989], [135.4211603, 34.8450314], [135.4211169, 34.84564], [135.4210661, 34.8458189], [135.4210011, 34.8460575], [135.4209725, 34.8461406], [135.4209092, 34.846325], [135.4208925, 34.8463736], [135.4208275, 34.8465167], [135.4206897, 34.8468208], [135.4205944, 34.8469478], [135.4203497, 34.8472742], [135.4199661, 34.8477811], [135.4197994, 34.8479603], [135.4196042, 34.848145], [135.4191264, 34.8487772], [135.4186372, 34.8494692], [135.4185069, 34.8496719], [135.4184222, 34.8498333], [135.4183911, 34.8498928], [135.4183278, 34.85], [135.4181161, 34.8503581], [135.4180592, 34.8505342], [135.4180583, 34.8505369], [135.4180219, 34.8507578], [135.4180214, 34.8507617], [135.4180186, 34.8507847], [135.4179858, 34.8510497], [135.4178556, 34.8512347], [135.4177781, 34.8513197], [135.4176761, 34.8514308], [135.4175367, 34.8515839], [135.4173922, 34.8517417], [135.4168783, 34.8522247], [135.4170211, 34.8522358], [135.4178594, 34.8523006], [135.4179981, 34.8523114], [135.4192139, 34.8518819], [135.4200897, 34.8515478], [135.4203503, 34.8514942], [135.4205169, 34.8515], [135.420605, 34.8515267], [135.4210461, 34.8516611], [135.4212703, 34.8517208], [135.4222544, 34.8518758], [135.4225294, 34.8519117], [135.4226392, 34.8519378], [135.4227539, 34.8519653], [135.4228769, 34.8520489], [135.4231522, 34.8520906], [135.4236442, 34.8521264], [135.42397, 34.8521742], [135.4245778, 34.8524008], [135.4248094, 34.8525142], [135.425, 34.8526376], [135.4251219, 34.8527167], [135.4252147, 34.8527767], [135.4255478, 34.8533194], [135.4257939, 34.8535164], [135.42699, 34.8537956], [135.4269953, 34.8537967], [135.4275958, 34.8539636], [135.4278419, 34.8540592], [135.4280794, 34.8542142], [135.4288178, 34.8547453], [135.4290422, 34.8548944], [135.4295703, 34.8552106], [135.4298236, 34.8553], [135.4304389, 34.8555144], [135.4305764, 34.8556636], [135.4306878, 34.8557553], [135.4310108, 34.8560214], [135.4313583, 34.8564153], [135.4314617, 34.8568147], [135.4315228, 34.8569681], [135.4316136, 34.8571967], [135.4316494, 34.8576567], [135.43165, 34.8576619], [135.4316211, 34.8579064], [135.4315631, 34.8581686], [135.431462, 34.8583333], [135.4312592, 34.8586639], [135.4311506, 34.8589383], [135.4310708, 34.8592008], [135.4306728, 34.8599344], [135.4305642, 34.8601731], [135.4302294, 34.8606567], [135.4301225, 34.8608111], [135.4300606, 34.8610439], [135.4300575, 34.8610556], [135.4300936, 34.8612822], [135.4302311, 34.8615567], [135.4304411, 34.8618489], [135.4306075, 34.8620697], [135.4310922, 34.8624278], [135.4313167, 34.8626306], [135.4316353, 34.8628631], [135.4318742, 34.8632386], [135.4319103, 34.8634714], [135.4320694, 34.8644617], [135.4321419, 34.8647806], [135.4322358, 34.8651208], [135.4324097, 34.8655083], [135.4325725, 34.8658661], [135.4326522, 34.8663136], [135.4327244, 34.8666117], [135.4327586, 34.8666667], [135.4331947, 34.8673694], [135.4332889, 34.8675692], [135.4333333, 34.8676357], [135.4336075, 34.8680464], [135.4336869, 34.8681836], [135.4338678, 34.8681939], [135.4340489, 34.8682044], [135.4341503, 34.8682881], [135.4341842, 34.8683964], [135.4342228, 34.8685206], [135.4345919, 34.8695106], [135.4346, 34.8695292], [135.4347872, 34.8699639], [135.4348017, 34.8700833], [135.43467, 34.8701656], [135.4345339, 34.8702503], [135.4344906, 34.8703339], [135.4344542, 34.8705247], [135.4343094, 34.8707336], [135.4340633, 34.8709303], [135.4339547, 34.8711808], [135.4338897, 34.8713956], [135.4338897, 34.8716936], [135.4340128, 34.8722125], [135.4346208, 34.8734533], [135.4351706, 34.8744139], [135.4353319, 34.8746375], [135.4356928, 34.875], [135.4357592, 34.8750667], [135.4359981, 34.8752397], [135.4362731, 34.8753411], [135.4367219, 34.8755739], [135.4369556, 34.8757711], [135.4370258, 34.8758303], [135.437185, 34.8760689], [135.4372094, 34.8761233], [135.4374094, 34.87657], [135.4375181, 34.8768144], [135.437546, 34.8769898], [135.4375542, 34.8770411], [135.4374892, 34.8771247], [135.4372647, 34.8772142], [135.4370764, 34.8773036], [135.4370258, 34.8773872], [135.4369969, 34.8776258], [135.4370692, 34.8778764], [135.4372503, 34.8783536], [135.4372647, 34.8784372], [135.4372503, 34.87864], [135.4372139, 34.8788308], [135.4372142, 34.8788383], [135.4372214, 34.8789858], [135.4373225, 34.8794689], [135.4374311, 34.8799192], [135.4376194, 34.8804978], [135.4376989, 34.8807425], [135.4378289, 34.8809392], [135.4379086, 34.8811808], [135.4378072, 34.8814969], [135.4378, 34.8817297], [135.4378797, 34.8819325], [135.4382092, 34.88218], [135.4383322, 34.8823589], [135.4384044, 34.88255], [135.4384769, 34.8827467], [135.4387303, 34.8833194], [135.4387364, 34.8833333], [135.4388242, 34.8835342], [135.4389328, 34.8836892], [135.4389764, 34.8839158], [135.438875, 34.8840831], [135.4388537, 34.8841443], [135.4388377, 34.8841869], [135.4388142, 34.8842517], [135.4388833, 34.8844903], [135.4389607, 34.8846194], [135.4390197, 34.8847094], [135.4392369, 34.8850194], [135.4394831, 34.8851925], [135.4396556, 34.8852903], [135.4397364, 34.8853358], [135.4399172, 34.8855206], [135.4399028, 34.8857711], [135.4398233, 34.8859678], [135.4398233, 34.8861289], [135.4397364, 34.8863556], [135.4398378, 34.8866031], [135.43991, 34.8868058], [135.4400839, 34.88711], [135.4401489, 34.8873725], [135.4401561, 34.8876231], [135.4401706, 34.8879603], [135.4401417, 34.888175], [135.4402719, 34.8884403], [135.4403589, 34.8886611], [135.4405906, 34.8891919], [135.4407497, 34.8894186], [135.4408718, 34.8896912], [135.4409082, 34.8897748], [135.4409601, 34.8899357], [135.4409016, 34.8900621], [135.4408819, 34.8902334], [135.4409382, 34.8904565], [135.4409715, 34.8904813], [135.4410189, 34.8905114], [135.4410683, 34.8905461], [135.4412997, 34.8906058], [135.4416667, 34.8907888], [135.4419514, 34.8909308], [135.4422336, 34.8910622], [135.4424942, 34.8911336], [135.4429297, 34.8911336], [135.4431686, 34.8911814], [135.4433567, 34.8912231], [135.4435089, 34.8912231], [135.4436825, 34.8912053], [135.4437622, 34.8911994], [135.4438633, 34.8912411], [135.4439431, 34.8913903], [135.4440167, 34.8916667], [135.4440878, 34.8919331], [135.4441675, 34.8921478], [135.4441758, 34.8921675], [135.4444208, 34.8927444], [135.4444858, 34.8929233], [135.4444931, 34.8930903], [135.4441314, 34.8935139], [135.4440878, 34.8936331], [135.4440444, 34.8939314], [135.4441314, 34.8941642], [135.4445511, 34.8947486], [135.4446669, 34.8949217], [135.4446597, 34.8951186], [135.4446597, 34.8952258], [135.4447103, 34.8953453], [135.4447539, 34.8954228], [135.4449831, 34.8954336], [135.4451319, 34.8954406], [135.4451231, 34.8956136], [135.4452314, 34.8958164], [135.4453617, 34.8959478], [135.4456875, 34.8963414], [135.4457744, 34.8964608], [135.4458178, 34.8965203], [135.4458497, 34.8966139], [135.4458831, 34.8967111], [135.4458903, 34.8968722], [135.4458178, 34.8972122], [135.4456514, 34.8976539], [135.4455044, 34.8978953], [135.4453575, 34.89811], [135.4451569, 34.8984022], [135.4449036, 34.8985036], [135.4445489, 34.8986169], [135.444255, 34.8987031], [135.4441222, 34.8987422], [135.4437892, 34.8988972], [135.4435792, 34.8989389], [135.4430942, 34.8986764], [135.4428408, 34.898575], [135.4422111, 34.89774], [135.4420086, 34.897585], [135.4417189, 34.8974597], [135.4416667, 34.8974402], [135.4410964, 34.8972269], [135.4408719, 34.8970958], [135.4401844, 34.8965647], [135.4399542, 34.8963858], [135.4398022, 34.8961889], [135.4396608, 34.8961153], [135.4394694, 34.8960161], [135.4392161, 34.8959622], [135.4389411, 34.8959264], [135.4387819, 34.8959206], [135.4384417, 34.8960817], [135.4383114, 34.8960875], [135.4380219, 34.8960517], [135.4377394, 34.8959503], [135.4374211, 34.8957536], [135.4371822, 34.8956339], [135.436965, 34.8955564], [135.4360386, 34.8952881], [135.4358142, 34.8951508], [135.4355897, 34.8949836], [135.4355028, 34.8948525], [135.4354378, 34.8947272], [135.4353075, 34.8946139], [135.4350906, 34.8943575], [135.4349675, 34.8941189], [135.4348733, 34.8938564], [135.4346561, 34.8935878], [135.4344247, 34.8934806], [135.4341931, 34.8934031], [135.4339542, 34.8932358], [135.4337731, 34.8930033], [135.43365, 34.8927408], [135.4335647, 34.8923292], [135.4333403, 34.8919653], [135.4333333, 34.8919613], [135.4331956, 34.8918817], [135.4329881, 34.8918258], [135.4328669, 34.8917933], [135.4328408, 34.8917864], [135.4326167, 34.8917403], [135.4326092, 34.8917386], [135.4323906, 34.8917971], [135.4321231, 34.8918689], [135.4320083, 34.8918997], [135.4319097, 34.8919411], [135.4314565, 34.8921311], [135.4314564, 34.8921311], [135.4307419, 34.8924306], [135.4305683, 34.8925619], [135.4304525, 34.8927408], [135.4305031, 34.8935164], [135.4307131, 34.8936714], [135.4312703, 34.8939817], [135.4314297, 34.8941486], [135.4316033, 34.8943364], [135.4316831, 34.8945094], [135.4317842, 34.8949033], [135.4318928, 34.8950583], [135.4324139, 34.8957622], [135.4324428, 34.8959889], [135.4323128, 34.8962275], [135.4317481, 34.8968478], [135.4315164, 34.8969611], [135.4312994, 34.8970744], [135.4310822, 34.8972417], [135.4310533, 34.8973428], [135.4309228, 34.8975694], [135.4305319, 34.8983092], [135.4304089, 34.8985208], [135.4303033, 34.8987111], [135.4302931, 34.8987297], [135.4301122, 34.8992783], [135.4300256, 34.8994394], [135.4299919, 34.8995111], [135.4299169, 34.8996722], [135.4298856, 34.8997394], [135.4297633, 34.9], [135.4295842, 34.9003819], [135.4295031, 34.9005939], [135.4292061, 34.9011069], [135.4290108, 34.9015064], [135.4284825, 34.9023833], [135.4283811, 34.9025922], [135.4278269, 34.9036658], [135.4277111, 34.9038569], [135.4273636, 34.9043697], [135.4273275, 34.9045667], [135.4273275, 34.9047753], [135.4274506, 34.90499], [135.4274867, 34.9051569], [135.4275011, 34.9053478], [135.4274506, 34.9055925], [135.4273203, 34.9058131], [135.4272044, 34.9060458], [135.4271239, 34.9061081], [135.4270958, 34.9061294], [135.4268786, 34.9061294], [135.4267422, 34.9061475], [135.4266542, 34.9061592], [135.4264639, 34.9063531], [135.4260947, 34.9066514], [135.4259789, 34.9066989], [135.4256825, 34.9067408], [135.4254, 34.9066333], [135.4250453, 34.9064961], [135.425, 34.906487], [135.4246908, 34.9064247], [135.4244489, 34.9064031], [135.4244228, 34.9064008], [135.4234167, 34.9064425], [135.423185, 34.9064486], [135.4221792, 34.9064247], [135.4219475, 34.9064486], [135.4216769, 34.9064842], [135.4213728, 34.9064961], [135.4209892, 34.9065319], [135.4204319, 34.9065319], [135.4201206, 34.9064842], [135.4199689, 34.9064783], [135.4198314, 34.9065319], [135.4197589, 34.9066394], [135.419665, 34.9068542], [135.4196911, 34.9071286], [135.4197083, 34.9073075], [135.4196722, 34.9074864], [135.4193969, 34.9078086], [135.4192958, 34.9079397], [135.419035, 34.9081606], [135.4188531, 34.9083333], [135.4187022, 34.9084767], [135.4186225, 34.9086078], [135.4186008, 34.9086914], [135.4186514, 34.9089481], [135.4186614, 34.9089703], [135.4187528, 34.9091747], [135.4189411, 34.9095386], [135.4191003, 34.9097533], [135.4193103, 34.9099322], [135.4194983, 34.9100217], [135.4205261, 34.9103497], [135.4208156, 34.9103917], [135.4208622, 34.9103983], [135.4212914, 34.9104583], [135.4219231, 34.9105467], [135.4222053, 34.9105644], [135.4225672, 34.9106419], [135.4228567, 34.9107614], [135.4229408, 34.9108011], [135.4231083, 34.9108806], [135.4233256, 34.9110297], [135.4236439, 34.9112328], [135.4238394, 34.9114594], [135.4239986, 34.9116561], [135.4240022, 34.9116625], [135.4241289, 34.9118889], [135.4243244, 34.9124761], [135.4243822, 34.9127089], [135.4243897, 34.9129356], [135.4244619, 34.9133531], [135.424486, 34.9134391], [135.4245053, 34.9135081], [135.4248964, 34.9138572], [135.425, 34.9139303], [135.4254247, 34.91423], [135.4256419, 34.9142894], [135.4258808, 34.9143611], [135.4261986, 34.9143983], [135.4265972, 34.9144447], [135.4268867, 34.9145103], [135.4271319, 34.9145878], [135.427465, 34.9147192], [135.4277111, 34.9149039], [135.4278703, 34.9150769], [135.4280875, 34.9152558], [135.4285581, 34.9153872], [135.4289314, 34.9154958], [135.4290689, 34.9155359], [135.4290906, 34.9155422], [135.4291808, 34.9155933], [135.4293222, 34.9156736], [135.4300822, 34.9161867], [135.4302992, 34.9163475], [135.4309856, 34.9165594], [135.4315356, 34.9166608], [135.431565, 34.9166667], [135.4324694, 34.9168458], [135.4327589, 34.9169053], [135.4332656, 34.9169531], [135.4333333, 34.9169496], [135.4337289, 34.9169292], [135.4340253, 34.9168933], [135.4342714, 34.9168278], [135.4345247, 34.9167681], [135.4350603, 34.9170783], [135.4359775, 34.9177081], [135.4360158, 34.9177344], [135.4362664, 34.9178597], [135.4365414, 34.918015], [135.4367731, 34.9182058], [135.4369394, 34.9184264], [135.4371444, 34.9186264], [135.4374917, 34.9190856], [135.4376508, 34.9192767], [135.43781, 34.9193958], [135.4381286, 34.9197539], [135.4381828, 34.9197831], [135.438295, 34.9198433], [135.4383747, 34.9198967], [135.4385997, 34.9200669], [135.4388956, 34.9203], [135.4391308, 34.9204364], [135.4393028, 34.9205044], [135.4395508, 34.9205147], [135.4397989, 34.9204992], [135.4399772, 34.9204467], [135.4401744, 34.9203681], [135.4404353, 34.9202897], [135.4405547, 34.9202531], [135.4406575, 34.9202214], [135.4408039, 34.92019], [135.4410519, 34.9201692], [135.4413447, 34.9201847], [135.4416375, 34.9202111], [135.4416667, 34.9202176], [135.4418728, 34.9202633], [135.4420636, 34.9202844], [135.4422672, 34.9202478], [135.4424294, 34.9202031], [135.4426331, 34.9202031], [135.4429322, 34.9202397], [135.4430531, 34.920245], [135.4432183, 34.9202189], [135.4434283, 34.9201614], [135.4439117, 34.9200775], [135.4441281, 34.9200881], [135.4443253, 34.9201036], [135.4446561, 34.9201508], [135.4450761, 34.9202031], [135.445305, 34.9202714], [135.4456167, 34.9203394], [135.4458489, 34.9203578], [135.4462625, 34.9203578], [135.4468989, 34.9203158], [135.4475156, 34.9202164], [135.4481392, 34.9200172], [135.4484764, 34.9199753], [135.4486419, 34.91997], [135.4491636, 34.9199858], [135.4496853, 34.9200172], [135.45, 34.9200304], [135.4501239, 34.9200354], [135.4503131, 34.9200433], [135.4503147, 34.9200433], [135.4506647, 34.9200119], [135.4511292, 34.9199439], [135.4514486, 34.9198967], [135.4521, 34.9195158], [135.4527222, 34.9192536], [135.4532578, 34.9191942], [135.4535403, 34.9191761], [135.4539672, 34.9191047], [135.454235, 34.9190031], [135.4544883, 34.9189136], [135.4548575, 34.9187764], [135.4551181, 34.9186511], [135.455335, 34.9184603], [135.4555233, 34.9182753], [135.4557911, 34.9181442], [135.4561747, 34.9180428], [135.4564425, 34.9179653], [135.4566066, 34.9179287], [135.4567103, 34.9179056], [135.4570506, 34.9178819], [135.4574342, 34.9179236], [135.4576803, 34.9180014], [135.458035, 34.9181206], [135.4582881, 34.9181444], [135.4583333, 34.9181424], [135.4589467, 34.9181147], [135.4592292, 34.9180908], [135.4595867, 34.9180967], [135.4599269, 34.9180847], [135.4602597, 34.9180669], [135.4605494, 34.9181267], [135.4608172, 34.9182519], [135.4609978, 34.9182875], [135.4612294, 34.9182578], [135.4615192, 34.9181622], [135.4616911, 34.9180781], [135.4617506, 34.9180489], [135.4620764, 34.9179356], [135.4622936, 34.9179178], [135.4625181, 34.9179656], [135.4627278, 34.9180369], [135.4631767, 34.9182042], [135.4635961, 34.9183056], [135.4637264, 34.9183711], [135.4639003, 34.9185203], [135.4640739, 34.9187292], [135.4642347, 34.9190272], [135.46443, 34.91923], [135.4646111, 34.9193494], [135.4648789, 34.9194508], [135.4651972, 34.9195344], [135.4654072, 34.9195881], [135.4655519, 34.9197072], [135.4656967, 34.9198325], [135.4657186, 34.9198972], [135.4657558, 34.9201547], [135.4659297, 34.9204303], [135.4660839, 34.9206264], [135.4662192, 34.9209442], [135.4662706, 34.9212142], [135.4662578, 34.9214844], [135.4662642, 34.9217178], [135.4662128, 34.9219775], [135.4661164, 34.9223378], [135.4660006, 34.922555], [135.4659747, 34.9227564], [135.4660456, 34.9230161], [135.4660969, 34.9232069], [135.4660906, 34.9234031], [135.4660392, 34.9236628], [135.4660006, 34.9238164], [135.4659747, 34.9240072], [135.4659425, 34.9242031], [135.4659683, 34.9243089], [135.4660006, 34.924415], [135.4661292, 34.9245528], [135.4663481, 34.9247169], [135.4666117, 34.9249025], [135.4666667, 34.9249377], [135.466764, 34.925], [135.4670753, 34.9251992], [135.4674486, 34.9252681], [135.4677061, 34.9253742], [135.4678733, 34.9254272], [135.4679442, 34.9254272], [135.4680922, 34.9253847], [135.4681889, 34.9253531], [135.4683756, 34.9253794], [135.4685236, 34.9254325], [135.4685881, 34.9255383], [135.4685944, 34.9256814], [135.4685622, 34.9258247], [135.4685108, 34.9259569], [135.4684978, 34.9260419], [135.4685431, 34.9261425], [135.4685364, 34.9262697], [135.4684464, 34.9264711], [135.4683628, 34.9266142], [135.4683706, 34.9268433], [135.4683819, 34.9271706], [135.4683447, 34.9272906], [135.4683111, 34.9273986], [135.4681953, 34.9275469], [135.4680408, 34.9276531], [135.4677897, 34.9277642], [135.4676933, 34.9278433], [135.4675067, 34.928135], [135.4673714, 34.9283258], [135.4671525, 34.9287867], [135.4670944, 34.9287656], [135.4666667, 34.9286057], [135.4664706, 34.9285325], [135.4661778, 34.9284319], [135.4657753, 34.9282939], [135.4654342, 34.9281561], [135.4652281, 34.92805], [135.4649061, 34.9279231], [135.4642947, 34.9277639], [135.464005, 34.9277164], [135.4637978, 34.9276903], [135.4637092, 34.9276792], [135.4636461, 34.9276694], [135.4636061, 34.9276633], [135.4635722, 34.9276425], [135.4635289, 34.9276156], [135.4634839, 34.9274619], [135.4634517, 34.9273294], [135.4633936, 34.9272392], [135.4631361, 34.9270325], [135.4629561, 34.9269372], [135.4628014, 34.9268894], [135.4624861, 34.9268472], [135.4622222, 34.9268472], [135.4619389, 34.9268419], [135.4618358, 34.9267517], [135.4616169, 34.9265664], [135.4614175, 34.9264178], [135.4611858, 34.9263172], [135.4610122, 34.9262747], [135.4609222, 34.9263278], [135.4608447, 34.9264656], [135.4607675, 34.9266297], [135.4606775, 34.9267783], [135.4605744, 34.9268947], [135.4604394, 34.9269903], [135.4596217, 34.9274036], [135.4590361, 34.9277372], [135.4586433, 34.9280975], [135.4583333, 34.9283794], [135.4582414, 34.9284631], [135.4580836, 34.9286064], [135.4577358, 34.9288289], [135.4571181, 34.9291417], [135.4570258, 34.9291708], [135.4569506, 34.9291944], [135.4567125, 34.9292317], [135.4563583, 34.9292106], [135.4559978, 34.9291892], [135.4557533, 34.9292211], [135.4553544, 34.9293322], [135.4551356, 34.9293589], [135.4542344, 34.9295017], [135.4539189, 34.9295281], [135.4528186, 34.9297189], [135.4525417, 34.9297878], [135.4523808, 34.9298672], [135.4522133, 34.9300103], [135.4520975, 34.9301111], [135.4519881, 34.9302806], [135.4519494, 34.9304503], [135.4519817, 34.9306411], [135.4520653, 34.9307947], [135.4521683, 34.9309856], [135.4522133, 34.9310756], [135.4522261, 34.9311922], [135.4521942, 34.9313247], [135.4518594, 34.9317275], [135.4516469, 34.9318756], [135.4514217, 34.9320292], [135.4512219, 34.9321511], [135.4510225, 34.9322519], [135.4508036, 34.9323314], [135.4506106, 34.9324161], [135.4504431, 34.932485], [135.4503336, 34.9325328], [135.45025, 34.9325911], [135.4500981, 34.9327861], [135.45, 34.9329121], [135.4499281, 34.9330044], [135.4497736, 34.9332006], [135.4496602, 34.9333333], [135.4495611, 34.9334494], [135.4495292, 34.9335292], [135.4494969, 34.9336561], [135.4494325, 34.9339583], [135.4493489, 34.934165], [135.449265, 34.9343344], [135.4492136, 34.9344194], [135.44913, 34.9345042], [135.4490397, 34.9345306], [135.4489239, 34.9345253], [135.4485444, 34.9344247], [135.4482869, 34.9343292], [135.4481003, 34.9342975], [135.4479714, 34.9342922], [135.4478942, 34.9342972], [135.4478364, 34.9343131], [135.4476433, 34.9344031], [135.447405, 34.9345675], [135.4469931, 34.9349014], [135.4468582, 34.9350104], [135.4462656, 34.9354897], [135.4455769, 34.9360194], [135.4453889, 34.9361878], [135.4452036, 34.9363533], [135.4449525, 34.9365761], [135.4443828, 34.9371431], [135.4442444, 34.9372808], [135.4433628, 34.9381072], [135.4427664, 34.9386475], [135.4424681, 34.9389181], [135.4422361, 34.9390664], [135.4420239, 34.9392256], [135.441895, 34.9393314], [135.4417792, 34.9393686], [135.4417244, 34.9393806], [135.4416667, 34.9393929], [135.4416569, 34.939395], [135.4415925, 34.9393792], [135.4414831, 34.9392731], [135.4414186, 34.9391883], [135.4411869, 34.9389553], [135.4407878, 34.9386692], [135.4404789, 34.93851], [135.4402022, 34.9383564], [135.4399706, 34.9382292], [135.4397389, 34.9379961], [135.4393528, 34.9375353], [135.4392239, 34.9374028], [135.4385481, 34.9369417], [135.4381617, 34.9370583], [135.4377111, 34.9372703], [135.4375053, 34.9373922], [135.4371772, 34.9374819], [135.4370757, 34.9374942], [135.4369583, 34.9375083], [135.4365592, 34.9375881], [135.4363339, 34.9376675], [135.4361731, 34.9377681], [135.4360119, 34.9378528], [135.4357994, 34.9380119], [135.4355033, 34.9381761], [135.4353039, 34.9382503], [135.4351431, 34.9382928], [135.4349819, 34.9382981], [135.4345508, 34.9382239], [135.4341581, 34.938155], [135.4337731, 34.9381092], [135.4335789, 34.9380861], [135.4333333, 34.9380812], [135.433315, 34.9380808], [135.4329803, 34.9380331], [135.4328839, 34.9380119], [135.4328194, 34.9379217], [135.4326519, 34.9375456], [135.4325556, 34.9373178], [135.4324461, 34.9371056], [135.4323881, 34.9370369], [135.4323239, 34.9370211], [135.4319247, 34.9370475], [135.4315514, 34.9370261], [135.4311714, 34.9370261], [135.4305989, 34.9369469], [135.4303414, 34.9368728], [135.4300517, 34.9367881], [135.4292792, 34.9366025], [135.4289961, 34.9365336], [135.4288286, 34.9364964], [135.4287092, 34.9364758], [135.4285839, 34.9364542], [135.4283814, 34.9364683], [135.4283586, 34.93647], [135.428185, 34.9365389], [135.4279789, 34.9366767], [135.4277536, 34.9368778], [135.4276569, 34.9369625], [135.4275475, 34.9370367], [135.4273997, 34.9370739], [135.4272453, 34.9370844], [135.4270458, 34.9370633], [135.4268142, 34.9369944], [135.4264986, 34.9368936], [135.4262992, 34.9367825], [135.4262992, 34.9367825], [135.4259967, 34.9366767], [135.4257325, 34.9365867], [135.4255911, 34.9365178], [135.4254653, 34.9364714], [135.4253464, 34.9364275], [135.4251622, 34.9362508], [135.4250761, 34.9361681], [135.4250244, 34.9360725], [135.4250308, 34.9359136], [135.425, 34.9358643], [135.4249281, 34.9357492], [135.4248314, 34.9356592], [135.4247094, 34.9355686], [135.4246961, 34.9355586], [135.4243617, 34.9354047], [135.42413, 34.9352617], [135.4238983, 34.9350656], [135.4235314, 34.9346733], [135.4234542, 34.9345356], [135.4233706, 34.9344561], [135.4230614, 34.9343872], [135.4226944, 34.9343819], [135.42245, 34.9343397], [135.4223083, 34.9342761], [135.4220572, 34.9341383], [135.4219028, 34.9340322], [135.4218598, 34.9340116], [135.4217483, 34.9339581], [135.4214911, 34.9338733], [135.4209181, 34.9338625], [135.4203453, 34.9338786], [135.4201522, 34.9338892], [135.4196114, 34.9339528], [135.4193281, 34.9339369], [135.4186264, 34.9338997], [135.4184847, 34.9338944], [135.4182169, 34.9335958], [135.4180097, 34.9334428], [135.4178503, 34.9333858], [135.4177527, 34.9333333], [135.4177119, 34.9333114], [135.4175578, 34.9332414], [135.4173719, 34.9331322], [135.4172336, 34.9330053], [135.4171219, 34.9328608], [135.4170103, 34.9327122], [135.4169253, 34.9326203], [135.4168244, 34.9324892], [135.4166861, 34.9322922], [135.4166667, 34.9322572], [135.4164578, 34.9318808], [135.4163833, 34.9316797], [135.4163514, 34.9315308], [135.4162503, 34.9313733], [135.4161706, 34.9312069], [135.4161175, 34.9310014], [135.4161122, 34.9308833], [135.4161333, 34.9307475], [135.4161547, 34.9305814], [135.4161919, 34.9303364], [135.4162769, 34.929995], [135.4162981, 34.9298944], [135.4162981, 34.9297981], [135.4162664, 34.9297761], [135.4161442, 34.9297281], [135.4158733, 34.9296756], [135.4153044, 34.9295531], [135.4151186, 34.9295181], [135.4149272, 34.929505], [135.4146242, 34.9294786], [135.4144436, 34.929435], [135.4142733, 34.92933], [135.4141353, 34.9292336], [135.4139281, 34.9290764], [135.4138667, 34.9290483], [135.4137844, 34.9290108], [135.4135614, 34.9289539], [135.412945, 34.9288314], [135.4127642, 34.9288008], [135.4125783, 34.9287439], [135.4124242, 34.9287219], [135.4121317, 34.9286433], [135.4120361, 34.9286433], [135.4118819, 34.9286958], [135.4117864, 34.9287219], [135.4116108, 34.9287439], [135.4114611, 34.9287478], [135.4114356, 34.9287483], [135.4111911, 34.9287175], [135.4107606, 34.9286739], [135.4105533, 34.9286258], [135.4103886, 34.9285558], [135.4102397, 34.9284419], [135.4100381, 34.9283281], [135.4097617, 34.9282319], [135.4093153, 34.9281619], [135.4091131, 34.9281269], [135.4089986, 34.9281164], [135.4088739, 34.928105], [135.4083333, 34.9280929], [135.4082894, 34.9280919], [135.4082451, 34.9280997], [135.4081139, 34.9281225], [135.4079597, 34.9281619], [135.4077206, 34.9281881], [135.4075825, 34.9281839], [135.4074764, 34.9281781], [135.4073381, 34.9281706], [135.4072797, 34.9281547], [135.4072264, 34.92814], [135.4070936, 34.9281006], [135.4070519, 34.9280406], [135.4070511, 34.9280394], [135.4070567, 34.9279519], [135.4071839, 34.9277856], [135.4072583, 34.9276936], [135.4074125, 34.9275711], [135.4075831, 34.9274708], [135.4075983, 34.9274619], [135.4076336, 34.9274306], [135.4077419, 34.927335], [135.4078269, 34.9272256], [135.4078217, 34.9271425], [135.4077686, 34.9269456], [135.4077367, 34.9267836], [135.4076781, 34.9265647], [135.4076622, 34.9262892], [135.4076889, 34.9261186], [135.4077314, 34.9259783], [135.4078375, 34.9258033], [135.4079333, 34.9256853], [135.4081033, 34.9255322], [135.4083333, 34.9253974], [135.4084169, 34.9253483], [135.4085875, 34.9252906], [135.4085936, 34.9252883], [135.4087783, 34.9252258], [135.4089378, 34.9251997], [135.4091239, 34.9251472], [135.4097537, 34.925], [135.4097989, 34.9249894], [135.4099475, 34.9249544], [135.4101497, 34.9249022], [135.4103517, 34.9248411], [135.4105164, 34.9247622], [135.4106333, 34.9246747], [135.4107022, 34.9245697], [135.4107183, 34.9244822], [135.4107503, 34.9243203], [135.4107342, 34.9241322], [135.4106439, 34.9239047], [135.4106119, 34.9237867], [135.4106333, 34.9236772], [135.4107517, 34.9236053], [135.4107556, 34.9236028], [135.4109042, 34.9235897], [135.4110794, 34.9235589], [135.4113133, 34.9235108], [135.4114994, 34.9234322], [135.4116375, 34.9233664], [135.4117439, 34.9232528], [135.4118075, 34.9231128], [135.4118128, 34.9230428], [135.4117703, 34.9229419], [135.4117172, 34.9228764], [135.4116217, 34.9228019], [135.4115472, 34.9227583], [135.4114728, 34.9227364], [135.4113453, 34.9226883], [135.4110158, 34.9226794], [135.4107342, 34.9226839], [135.4107039, 34.9226814], [135.41058, 34.9226708], [135.4104206, 34.9226358], [135.4102931, 34.92257], [135.4101867, 34.9224608], [135.4100911, 34.9223294], [135.4100592, 34.9221369], [135.41007, 34.9219925], [135.4100858, 34.9218831], [135.4101761, 34.9217386], [135.4101922, 34.9217183], [135.4102664, 34.921625], [135.4103622, 34.9214675], [135.4105961, 34.9212225], [135.4106067, 34.92117], [135.4105908, 34.9211175], [135.4104739, 34.9210781], [135.4102825, 34.9210431], [135.4100911, 34.9210256], [135.4099631, 34.9210156], [135.40948, 34.9209775], [135.4090706, 34.9209511], [135.4086881, 34.9208903], [135.4084381, 34.9208464], [135.4083333, 34.9208275], [135.4077847, 34.9207283], [135.40762, 34.9206714], [135.4074286, 34.9206275], [135.4071522, 34.9205794], [135.4066314, 34.9204483], [135.4064242, 34.9204], [135.4063497, 34.920365], [135.4062911, 34.9203039], [135.4062486, 34.9202206], [135.4062381, 34.9201419], [135.4061911, 34.9198964], [135.4062997, 34.9196281], [135.4064444, 34.9193717], [135.4066544, 34.9191031], [135.4068717, 34.9189003], [135.4069947, 34.9188047], [135.4071683, 34.9187572], [135.4072264, 34.9187214], [135.4072986, 34.91859], [135.4073131, 34.9184292], [135.40719, 34.9177789], [135.4070597, 34.9171583], [135.4069731, 34.9168556], [135.4069731, 34.9167781], [135.4070474, 34.9166667], [135.4071322, 34.9165394], [135.4071467, 34.9164381], [135.4071402, 34.9164297], [135.4070453, 34.9163069], [135.4069731, 34.9161517], [135.4069439, 34.9159908], [135.4068208, 34.9157758], [135.4067269, 34.9156686], [135.4063303, 34.9156556], [135.4056428, 34.9155958], [135.4054547, 34.9155897], [135.4052675, 34.9155775], [135.4051794, 34.9155719], [135.4051797, 34.9155472], [135.4051806, 34.9154133], [135.4051867, 34.9146117], [135.4051867, 34.9143622], [135.4037536, 34.9143622], [135.4034367, 34.9142547], [135.4030025, 34.9141533], [135.4029717, 34.9141528], [135.4026767, 34.9141475], [135.4024883, 34.9142133], [135.4022497, 34.9142967], [135.40175, 34.9135386], [135.40116, 34.9126281], [135.4005237, 34.9115977], [135.4004745, 34.9115212], [135.4001897, 34.9112114], [135.4, 34.9110063], [135.3994342, 34.9103944], [135.3992997, 34.9102658], [135.3991961, 34.9101669], [135.3991711, 34.9101428], [135.3991228, 34.9101831], [135.3990497, 34.9102442], [135.3982172, 34.9109392], [135.397705, 34.9113669], [135.3975663, 34.9114876], [135.3961453, 34.9103233], [135.3954989, 34.9097913], [135.3947839, 34.9092081], [135.3947141, 34.9091458], [135.3944741, 34.9088984], [135.3943901, 34.9087849], [135.3943336, 34.9086474], [135.3943231, 34.9084894], [135.3943375, 34.9083522], [135.3943512, 34.9083333], [135.3945836, 34.9080122], [135.3949731, 34.9075481], [135.3955317, 34.9068825], [135.3957056, 34.9067514], [135.3956611, 34.9065628], [135.3956186, 34.9063828], [135.3967769, 34.9058158], [135.3961326, 34.9051717], [135.3953439, 34.9043831], [135.3951108, 34.9042017], [135.3950106, 34.9041081], [135.3948936, 34.9039989], [135.3946114, 34.9038258], [135.3944086, 34.9037664], [135.3942278, 34.9036531], [135.3942086, 34.9036256], [135.394205, 34.9036203], [135.3941408, 34.9035281], [135.3940539, 34.9032475], [135.3939961, 34.902985], [135.394025, 34.9027822], [135.3940611, 34.9026331], [135.3944014, 34.9019219], [135.3923461, 34.9026319], [135.3921583, 34.9026994], [135.3919972, 34.9027572], [135.3918886, 34.902775], [135.3917075, 34.9027631], [135.3916667, 34.9027513], [135.3915628, 34.9027214], [135.3913161, 34.9026039], [135.3910994, 34.9025008], [135.3907811, 34.9023517], [135.3905928, 34.9021844], [135.3904914, 34.9020892], [135.3904119, 34.9019339], [135.3902819, 34.9014331], [135.39026, 34.9012731], [135.3902022, 34.9010881], [135.3901775, 34.9009342], [135.3899314, 34.9003675], [135.3897883, 34.9000769], [135.3897503, 34.9], [135.3897433, 34.8999858], [135.3894539, 34.8993644], [135.3892872, 34.8990244], [135.3892006, 34.8988811], [135.3890289, 34.89866], [135.3888356, 34.8984111], [135.3887636, 34.8982561], [135.3887564, 34.8980592], [135.3889083, 34.8978267], [135.3890531, 34.8976775], [135.3887708, 34.8974867], [135.3884883, 34.8971764], [135.3879253, 34.8966228], [135.3876358, 34.8963936], [135.3875344, 34.8962683], [135.3873172, 34.8960536], [135.3870206, 34.8958508], [135.3868758, 34.8957556], [135.386705, 34.8956319], [135.3866372, 34.8955825], [135.3864994, 34.8954989], [135.386145, 34.8952961], [135.386, 34.8951947], [135.3857006, 34.8949692], [135.3854253, 34.8948381], [135.3848392, 34.8947783], [135.3846292, 34.8947486], [135.3844336, 34.8946947], [135.3836303, 34.894325], [135.3834639, 34.8942356], [135.3833333, 34.894157], [135.3832756, 34.8941222], [135.3833053, 34.8940689], [135.3833333, 34.8940186], [135.3833553, 34.8939792], [135.3836158, 34.8938419], [135.3843325, 34.8937286], [135.3849258, 34.8935975], [135.3851561, 34.8935411], [135.3851939, 34.8935319], [135.3852536, 34.8934975], [135.3853603, 34.8934364], [135.3854689, 34.8932992], [135.3855194, 34.8931203], [135.3854325, 34.8929175], [135.38523, 34.8927206], [135.3849911, 34.8926131], [135.3847822, 34.8925939], [135.384735, 34.8925897], [135.3846694, 34.8925836], [135.3846608, 34.8925831], [135.3838183, 34.8925536], [135.3836086, 34.8925117], [135.3834061, 34.8924581], [135.3833333, 34.8924421], [135.3831889, 34.8924103], [135.382995, 34.8923808], [135.3825592, 34.892315], [135.3823058, 34.8922903], [135.3821567, 34.8922756], [135.3819033, 34.8922517], [135.3815197, 34.8921325], [135.3812736, 34.8919653], [135.3810419, 34.8917147], [135.3810173, 34.8916667], [135.3808828, 34.8914047], [135.3808106, 34.8910669], [135.3808394, 34.8907269], [135.3810292, 34.8896353], [135.3810508, 34.8893908], [135.3810072, 34.8888539], [135.3809711, 34.8885019], [135.3809206, 34.888335], [135.3807033, 34.8881439], [135.3804211, 34.887965], [135.3803125, 34.8878697], [135.38011, 34.8877144], [135.3799436, 34.8875533], [135.3798278, 34.8874161], [135.3796583, 34.8870761], [135.3794775, 34.8868256], [135.3794122, 34.8866531], [135.3793397, 34.8858833], [135.3793617, 34.8857342], [135.3794703, 34.8855672], [135.3798608, 34.8849408], [135.3799622, 34.8847322], [135.3800128, 34.8845889], [135.3800267, 34.8845522], [135.3800843, 34.8843983], [135.3801864, 34.8841247], [135.3802372, 34.8838625], [135.3802589, 34.8836656], [135.3802878, 34.8835164], [135.3803373, 34.8833333], [135.3803458, 34.8833017], [135.3803747, 34.8829794], [135.3803747, 34.8828064], [135.3803775, 34.8824606], [135.3803992, 34.8822994], [135.3804283, 34.8819772], [135.3807222, 34.8816667], [135.3808386, 34.8815436], [135.3809133, 34.8814644], [135.3809711, 34.8813092], [135.3810653, 34.8811719], [135.3813331, 34.8809692], [135.3815864, 34.8808678], [135.3816947, 34.8808319], [135.3817889, 34.8806353], [135.3818756, 34.8804133], [135.3819697, 34.88027], [135.3822014, 34.8800375], [135.3823158, 34.8798633], [135.3824317, 34.8797558], [135.3827864, 34.8798036], [135.38296, 34.8796425], [135.382995, 34.8795878], [135.383065, 34.8794781], [135.38317, 34.8793133], [135.3831917, 34.8791761], [135.3832133, 34.8789314], [135.3832711, 34.8787047], [135.3833333, 34.8785744], [135.3833508, 34.8785378], [135.3836331, 34.8781858], [135.3836839, 34.8780533], [135.3837272, 34.8778028], [135.3837486, 34.8776656], [135.3836764, 34.8775044], [135.3835319, 34.8774508], [135.3833333, 34.8773827], [135.3832711, 34.8773614], [135.3827708, 34.8772567], [135.3827572, 34.8772539], [135.3823272, 34.8771072], [135.3820017, 34.8769761], [135.3816542, 34.8768208], [135.3813806, 34.8767064], [135.3811778, 34.8765753], [135.3810403, 34.8764264], [135.3809897, 34.8762653], [135.3809461, 34.8760267], [135.3808086, 34.875745], [135.3804758, 34.8755422], [135.3801933, 34.875435], [135.3798533, 34.8753572], [135.3795928, 34.8753394], [135.3791297, 34.8753811], [135.3782756, 34.8754586], [135.3779064, 34.8754944], [135.3774575, 34.8754644], [135.3770161, 34.8754167], [135.3767336, 34.8753808], [135.3765456, 34.875375], [135.3764658, 34.8754525], [135.3764081, 34.8756792], [135.3763211, 34.8760133], [135.3761478, 34.87689], [135.3760172, 34.8769594], [135.3759233, 34.8770094], [135.3755033, 34.8768364], [135.3752067, 34.8766456], [135.3751125, 34.8764486], [135.3750981, 34.8763114], [135.3751125, 34.8760686], [135.3751125, 34.8760669], [135.3752139, 34.8755719], [135.3752286, 34.8754217], [135.3752214, 34.8752664], [135.3751708, 34.8750756], [135.3751615, 34.875], [135.3751272, 34.8747236], [135.3751708, 34.8745269], [135.3752719, 34.8743781], [135.3753517, 34.8742169], [135.3754311, 34.8740497], [135.3754383, 34.8739722], [135.3753731, 34.8739244], [135.3752142, 34.8739306], [135.375, 34.8740149], [135.3748811, 34.8740617], [135.3746714, 34.8741631], [135.3745192, 34.8742289], [135.3743311, 34.8742464], [135.3741792, 34.8742047], [135.3737664, 34.8740197], [135.3734481, 34.8738647], [135.3732742, 34.8737694], [135.3731439, 34.8737097], [135.3727386, 34.8739958], [135.3724564, 34.8742344], [135.3722681, 34.8743358], [135.3721983, 34.8743783], [135.3720392, 34.8744261], [135.3719739, 34.8743903], [135.3718797, 34.8742292], [135.3718219, 34.8740742], [135.371735, 34.8738117], [135.3717058, 34.8736289], [135.3716844, 34.8734956], [135.3716047, 34.8734658], [135.3714239, 34.8735014], [135.3713008, 34.8736031], [135.3711486, 34.8736625], [135.3709533, 34.8737103], [135.3707578, 34.8736983], [135.3705842, 34.8736089], [135.3704103, 34.8735133], [135.3702872, 34.8733703], [135.3701953, 34.8732356], [135.3700942, 34.8729908], [135.3700578, 34.8728297], [135.3700506, 34.8726669], [135.3700578, 34.8725417], [135.3701447, 34.8722672], [135.3702025, 34.87213], [135.370275, 34.8719872], [135.3704486, 34.8717783], [135.3705572, 34.8716353], [135.3706731, 34.8715339], [135.3709844, 34.8713072], [135.3711797, 34.8711519], [135.371245, 34.8710686], [135.3713097, 34.8709133], [135.3714039, 34.8707703], [135.3714836, 34.870645], [135.3717008, 34.8703767], [135.3717947, 34.8702094], [135.3718167, 34.8701261], [135.3717514, 34.8700783], [135.3713678, 34.8700247], [135.3711144, 34.869965], [135.3707744, 34.8698933], [135.3705283, 34.8698756], [135.3703403, 34.8698875], [135.3701881, 34.8698575], [135.3699856, 34.8697861], [135.3698769, 34.86978], [135.3697972, 34.8698158], [135.3697178, 34.8699053], [135.3696475, 34.8700106], [135.3696019, 34.8700783], [135.3695006, 34.8702214], [135.3694064, 34.8703886], [135.3691819, 34.8707703], [135.36908, 34.8710422], [135.3690292, 34.8711203], [135.3689133, 34.8712986], [135.3688483, 34.8714], [135.3687253, 34.8715133], [135.368595, 34.8716147], [135.3685008, 34.8717219], [135.3682686, 34.8720083], [135.3680803, 34.872235], [135.3680297, 34.8723483], [135.3679864, 34.8724617], [135.3679575, 34.8726228], [135.3679142, 34.8728136], [135.3679286, 34.8729747], [135.3679719, 34.8731536], [135.3680156, 34.8733864], [135.3680661, 34.8735475], [135.3681022, 34.8736728], [135.368095, 34.87378], [135.3680081, 34.8738219], [135.3678706, 34.8738219], [135.3673206, 34.8738814], [135.3671754, 34.8738954], [135.3670092, 34.8739114], [135.3666667, 34.873917], [135.3666544, 34.8739172], [135.3661842, 34.8739531], [135.3657353, 34.8739531], [135.3654314, 34.8739592], [135.3650831, 34.8739472], [135.3649311, 34.8739233], [135.3648369, 34.8738697], [135.3648008, 34.8737742], [135.3648008, 34.8736906], [135.3648658, 34.8735653], [135.3649239, 34.8734758], [135.3649383, 34.8733922], [135.3649383, 34.8732969], [135.3649094, 34.8731478], [135.3648153, 34.8729092], [135.364685, 34.872685], [135.3646053, 34.8725597], [135.3644317, 34.8723447], [135.3642436, 34.8721481], [135.3640197, 34.8719517], [135.3639542, 34.8718939], [135.3638456, 34.8717328], [135.3637514, 34.8714983], [135.3637008, 34.8713075], [135.3636647, 34.8710492], [135.3636283, 34.8708881], [135.3635994, 34.8707031], [135.3636139, 34.8705064], [135.3636503, 34.8703931], [135.3638453, 34.8699122], [135.3639033, 34.8697453], [135.3639322, 34.8695764], [135.3639972, 34.8692006], [135.36399, 34.8690378], [135.3639394, 34.8687494], [135.3639033, 34.8685767], [135.3638381, 34.8684394], [135.3636281, 34.8680858], [135.3635194, 34.8679308], [135.3634111, 34.8676247], [135.3632881, 34.8672967], [135.3632372, 34.8672011], [135.3631431, 34.8671417], [135.3628633, 34.8670425], [135.3626969, 34.8669769], [135.3625811, 34.8669053], [135.3624942, 34.8668039], [135.3624289, 34.8666947], [135.3624206, 34.8666667], [135.362335, 34.8663786], [135.3622481, 34.8662294], [135.3622192, 34.8660803], [135.3621564, 34.8659256], [135.3621467, 34.8659014], [135.3617342, 34.8652869], [135.36164, 34.8651497], [135.3614953, 34.8648394], [135.3613722, 34.8646575], [135.3610103, 34.8641506], [135.3608458, 34.8638794], [135.3608075, 34.8638164]]], [[[135.3891875, 34.8342306], [135.3893536, 34.8342306], [135.3894422, 34.8342372], [135.3896364, 34.8342522], [135.3898239, 34.8342664], [135.3899539, 34.8345886], [135.3900625, 34.8349167], [135.3900746, 34.8349586], [135.3901636, 34.8352683], [135.3902647, 34.8354533], [135.390395, 34.8355547], [135.3908361, 34.8357575], [135.39106, 34.8357992], [135.3912986, 34.8358589], [135.3915228, 34.8359364], [135.3916667, 34.8359652], [135.3917325, 34.8359783], [135.3919133, 34.8359961], [135.3921519, 34.8360019], [135.3924483, 34.8359544], [135.3927667, 34.8358858], [135.3929544, 34.8358739], [135.3931933, 34.83582], [135.3935114, 34.8358142], [135.3940972, 34.8358503], [135.3943064, 34.8358622], [135.3945233, 34.8358503], [135.3949053, 34.8360483], [135.3949717, 34.8360825], [135.3951525, 34.8360769], [135.3952797, 34.8360436], [135.3957239, 34.8359278], [135.3960275, 34.8358561], [135.3961722, 34.8358144], [135.3964875, 34.835715], [135.3967953, 34.8356181], [135.3968478, 34.8356017], [135.3969036, 34.8355839], [135.3972133, 34.8354864], [135.3973075, 34.8354564], [135.3974086, 34.8353731], [135.3975119, 34.8354636], [135.3975175, 34.8354686], [135.3975825, 34.8355253], [135.3976469, 34.8355817], [135.3976547, 34.8355967], [135.3976978, 34.8356803], [135.3976978, 34.8357875], [135.3975747, 34.8359008], [135.3974808, 34.8360261], [135.3969021, 34.8361869], [135.3966899, 34.8362467], [135.3965272, 34.8362821], [135.3958891, 34.8365006], [135.3958479, 34.836523], [135.3957417, 34.8365488], [135.3956796, 34.8365682], [135.395574, 34.8365934], [135.3952204, 34.8369788], [135.3948589, 34.8369769], [135.3944347, 34.8369813], [135.3942512, 34.8369734], [135.3941831, 34.8370125], [135.3941831, 34.8372811], [135.3941683, 34.8374839], [135.3941756, 34.8375972], [135.3941831, 34.8377881], [135.3941831, 34.8382725], [135.394125, 34.8384989], [135.3941178, 34.83863], [135.3940961, 34.8387256], [135.3940381, 34.8387853], [135.3938211, 34.8387853], [135.3936256, 34.8387494], [135.393445, 34.8387436], [135.3933131, 34.8388331], [135.3932769, 34.839], [135.3932697, 34.8393758], [135.3932642, 34.8394169], [135.3932264, 34.8397039], [135.3930814, 34.8399247], [135.3929919, 34.8399947], [135.3929367, 34.8400381], [135.3928644, 34.8400975], [135.3926039, 34.8401931], [135.3924881, 34.8401931], [135.3924228, 34.8401333], [135.3923506, 34.8399247], [135.3923506, 34.8396961], [135.392365, 34.8395111], [135.3923794, 34.8393858], [135.3923578, 34.8390458], [135.3923528, 34.8388147], [135.3923506, 34.8387058], [135.3923583, 34.838675], [135.3924083, 34.8384733], [135.3924114, 34.8384681], [135.3925097, 34.8382883], [135.3925675, 34.8381033], [135.39264, 34.8379306], [135.3926906, 34.8377397], [135.3926544, 34.8375131], [135.3926328, 34.8372864], [135.3925675, 34.8371492], [135.3924406, 34.8370036], [135.392365, 34.8369167], [135.3921261, 34.8369583], [135.3917061, 34.8371133], [135.3916667, 34.8371315], [135.39146, 34.8372267], [135.3914306, 34.8372476], [135.3913008, 34.83734], [135.3912942, 34.8375108], [135.3912864, 34.8377156], [135.3912358, 34.8378231], [135.3911272, 34.8379186], [135.3910042, 34.83799], [135.3908303, 34.8381153], [135.3908014, 34.8381531], [135.3906883, 34.8382994], [135.3904903, 34.8385567], [135.3903311, 34.8386044], [135.3902333, 34.8385783], [135.3900417, 34.8385269], [135.3899856, 34.8385014], [135.3899114, 34.8384672], [135.3898825, 34.83836], [135.3900922, 34.8381572], [135.3902081, 34.8380258], [135.3902369, 34.8378708], [135.3902661, 34.8377336], [135.3903311, 34.8376142], [135.3904542, 34.8375367], [135.3906235, 34.8374492], [135.3907333, 34.8372339], [135.3907571, 34.8370864], [135.3905981, 34.8369483], [135.3904978, 34.8368508], [135.3904978, 34.8367733], [135.3905772, 34.8365689], [135.3906336, 34.8364256], [135.3906264, 34.8363719], [135.3904817, 34.8363003], [135.3903372, 34.8362169], [135.3899928, 34.8358972], [135.3896431, 34.8355725], [135.3896229, 34.8355526], [135.3895372, 34.8354636], [135.3894697, 34.8353553], [135.3893972, 34.8352325], [135.3893175, 34.8347794], [135.3893114, 34.8347531], [135.3892853, 34.8346436], [135.3892297, 34.8344094], [135.3891875, 34.8342306]]]]}, "properties": {"uri": "https://uedayou.net/loa/兵庫県川西市", "name": "兵庫県川西市", "prefecture": "兵庫県", "municipality": "川西市", "notation": "兵庫県川西市"}}