{"type": "Feature", "geometry": {"type": "MultiPolygon", "coordinates": [[[[135.2668459, 34.7802658], [135.2674178, 34.7794411], [135.2677981, 34.7789878], [135.2683331, 34.7780811], [135.2684272, 34.77795], [135.2684922, 34.7778128], [135.268515, 34.7777181], [135.2685356, 34.7776336], [135.26855, 34.7774189], [135.2685356, 34.7772817], [135.2685139, 34.7771031], [135.2685139, 34.77696], [135.2685283, 34.7768406], [135.2686212, 34.7767399], [135.2687128, 34.7766408], [135.2688283, 34.7765394], [135.2689731, 34.7764558], [135.2691106, 34.7763783], [135.2693131, 34.7762769], [135.2694358, 34.7761636], [135.2695444, 34.7760503], [135.2696239, 34.7759069], [135.2696961, 34.7756922], [135.2697033, 34.7755072], [135.2696817, 34.7752806], [135.26966, 34.7751136], [135.2696573, 34.775], [135.2696564, 34.7749614], [135.2696708, 34.7748661], [135.2697142, 34.7747889], [135.2697939, 34.7746933], [135.2699383, 34.7745561], [135.2701553, 34.774395], [135.2702422, 34.7742758], [135.2702639, 34.7741444], [135.2703433, 34.7735897], [135.2704303, 34.7733569], [135.2705422, 34.7731572], [135.2706508, 34.7729903], [135.2707231, 34.7728889], [135.2708894, 34.7726978], [135.2709633, 34.7725931], [135.2710194, 34.7725133], [135.2710992, 34.7723283], [135.2711842, 34.7720275], [135.2712797, 34.77169], [135.2713306, 34.7715111], [135.2714569, 34.7711203], [135.2715511, 34.7709711], [135.2717389, 34.7706789], [135.2719775, 34.7703569], [135.2721078, 34.7701839], [135.2724258, 34.7696353], [135.2725525, 34.7695547], [135.2726972, 34.7694592], [135.2728631, 34.7693817], [135.273015, 34.7692922], [135.2730944, 34.7692086], [135.2732753, 34.7690475], [135.2734417, 34.7688686], [135.2735575, 34.7687614], [135.2736153, 34.7686956], [135.2736369, 34.7686242], [135.2736369, 34.7685228], [135.2736008, 34.7683975], [135.2735792, 34.76829], [135.2735719, 34.7681531], [135.2736008, 34.7680158], [135.2736658, 34.7678189], [135.2738575, 34.7676014], [135.2739586, 34.7675236], [135.2740889, 34.7674164], [135.2742481, 34.7672731], [135.2743997, 34.7670764], [135.2745517, 34.7669631], [135.2747253, 34.7668317], [135.2749567, 34.7667064], [135.275, 34.7666914], [135.2750716, 34.7666667], [135.2756292, 34.7664739], [135.27581, 34.7664081], [135.2759183, 34.7663128], [135.2760775, 34.7660983], [135.2762147, 34.7659311], [135.2767028, 34.7653197], [135.2768544, 34.7651228], [135.2769125, 34.7650036], [135.2769414, 34.7648842], [135.2769467, 34.7648325], [135.2769558, 34.7647411], [135.2769919, 34.76461], [135.2770569, 34.7645025], [135.2772089, 34.7643653], [135.2774186, 34.7641683], [135.2775089, 34.7640642], [135.2775597, 34.7639331], [135.2775814, 34.76376], [135.2775669, 34.7635394], [135.2775669, 34.7632172], [135.2775814, 34.7629547], [135.2776392, 34.7626564], [135.2776969, 34.7624536], [135.2777547, 34.7623225], [135.2779078, 34.7621567], [135.2780333, 34.7620211], [135.2781417, 34.7619258], [135.2781903, 34.7618881], [135.2787853, 34.761425], [135.2790961, 34.7611717], [135.2799711, 34.7604586], [135.28017, 34.7601989], [135.2802786, 34.7600381], [135.2803797, 34.7598469], [135.2804447, 34.7597336], [135.2804811, 34.7596025], [135.2805317, 34.75934], [135.2805894, 34.7589942], [135.28064, 34.7586364], [135.2806557, 34.7583333], [135.2806653, 34.7581503], [135.2806872, 34.7577444], [135.2806953, 34.7575847], [135.2807161, 34.7571658], [135.2807233, 34.7568675], [135.2807053, 34.7560536], [135.2806764, 34.7557553], [135.2806328, 34.7554092], [135.2805606, 34.7550572], [135.2805208, 34.7548814], [135.2804919, 34.7546308], [135.2804847, 34.7544936], [135.2804847, 34.7543803], [135.2805136, 34.7542608], [135.2806436, 34.7539211], [135.2807931, 34.753645], [135.2808244, 34.7535872], [135.2810342, 34.7532433], [135.2807619, 34.7528183], [135.2805708, 34.75252], [135.2801547, 34.7519472], [135.2801386, 34.7518503], [135.2801867, 34.7516125], [135.2802453, 34.7514936], [135.2804536, 34.7513525], [135.2808431, 34.7510794], [135.2810619, 34.7509119], [135.2812167, 34.7508106], [135.2814942, 34.7506958], [135.281745, 34.7506122], [135.2819372, 34.7505858], [135.2821667, 34.7505769], [135.2823161, 34.7504975], [135.2824445, 34.7503944], [135.2825081, 34.7503433], [135.2825028, 34.7501628], [135.2825028, 34.7500833], [135.2825508, 34.7500306], [135.2826153, 34.75], [135.2826628, 34.7499775], [135.282935, 34.7499292], [135.2830525, 34.7498675], [135.2832339, 34.7497397], [135.2833333, 34.7496745], [135.2834419, 34.7496033], [135.2836178, 34.7494975], [135.2837578, 34.7494589], [135.2839539, 34.749405], [135.2842742, 34.7491669], [135.284445, 34.74907], [135.2846531, 34.74896], [135.2847544, 34.7488761], [135.2848772, 34.7487353], [135.2850053, 34.7486425], [135.2850133, 34.7486386], [135.2851494, 34.7485722], [135.2852828, 34.7485061], [135.2855389, 34.7485325], [135.2857203, 34.74855], [135.2858281, 34.7485333], [135.2859497, 34.7485147], [135.2861686, 34.7484311], [135.2868942, 34.7480081], [135.2871289, 34.7478714], [135.2871742, 34.7478183], [135.2872892, 34.7476822], [135.2873639, 34.7475192], [135.2873639, 34.7473428], [135.2873744, 34.7471578], [135.2873875, 34.7470981], [135.2874117, 34.7469858], [135.2875025, 34.7468097], [135.2878014, 34.7465056], [135.2881161, 34.7462764], [135.2882283, 34.7461311], [135.2883722, 34.7459503], [135.2884683, 34.7458533], [135.2885964, 34.7457392], [135.2887192, 34.7456464], [135.2888847, 34.7455494], [135.2890075, 34.7453908], [135.2891408, 34.7451706], [135.2892028, 34.7449906], [135.2892794, 34.7447678], [135.2893436, 34.744565], [135.2891836, 34.7445519], [135.2885806, 34.7446047], [135.2876306, 34.7446444], [135.2865208, 34.74464], [135.2859392, 34.7446181], [135.2855122, 34.7445431], [135.2848719, 34.7444461], [135.2845625, 34.7444019], [135.2843331, 34.7443889], [135.2844385, 34.7442764], [135.2844983, 34.7442125], [135.2849039, 34.7438381], [135.2851758, 34.7435481], [135.2852347, 34.7434853], [135.2856244, 34.7431417], [135.285735, 34.7430408], [135.2857792, 34.7430008], [135.2859606, 34.7428158], [135.2860992, 34.7426881], [135.2863075, 34.7425911], [135.2865422, 34.7424456], [135.2868197, 34.7422914], [135.2870386, 34.7421108], [135.2872839, 34.7419211], [135.2873975, 34.7418273], [135.2875922, 34.7416667], [135.2878497, 34.7414542], [135.2880842, 34.7411986], [135.2883189, 34.7409828], [135.2885378, 34.7408067], [135.2887992, 34.7407008], [135.2891408, 34.7406392], [135.2893061, 34.7406831], [135.2894397, 34.7407889], [135.2894397, 34.7409475], [135.2894717, 34.7410578], [135.2895836, 34.7410711], [135.2897919, 34.7410314], [135.2899839, 34.7409564], [135.2901547, 34.7409036], [135.2903147, 34.7408903], [135.2903894, 34.740855], [135.2904431, 34.7407228], [135.2904322, 34.7404275], [135.2905017, 34.7401411], [135.2905656, 34.7399253], [135.2906778, 34.7397006], [135.2907525, 34.7395331], [135.2907897, 34.7393169], [135.2907847, 34.739161], [135.2907844, 34.7391539], [135.2907364, 34.7389736], [135.2907044, 34.7387619], [135.2906883, 34.7386211], [135.2908006, 34.7384625], [135.2908294, 34.7384147], [135.2908644, 34.7383567], [135.2908792, 34.7383303], [135.2909881, 34.7381361], [135.2911686, 34.7378136], [135.2912, 34.7377608], [135.2914303, 34.7373731], [135.2916222, 34.7370603], [135.2916667, 34.7370468], [135.2918836, 34.7369808], [135.2921006, 34.7369133], [135.2922681, 34.7368611], [135.2923608, 34.7368319], [135.2926733, 34.7367344], [135.2925506, 34.7363906], [135.2925025, 34.7362231], [135.2922944, 34.73595], [135.2921397, 34.7357914], [135.2922944, 34.7356547], [135.2924356, 34.7354869], [135.2924714, 34.7354442], [135.2925542, 34.7353458], [135.2925906, 34.7353028], [135.2926358, 34.7352489], [135.2928653, 34.7349761], [135.2928922, 34.7349364], [135.2926358, 34.7347247], [135.2924706, 34.7345267], [135.2924331, 34.7343858], [135.2924419, 34.7343172], [135.2924656, 34.7341344], [135.2925453, 34.7338744], [135.2926039, 34.7336806], [135.2926203, 34.7333897], [135.2926569, 34.7333833], [135.2927361, 34.73337], [135.2927747, 34.7333633], [135.2928056, 34.7333583], [135.2929562, 34.7333333], [135.2929881, 34.7333281], [135.2932283, 34.7333236], [135.2932644, 34.7333333], [135.2934739, 34.7333897], [135.2935, 34.7333333], [135.2936444, 34.7330217], [135.2936658, 34.7329756], [135.2937386, 34.7328444], [135.2941192, 34.7321603], [135.2944092, 34.7316386], [135.2944717, 34.7315261], [135.2946019, 34.7311472], [135.2946486, 34.7310117], [135.2946628, 34.73097], [135.2946853, 34.7309047], [135.2949872, 34.7309806], [135.2951425, 34.7310194], [135.2952042, 34.731035], [135.2959964, 34.7312336], [135.2961419, 34.7312703], [135.2964708, 34.7304328], [135.2965314, 34.7302789], [135.2961742, 34.7302347], [135.2960247, 34.7301511], [135.2955844, 34.7300842], [135.2953894, 34.7300544], [135.2955139, 34.7297814], [135.2955603, 34.7296797], [135.2956725, 34.7294947], [135.2957175, 34.7293347], [135.2957739, 34.7291333], [135.2959544, 34.7287711], [135.2960728, 34.7285339], [135.2961261, 34.7283797], [135.2959869, 34.7283314], [135.2958592, 34.7282872], [135.2959553, 34.7280756], [135.2958272, 34.7280272], [135.2961042, 34.7274428], [135.2962008, 34.7272386], [135.2964556, 34.7273078], [135.2965239, 34.7273264], [135.2973236, 34.7275439], [135.2974775, 34.7275856], [135.2975517, 34.7276058], [135.2978067, 34.727675], [135.2982336, 34.7278733], [135.2983939, 34.7279394], [135.2984953, 34.727785], [135.2985486, 34.7277411], [135.29865, 34.7277586], [135.2987994, 34.7278203], [135.2989594, 34.7278864], [135.2990447, 34.7279042], [135.2990556, 34.7280142], [135.2990022, 34.7281594], [135.2993008, 34.7283136], [135.2995997, 34.7284414], [135.2997172, 34.7281903], [135.2998453, 34.72801], [135.2999467, 34.7278247], [135.3, 34.7277642], [135.3000747, 34.7276794], [135.3003269, 34.7271117], [135.3003639, 34.7270283], [135.3004056, 34.7269347], [135.3007206, 34.7264322], [135.3007375, 34.7263994], [135.3010678, 34.7257658], [135.3010844, 34.7257344], [135.3011364, 34.7256347], [135.3013936, 34.7250292], [135.3014061, 34.725], [135.3014678, 34.7248553], [135.3014736, 34.7248414], [135.3016308, 34.7244714], [135.3016744, 34.7243686], [135.3018247, 34.724015], [135.3019742, 34.7235697], [135.3020133, 34.7234686], [135.3022017, 34.7229844], [135.3022244, 34.7229256], [135.3024172, 34.7224286], [135.3024594, 34.7222758], [135.3024722, 34.7222306], [135.3025186, 34.7220631], [135.3027161, 34.7213975], [135.3028939, 34.7208294], [135.3029072, 34.7207861], [135.3029614, 34.7206133], [135.3030814, 34.7202869], [135.3031969, 34.7199722], [135.3033939, 34.7194367], [135.3033883, 34.7192869], [135.3034258, 34.7191653], [135.3034568, 34.7190951], [135.3035204, 34.7190834], [135.3035478, 34.7190696], [135.3035501, 34.7189734], [135.3035587, 34.7189609], [135.3035792, 34.7189448], [135.3035997, 34.7189355], [135.3037041, 34.7189152], [135.3040809, 34.7188434], [135.3042286, 34.7187357], [135.3042931, 34.7187027], [135.3043678, 34.7186723], [135.3044251, 34.7186596], [135.3044763, 34.7186528], [135.3045501, 34.7186495], [135.3046094, 34.7186528], [135.304632, 34.7186545], [135.3046606, 34.7186562], [135.304674, 34.7186696], [135.3046959, 34.7186753], [135.3047286, 34.7186819], [135.3048847, 34.7186834], [135.3049173, 34.7186837], [135.3050851, 34.7186853], [135.305094, 34.7186688], [135.3051057, 34.7186491], [135.3051281, 34.718629], [135.3051555, 34.7186101], [135.3051914, 34.7185871], [135.3052205, 34.7185712], [135.3052446, 34.7185604], [135.305264, 34.7185531], [135.3052957, 34.7185431], [135.3053285, 34.718538], [135.3053646, 34.7185338], [135.3053958, 34.7185251], [135.3054237, 34.7185151], [135.3054592, 34.7185002], [135.3054855, 34.7184893], [135.3054957, 34.7184826], [135.3054984, 34.7184372], [135.3055092, 34.7183158], [135.3055395, 34.7179157], [135.3055823, 34.717401], [135.3056174, 34.716998], [135.3056512, 34.7166667], [135.3056657, 34.7165239], [135.3057054, 34.7161588], [135.3057531, 34.7157672], [135.3057602, 34.7156618], [135.3057733, 34.7154884], [135.3058005, 34.7152666], [135.3058496, 34.7148449], [135.3058418, 34.7148212], [135.3058263, 34.7147817], [135.305817, 34.7147461], [135.3058146, 34.7147323], [135.3058137, 34.7147188], [135.3057959, 34.7147184], [135.3057962, 34.7147009], [135.3058147, 34.7147009], [135.3058154, 34.7146791], [135.3058222, 34.7146507], [135.3058301, 34.714626], [135.3058455, 34.7145991], [135.3058665, 34.7145714], [135.3058898, 34.7145508], [135.3059132, 34.714534], [135.3059465, 34.714516], [135.3059857, 34.7145001], [135.3060226, 34.7144867], [135.306054, 34.7144817], [135.3060904, 34.7144777], [135.3061206, 34.7144783], [135.3061548, 34.7144828], [135.3061846, 34.7144887], [135.3062183, 34.7144981], [135.3062477, 34.714511], [135.3062689, 34.7145222], [135.3062864, 34.7145361], [135.3062978, 34.7145492], [135.3065591, 34.714603], [135.3069312, 34.7146759], [135.3071721, 34.7147218], [135.3072509, 34.7147368], [135.307853, 34.7148565], [135.3083333, 34.7149514], [135.3084437, 34.7149732], [135.3085426, 34.7149927], [135.3087088, 34.7150273], [135.3088764, 34.7150615], [135.3096441, 34.7152173], [135.3101557, 34.7153171], [135.3107739, 34.7154358], [135.3114977, 34.7155797], [135.3115492, 34.71559], [135.31186, 34.7156526], [135.3124398, 34.7157657], [135.3130061, 34.7158777], [135.3132045, 34.7159193], [135.3138984, 34.7160571], [135.3139471, 34.7160856], [135.3139965, 34.7160939], [135.3140213, 34.716094], [135.3140856, 34.7160943], [135.3155719, 34.7163895], [135.3156924, 34.7164129], [135.3159264, 34.7164603], [135.3160891, 34.7164933], [135.3163494, 34.7165586], [135.3166173, 34.7166258], [135.3166337, 34.7166226], [135.3166548, 34.7166224], [135.3166667, 34.7166237], [135.3166706, 34.7166242], [135.3166988, 34.7166277], [135.3167271, 34.7166324], [135.3167666, 34.7166392], [135.3168547, 34.7166568], [135.316915, 34.7166271], [135.3169225, 34.7166233], [135.3169307, 34.7166214], [135.3169401, 34.7166223], [135.3171528, 34.7166667], [135.3175813, 34.7167561], [135.3178113, 34.7168013], [135.3177933, 34.716861], [135.3178045, 34.7168631], [135.3178239, 34.7168026], [135.3179553, 34.7168287], [135.3183328, 34.7169034], [135.3184555, 34.7169277], [135.3189099, 34.7170196], [135.319179, 34.7170721], [135.3192416, 34.7170846], [135.3195035, 34.7171367], [135.3194858, 34.7171972], [135.3195001, 34.7172001], [135.3195079, 34.717174], [135.3195026, 34.7171731], [135.3195123, 34.7171396], [135.3201469, 34.7172626], [135.3201436, 34.717274], [135.320128, 34.7173254], [135.3201398, 34.7173277], [135.3201565, 34.7172739], [135.3201589, 34.7172649], [135.3202132, 34.7172734], [135.3203032, 34.7172904], [135.3206182, 34.7173501], [135.3206101, 34.717385], [135.3207065, 34.7174032], [135.3209497, 34.717453], [135.3219588, 34.7176533], [135.3222615, 34.7177121], [135.3222534, 34.717743], [135.3222671, 34.7177457], [135.3222758, 34.7177151], [135.3228476, 34.7178239], [135.3229742, 34.7178502], [135.3230957, 34.7178744], [135.3232259, 34.7179014], [135.3234166, 34.7179402], [135.3235664, 34.7179709], [135.3235873, 34.7179673], [135.3236083, 34.7179617], [135.3236339, 34.7179581], [135.3236612, 34.7179556], [135.3236858, 34.7179541], [135.3237084, 34.7179565], [135.3237325, 34.7179597], [135.3237551, 34.7179633], [135.3237762, 34.7179677], [135.3237952, 34.7179735], [135.3238127, 34.7179801], [135.3238297, 34.717988], [135.3238464, 34.7179982], [135.3238665, 34.7180111], [135.323882, 34.7180211], [135.3238986, 34.7180333], [135.3239147, 34.7180483], [135.3239297, 34.7180642], [135.3239407, 34.7180785], [135.3239498, 34.7180985], [135.3239557, 34.718117], [135.32396, 34.7181376], [135.3239622, 34.7181553], [135.3239656, 34.7181751], [135.3239663, 34.7181924], [135.3239646, 34.718214], [135.3239635, 34.7182323], [135.32396, 34.718251], [135.3239536, 34.7182759], [135.3239507, 34.7182873], [135.3239457, 34.7182949], [135.3239401, 34.7183047], [135.3239331, 34.7183141], [135.3239265, 34.7183204], [135.3239105, 34.7183368], [135.3239054, 34.7183415], [135.3239019, 34.7183466], [135.3238984, 34.7183555], [135.3238975, 34.7183639], [135.323896, 34.7183733], [135.3238973, 34.7184629], [135.3239012, 34.718662], [135.3239063, 34.7189498], [135.3239046, 34.7194862], [135.3239053, 34.7195627], [135.3239022, 34.719758], [135.3239015, 34.7200104], [135.3239001, 34.7201793], [135.3239012, 34.7204002], [135.3239043, 34.7207077], [135.3239004, 34.7209152], [135.3239004, 34.7211593], [135.3239012, 34.7214098], [135.3239018, 34.7216802], [135.3238998, 34.721982], [135.3238998, 34.7222671], [135.3239009, 34.7223243], [135.3238462, 34.7223251], [135.3238467, 34.7223479], [135.323847, 34.7224468], [135.3238476, 34.7225223], [135.3238487, 34.7226527], [135.3238471, 34.7238007], [135.323878, 34.7238004], [135.3238682, 34.7242623], [135.3236709, 34.72426], [135.3236655, 34.7245279], [135.3238621, 34.7245314], [135.323858, 34.7247267], [135.3234954, 34.7249748], [135.3234585, 34.725], [135.3229256, 34.7253646], [135.3228355, 34.7254253], [135.3225926, 34.725591], [135.3223625, 34.725749], [135.3223534, 34.7257989], [135.3223629, 34.7258073], [135.3224908, 34.7258111], [135.3228242, 34.7258109], [135.3230354, 34.7258152], [135.3231941, 34.7258215], [135.3234245, 34.7258242], [135.3236064, 34.7258322], [135.3237436, 34.7258306], [135.3238479, 34.7258351], [135.3239427, 34.7258418], [135.3240611, 34.7258512], [135.32417, 34.725864], [135.3242032, 34.7258601], [135.3241887, 34.7257252], [135.3241783, 34.7256756], [135.3241769, 34.7256417], [135.3241764, 34.7256231], [135.3241792, 34.7256049], [135.3241847, 34.7255849], [135.3241928, 34.7255736], [135.3242017, 34.7255686], [135.3242171, 34.7255659], [135.3242315, 34.7255681], [135.3242516, 34.7255773], [135.324264, 34.7255886], [135.3242645, 34.7255966], [135.3242677, 34.7256272], [135.3242704, 34.7256579], [135.324276, 34.7257114], [135.3242824, 34.7257749], [135.3242886, 34.7258394], [135.3242902, 34.7258443], [135.3243445, 34.7258439], [135.3243461, 34.7259214], [135.3243694, 34.7262767], [135.3243719, 34.7263131], [135.3243744, 34.7263519], [135.3243828, 34.7264775], [135.3244056, 34.7265708], [135.3246453, 34.7267883], [135.3246678, 34.7268556], [135.3246317, 34.7270047], [135.3245647, 34.7273889], [135.3245411, 34.7275236], [135.3245258, 34.7275908], [135.3244953, 34.7277264], [135.3244733, 34.7278225], [135.3244189, 34.7279683], [135.3243422, 34.7280878], [135.3242653, 34.7282483], [135.32413, 34.7286506], [135.3240708, 34.7288272], [135.3240108, 34.7290294], [135.3239847, 34.7291178], [135.3239711, 34.7291633], [135.3239306, 34.7294997], [135.3239214, 34.7296525], [135.32391, 34.7297417], [135.3238944, 34.7298653], [135.3238961, 34.7299567], [135.3238989, 34.7301267], [135.3239169, 34.7303808], [135.3239214, 34.73059], [135.3238672, 34.7306833], [135.3237903, 34.7307244], [135.3237161, 34.7307411], [135.3236411, 34.7307581], [135.3235842, 34.7307669], [135.323395, 34.7307961], [135.3231825, 34.7308036], [135.3229428, 34.7308336], [135.3228025, 34.7308597], [135.3227639, 34.7309081], [135.3226986, 34.7309903], [135.3225944, 34.7312181], [135.3227889, 34.7312892], [135.3228839, 34.7313303], [135.3228794, 34.7313714], [135.3228417, 34.7314431], [135.3227933, 34.7315356], [135.3226125, 34.7317933], [135.3225583, 34.7319425], [135.3225853, 34.7320097], [135.3226803, 34.7320433], [135.3228522, 34.7320844], [135.3228658, 34.7321217], [135.3228225, 34.7321828], [135.3228147, 34.7321936], [135.3227717, 34.7322542], [135.3227589, 34.7322719], [135.3227286, 34.732315], [135.3226564, 34.7324169], [135.32265, 34.7324256], [135.3225386, 34.7325825], [135.3224453, 34.7327142], [135.3223275, 34.7328411], [135.3220806, 34.7330306], [135.3218211, 34.7332297], [135.3217942, 34.7333233], [135.3217912, 34.7333333], [135.3217758, 34.7333864], [135.3217531, 34.7335508], [135.3217306, 34.7337264], [135.3217203, 34.7337783], [135.3217119, 34.7338197], [135.3217003, 34.7338783], [135.3216811, 34.7339753], [135.3216808, 34.7339767], [135.3216039, 34.7341297], [135.3214953, 34.7342267], [135.3213867, 34.7342342], [135.3211836, 34.7342192], [135.3210606, 34.7341767], [135.3210208, 34.7341631], [135.3208625, 34.7341631], [135.3208622, 34.7341647], [135.3208489, 34.7342639], [135.3208669, 34.7344544], [135.3208356, 34.7345983], [135.32079, 34.7348056], [135.3209303, 34.7348878], [135.3209347, 34.7349289], [135.3208369, 34.7351669], [135.3207786, 34.7353083], [135.3207164, 34.73546], [135.3206181, 34.7356989], [135.3205731, 34.7358522], [135.3206544, 34.7359678], [135.3207583, 34.7361097], [135.3207942, 34.7362033], [135.3207569, 34.7363014], [135.3207358, 34.7363564], [135.3206228, 34.7365914], [135.3205414, 34.7366475], [135.3204464, 34.7366661], [135.3202203, 34.7366997], [135.3199939, 34.7367222], [135.3197664, 34.7367994], [135.3197408, 34.7368081], [135.3195561, 34.736895], [135.3193517, 34.7369911], [135.3191889, 34.7370806], [135.3190667, 34.7371628], [135.3190306, 34.73723], [135.3190758, 34.7372675], [135.3191797, 34.737275], [135.3193064, 34.7372561], [135.319415, 34.73726], [135.3195192, 34.7372897], [135.3195733, 34.7374094], [135.3195669, 34.7375283], [135.3195642, 34.7375811], [135.3195328, 34.7378278], [135.3193969, 34.7380781], [135.31932, 34.7381378], [135.3191889, 34.7381303], [135.3191256, 34.7381264], [135.3190803, 34.7382125], [135.3190186, 34.7382794], [135.3189672, 34.7383356], [135.3188814, 34.7383656], [135.3187231, 34.7383581], [135.3185556, 34.7383356], [135.3185281, 34.7383433], [135.3185247, 34.7383442], [135.3184472, 34.7383656], [135.3184331, 34.7383842], [135.3183792, 34.7384553], [135.3183083, 34.7385203], [135.3182547, 34.7385697], [135.3181486, 34.7386678], [135.3180914, 34.7387772], [135.3179767, 34.7389964], [135.3178908, 34.7391086], [135.3178681, 34.7392581], [135.3177822, 34.7393364], [135.3176058, 34.7393775], [135.3175508, 34.7394119], [135.3174386, 34.7394819], [135.3173129, 34.7397014], [135.3172435, 34.7398956], [135.3175544, 34.7399475], [135.3175501, 34.7401504], [135.317552, 34.7403494], [135.3175406, 34.7405544], [135.3173899, 34.7405964], [135.3167902, 34.7405757], [135.3166667, 34.7407183], [135.3164895, 34.7409228], [135.3163371, 34.7409291], [135.3163159, 34.7410278], [135.3165589, 34.7411313], [135.3165236, 34.7413838], [135.3166667, 34.7414104], [135.3167973, 34.7414347], [135.3167644, 34.7415786], [135.3167509, 34.7416667], [135.3167283, 34.7418139], [135.3166667, 34.7422845], [135.3166153, 34.7426767], [135.3165519, 34.7434047], [135.3165383, 34.7434708], [135.3164389, 34.7439503], [135.3163531, 34.7447606], [135.3164661, 34.7447581], [135.3166667, 34.7447538], [135.3169211, 34.7447483], [135.3170331, 34.7447461], [135.3172214, 34.7447419], [135.3172983, 34.7450519], [135.3173389, 34.7452575], [135.3173397, 34.7452822], [135.3173436, 34.7453881], [135.3173797, 34.7457128], [135.3173797, 34.74609], [135.3173389, 34.7462442], [135.3173072, 34.7463628], [135.3170947, 34.7463606], [135.3169408, 34.7463589], [135.3168506, 34.7465756], [135.3166786, 34.7469117], [135.3166667, 34.7469266], [135.3166294, 34.7469733], [135.3165022, 34.7471322], [135.3163214, 34.7473414], [135.3160261, 34.7475925], [135.3158825, 34.7477144], [135.3158861, 34.7477572], [135.3158003, 34.7478767], [135.3156375, 34.7479925], [135.3154247, 34.7480483], [135.3153253, 34.7480858], [135.3152756, 34.7481867], [135.315185, 34.7483136], [135.3150222, 34.7484406], [135.3148775, 34.7484967], [135.3146875, 34.7484856], [135.3144119, 34.7484331], [135.3142628, 34.7484144], [135.3141814, 34.7484519], [135.3141542, 34.7485267], [135.3141858, 34.7486125], [135.314335, 34.7488103], [135.3145836, 34.7490756], [135.314665, 34.7492886], [135.314665, 34.7494828], [135.3146289, 34.7496247], [135.3143622, 34.7498597], [135.3142226, 34.75], [135.314195, 34.7500278], [135.3141225, 34.7502183], [135.3140183, 34.7503975], [135.3139369, 34.7507114], [135.3138058, 34.7509206], [135.3136703, 34.7510586], [135.3135267, 34.7511376], [135.3131677, 34.7514869], [135.3129616, 34.7518273], [135.3128427, 34.7520694], [135.3128031, 34.7522593], [135.3127793, 34.7523574], [135.3127396, 34.7525146], [135.3127159, 34.7526913], [135.3126366, 34.7529335], [135.3125653, 34.7530513], [135.312478, 34.7532738], [135.3123036, 34.7535357], [135.3121926, 34.7536731], [135.3119478, 34.7540028], [135.3118744, 34.7540686], [135.3118289, 34.7541092], [135.3116344, 34.7542831], [135.3116303, 34.7542869], [135.3115214, 34.7543844], [135.3114775, 34.7544317], [135.3114131, 34.7545006], [135.3113767, 34.7545394], [135.3109586, 34.7549706], [135.3109186, 34.7550119], [135.3108561, 34.7550764], [135.310545, 34.7553328], [135.3105381, 34.75534], [135.3100694, 34.7558214], [135.3099258, 34.7559694], [135.3098475, 34.7560497], [135.3098228, 34.7560753], [135.30975, 34.75615], [135.3091172, 34.7567136], [135.3086906, 34.7570953], [135.3084231, 34.7575189], [135.3083333, 34.7576011], [135.3082939, 34.7576372], [135.3082461, 34.7576808], [135.3079603, 34.7579425], [135.3075661, 34.7582911], [135.3075252, 34.7583333], [135.3071611, 34.7587089], [135.3068067, 34.7591264], [135.3064525, 34.7595856], [135.3062792, 34.7598242], [135.3059575, 34.7603936], [135.3058056, 34.7606442], [135.3057333, 34.7608589], [135.3057006, 34.7609761], [135.3056897, 34.7610142], [135.3056681, 34.7613006], [135.3056825, 34.7615867], [135.3056861, 34.7617092], [135.3056139, 34.7619836], [135.3055633, 34.7621089], [135.3055056, 34.7621744], [135.305245, 34.7624544], [135.3051367, 34.7625797], [135.3050136, 34.7627467], [135.3049125, 34.7628958], [135.3047172, 34.7632808], [135.3046883, 34.7633375], [135.3045328, 34.7634597], [135.3043014, 34.7635669], [135.3041278, 34.7636208], [135.3034842, 34.7638475], [135.3032167, 34.7639489], [135.3030069, 34.7640025], [135.3028044, 34.7640086], [135.3027036, 34.7640383], [135.3026242, 34.7640858], [135.3025878, 34.7641633], [135.3025625, 34.7643392], [135.3025842, 34.7645122], [135.3025553, 34.7646317], [135.3025422, 34.7646592], [135.3024903, 34.7647689], [135.3023964, 34.7648344], [135.3022806, 34.7648703], [135.3017456, 34.7649478], [135.3015719, 34.7650014], [135.3014344, 34.7650669], [135.3013694, 34.7651447], [135.3012536, 34.7653117], [135.3011236, 34.7654192], [135.301015, 34.7655086], [135.3008633, 34.7655861], [135.3007403, 34.76561], [135.3005594, 34.7656219], [135.3002992, 34.7656578], [135.3000894, 34.7657411], [135.3, 34.7657807], [135.2999014, 34.7658244], [135.2997425, 34.7659081], [135.2994711, 34.7661675], [135.2993267, 34.7663344], [135.2992183, 34.7665014], [135.2991333, 34.7666667], [135.2990956, 34.76674], [135.2990594, 34.766925], [135.2990594, 34.7670564], [135.2991244, 34.7671817], [135.2992036, 34.7673486], [135.2992253, 34.7674978], [135.2991964, 34.7676408], [135.2990989, 34.767805], [135.299005, 34.7678706], [135.2987808, 34.7680014], [135.2987658, 34.7680178], [135.2986725, 34.7681208], [135.2985494, 34.7683475], [135.2984772, 34.7684728], [135.2983833, 34.7686278], [135.2983614, 34.7687175], [135.2983833, 34.7687831], [135.2984844, 34.7689858], [135.2985711, 34.7691289], [135.2986581, 34.7693556], [135.2986183, 34.7695556], [135.2984881, 34.77014], [135.2984375, 34.7702294], [135.2983072, 34.7703069], [135.2981408, 34.7703844], [135.2979747, 34.7704381], [135.2978083, 34.7704619], [135.2976781, 34.77048], [135.2975986, 34.7705097], [135.2975408, 34.7705933], [135.2974322, 34.7707306], [135.2972514, 34.7708378], [135.2970272, 34.7708794], [135.2969086, 34.7709061], [135.2968286, 34.7709242], [135.2967633, 34.7709542], [135.2967633, 34.7710258], [135.2967922, 34.7711392], [135.2969442, 34.7714731], [135.2969947, 34.7716878], [135.2969947, 34.7718489], [135.2969875, 34.7720994], [135.2969947, 34.7723022], [135.2970164, 34.7725408], [135.2971106, 34.7729044], [135.2971322, 34.7730536], [135.2971214, 34.7731403], [135.2970347, 34.7732297], [135.2966875, 34.7733072], [135.2965211, 34.7732953], [135.2963767, 34.7731758], [135.2961958, 34.7730447], [135.2958992, 34.772985], [135.2958125, 34.7729969], [135.2956606, 34.7730567], [135.2955306, 34.7731342], [135.2954653, 34.7733369], [135.2953425, 34.7736769], [135.2953047, 34.7738777], [135.2952014, 34.7744258], [135.2951725, 34.7745867], [135.2950931, 34.7747119], [135.2949628, 34.7748672], [135.2949122, 34.7749806], [135.2949048, 34.775], [135.2948328, 34.7751892], [135.29477, 34.7753931], [135.2947014, 34.7754762], [135.2945864, 34.7755328], [135.2944268, 34.775571], [135.2942672, 34.7755882], [135.2941172, 34.7755829], [135.2939544, 34.7755592], [135.2938293, 34.7755592], [135.2935161, 34.7756253], [135.2930673, 34.77571], [135.2928421, 34.7757853], [135.2916667, 34.7762332], [135.29162, 34.776251], [135.2913275, 34.7763545], [135.2909622, 34.7764473], [135.2904292, 34.7766347], [135.2896531, 34.7769054], [135.2891737, 34.7770376], [135.2890031, 34.7770783], [135.2886515, 34.7770748], [135.2883885, 34.7771027], [135.2880278, 34.7771368], [135.2875657, 34.7771741], [135.2872613, 34.7771523], [135.2870922, 34.777143], [135.2869269, 34.7771492], [135.2868255, 34.7772237], [135.2867466, 34.7774036], [135.2866778, 34.7775176], [135.2865405, 34.7776863], [135.2864256, 34.7778102], [135.2862947, 34.7779762], [135.2860935, 34.7781572], [135.2860075, 34.7782477], [135.2858511, 34.7783953], [135.2857489, 34.7784822], [135.2856685, 34.7785452], [135.2854872, 34.7786298], [135.285302, 34.7787089], [135.2851259, 34.7788241], [135.2850308, 34.7788775], [135.2848647, 34.7789592], [135.2846318, 34.7790541], [135.2844371, 34.7791859], [135.2842711, 34.7793546], [135.2841912, 34.7795338], [135.2842072, 34.7796471], [135.2842838, 34.7798158], [135.2844785, 34.7800598], [135.2846231, 34.7803008], [135.2847169, 34.7804619], [135.2847314, 34.7805633], [135.2847061, 34.7806378], [135.2846556, 34.7806736], [135.2845397, 34.7807156], [135.2833333, 34.7807627], [135.2821828, 34.7808078], [135.2761503, 34.7810433], [135.2756922, 34.7810614], [135.275, 34.7810885], [135.2734692, 34.7811483], [135.2724472, 34.7811883], [135.2718969, 34.7812097], [135.2718247, 34.7811381], [135.2717594, 34.7810486], [135.2717017, 34.7809411], [135.271615, 34.7807861], [135.2714919, 34.7806369], [135.2713764, 34.7805653], [135.27121, 34.7805175], [135.2711236, 34.7805075], [135.2709486, 34.7804875], [135.2708483, 34.7804758], [135.2706897, 34.7804758], [135.2705378, 34.7804997], [135.2704436, 34.7805056], [135.2702267, 34.7804819], [135.2698075, 34.7803922], [135.2695614, 34.7803686], [135.2693592, 34.7803864], [135.2691325, 34.7805031], [135.2691278, 34.7805056], [135.2688744, 34.7807442], [135.2687192, 34.7808308], [135.2681219, 34.780923], [135.2678297, 34.7809681], [135.2675215, 34.7810012], [135.2674686, 34.7809911], [135.2668459, 34.7802658]]], [[[135.3060879, 34.7131357], [135.3060886, 34.71305], [135.306095, 34.7129624], [135.3061022, 34.7128449], [135.3061041, 34.7128176], [135.3061163, 34.7126977], [135.3061302, 34.7126104], [135.3061749, 34.7123671], [135.3062005, 34.7121306], [135.3062028, 34.71211], [135.3062168, 34.7119772], [135.3062239, 34.7118974], [135.3062409, 34.7117779], [135.306255, 34.7117224], [135.3062725, 34.7116413], [135.3062774, 34.7115915], [135.3062827, 34.7115379], [135.3063157, 34.711244], [135.306362, 34.7108172], [135.3064061, 34.7104416], [135.3064463, 34.7100532], [135.3064764, 34.7097726], [135.3064786, 34.7097521], [135.3064954, 34.7097536], [135.3064981, 34.7097273], [135.3064814, 34.7097262], [135.3064946, 34.7096025], [135.3065052, 34.7094983], [135.3065212, 34.7094996], [135.3065228, 34.7094758], [135.3065075, 34.7094751], [135.3065282, 34.7092703], [135.3065602, 34.7089656], [135.3065708, 34.7088847], [135.3065944, 34.7087049], [135.3066215, 34.7084479], [135.3066297, 34.7083744], [135.3066343, 34.7083333], [135.3066429, 34.7082563], [135.3066464, 34.7082243], [135.3066549, 34.7082115], [135.3066639, 34.7081307], [135.3067026, 34.7078225], [135.3067231, 34.7076491], [135.3067243, 34.7076443], [135.3067308, 34.7076234], [135.3067354, 34.7076037], [135.3067522, 34.707506], [135.306807, 34.7070918], [135.3068741, 34.7065631], [135.3069241, 34.7062622], [135.3069382, 34.7061774], [135.3069416, 34.7061572], [135.3070716, 34.7061445], [135.3073747, 34.7061147], [135.3077508, 34.7060813], [135.3079431, 34.7060606], [135.3080301, 34.7060538], [135.3080454, 34.706055], [135.3080544, 34.7060613], [135.3080608, 34.7060778], [135.3080633, 34.7060974], [135.3080646, 34.7061128], [135.3080574, 34.7061253], [135.3080387, 34.7061328], [135.3080157, 34.7061367], [135.307795, 34.7061537], [135.3075999, 34.7061721], [135.3075591, 34.7061759], [135.3072608, 34.7061973], [135.3070724, 34.7062136], [135.3070285, 34.7062174], [135.3070236, 34.706221], [135.3070215, 34.706229], [135.3070179, 34.7062536], [135.3070502, 34.7062339], [135.3070656, 34.7062274], [135.3070726, 34.706226], [135.3070936, 34.7062218], [135.3072601, 34.7062097], [135.3073987, 34.7061982], [135.3074446, 34.7061974], [135.307473, 34.7061957], [135.307496, 34.7061955], [135.3075099, 34.7062074], [135.3075091, 34.7062268], [135.3074865, 34.7062522], [135.3074625, 34.7062679], [135.3074344, 34.7062885], [135.307409, 34.7063089], [135.3073751, 34.7063322], [135.307341, 34.706351], [135.307291, 34.7063862], [135.3072659, 34.706416], [135.3072484, 34.7064528], [135.3072167, 34.7064941], [135.3071903, 34.7065314], [135.3071714, 34.7065551], [135.3071663, 34.7065638], [135.3071831, 34.7066186], [135.3072303, 34.7066939], [135.3072725, 34.7067762], [135.3073245, 34.7068437], [135.3073765, 34.7069149], [135.3073897, 34.7069407], [135.3074004, 34.7069706], [135.3074128, 34.7070119], [135.3074265, 34.7070537], [135.3074438, 34.7070866], [135.3074714, 34.7071249], [135.3074987, 34.7071614], [135.3075263, 34.7071924], [135.3075637, 34.7072294], [135.3076017, 34.707267], [135.3076449, 34.7072994], [135.3076941, 34.7073377], [135.3077507, 34.7073792], [135.3078056, 34.7074164], [135.3078616, 34.7074543], [135.3079039, 34.7074797], [135.3079535, 34.7075023], [135.3080069, 34.707519], [135.3080547, 34.7075353], [135.3080991, 34.7075537], [135.3081509, 34.7075763], [135.3082049, 34.7076017], [135.3082682, 34.7076255], [135.3083266, 34.7076425], [135.3083333, 34.7076447], [135.3083811, 34.7076605], [135.308437, 34.7076729], [135.3084891, 34.7076813], [135.3085251, 34.7076825], [135.3085747, 34.7076823], [135.3086192, 34.7076822], [135.3086745, 34.7076821], [135.3087322, 34.7076825], [135.3087864, 34.7076867], [135.3088396, 34.7076941], [135.3088958, 34.7077015], [135.3089523, 34.7077106], [135.3090143, 34.7077201], [135.3090692, 34.7077254], [135.3091239, 34.7077327], [135.30918, 34.707735], [135.3092367, 34.7077309], [135.3092952, 34.7077243], [135.3093663, 34.7077166], [135.3094214, 34.7077073], [135.309492, 34.7076991], [135.3095548, 34.7076881], [135.3096319, 34.7076754], [135.3096986, 34.7076696], [135.3097547, 34.7076642], [135.3098071, 34.7076578], [135.3098611, 34.7076516], [135.3099043, 34.7076471], [135.3099611, 34.7076381], [135.3100137, 34.707631], [135.3100646, 34.7076217], [135.3101214, 34.7076112], [135.3101837, 34.7075959], [135.3102219, 34.7075876], [135.3102589, 34.7075777], [135.3104151, 34.7075347], [135.3105096, 34.707504], [135.3106204, 34.7074637], [135.3107374, 34.7074187], [135.3108726, 34.7073655], [135.3109486, 34.7073203], [135.3110155, 34.7072735], [135.3110807, 34.7072103], [135.3111319, 34.7071575], [135.3111752, 34.707102], [135.3112132, 34.7070424], [135.3112563, 34.706976], [135.3112559, 34.7069721], [135.3112535, 34.7069666], [135.3112524, 34.7069655], [135.3112483, 34.7069551], [135.3112487, 34.7069465], [135.3112596, 34.7069256], [135.3112644, 34.7069176], [135.3112683, 34.7069136], [135.3112734, 34.706907], [135.3112789, 34.7069025], [135.3112869, 34.7068991], [135.3113049, 34.7068992], [135.3113196, 34.7069017], [135.3113261, 34.7068803], [135.3113275, 34.7068732], [135.3113254, 34.7068579], [135.3113252, 34.7068469], [135.3113388, 34.7068282], [135.3113428, 34.7068241], [135.3113467, 34.7068178], [135.3113482, 34.7068123], [135.3113492, 34.706801], [135.3113495, 34.706792], [135.3113494, 34.7067825], [135.3113443, 34.7067711], [135.3113419, 34.7067681], [135.3113394, 34.7067637], [135.311338, 34.706758], [135.3113629, 34.7067186], [135.3113661, 34.7067047], [135.3113728, 34.7066945], [135.3113842, 34.7066882], [135.3113973, 34.7066834], [135.3114092, 34.7066809], [135.3114227, 34.7066785], [135.3114403, 34.7066744], [135.3114442, 34.7066729], [135.3114528, 34.7066697], [135.3114663, 34.7066621], [135.3114812, 34.7066512], [135.3114962, 34.7066388], [135.311513, 34.7066213], [135.3115224, 34.7066067], [135.3115351, 34.7065841], [135.3115398, 34.7065659], [135.3115412, 34.7065473], [135.3115418, 34.7065307], [135.3115408, 34.7065146], [135.311538, 34.7065013], [135.3115306, 34.7064896], [135.3115244, 34.7064803], [135.3115185, 34.7064706], [135.3115117, 34.706458], [135.3115053, 34.7064473], [135.3115012, 34.70644], [135.3114992, 34.7064309], [135.3114972, 34.7064232], [135.3114947, 34.7064113], [135.3114925, 34.7064001], [135.3114891, 34.7063908], [135.3114826, 34.7063797], [135.3114785, 34.7063678], [135.3114784, 34.7063561], [135.3114834, 34.7063497], [135.3114888, 34.7063477], [135.3115022, 34.7063464], [135.311511, 34.7063418], [135.311514, 34.7063336], [135.3115092, 34.7063286], [135.3114998, 34.7063263], [135.3114882, 34.7063209], [135.3114814, 34.7063137], [135.3114762, 34.706306], [135.3114729, 34.7063006], [135.3114709, 34.7062924], [135.3114717, 34.7062839], [135.3114763, 34.706277], [135.3114809, 34.7062724], [135.311494, 34.7062652], [135.311506, 34.7062601], [135.3115093, 34.7062535], [135.3115073, 34.7062468], [135.3115028, 34.7062398], [135.3114927, 34.7062357], [135.3114798, 34.7062376], [135.3114655, 34.706235], [135.3114519, 34.7062301], [135.3114389, 34.7062237], [135.3114324, 34.7062205], [135.3114105, 34.7062136], [135.3113868, 34.7062055], [135.3113522, 34.7061922], [135.3113311, 34.7061899], [135.3113186, 34.7061882], [135.3113093, 34.7061842], [135.3113018, 34.7061748], [135.3113003, 34.7061633], [135.3113041, 34.7061424], [135.3113046, 34.7061409], [135.3113081, 34.7061376], [135.3113158, 34.7061349], [135.3113261, 34.7061338], [135.3113428, 34.7061324], [135.3113662, 34.7061309], [135.3113923, 34.7061299], [135.3114092, 34.7061297], [135.311427, 34.7061292], [135.3114378, 34.7061286], [135.3114433, 34.7061283], [135.3114607, 34.7061263], [135.3114756, 34.7061231], [135.3114995, 34.7061177], [135.311518, 34.7061129], [135.3115391, 34.7061069], [135.3115601, 34.7061004], [135.3115773, 34.7060902], [135.3116116, 34.7060781], [135.31163, 34.7060754], [135.3116505, 34.7060729], [135.3116684, 34.7060706], [135.3117015, 34.7060648], [135.3117254, 34.706063], [135.3117448, 34.7060604], [135.311768, 34.7060539], [135.3117865, 34.7060471], [135.3118119, 34.7060357], [135.3118177, 34.7059903], [135.3118016, 34.7059808], [135.311774, 34.7059734], [135.311757, 34.7059711], [135.3116673, 34.7059785], [135.3115557, 34.7059964], [135.3115344, 34.7059976], [135.3115237, 34.7060015], [135.3115021, 34.7059937], [135.3114864, 34.7059843], [135.3114757, 34.7059735], [135.311436, 34.7059778], [135.3114097, 34.7059806], [135.3113703, 34.7059214], [135.3113866, 34.7058791], [135.3114018, 34.7058587], [135.3113972, 34.7058368], [135.3111547, 34.7058558], [135.3111429, 34.7058567], [135.3108219, 34.705885], [135.3108043, 34.7058866], [135.3107192, 34.7058939], [135.3107125, 34.705889], [135.3107023, 34.7057935], [135.3107118, 34.7057846], [135.3110772, 34.7057521], [135.311433, 34.705721], [135.3114479, 34.7057197], [135.3118286, 34.7056859], [135.311833, 34.7056398], [135.3127476, 34.7055616], [135.313082, 34.7055335], [135.3137537, 34.7054735], [135.3155978, 34.7053132], [135.3157944, 34.7052963], [135.3166667, 34.7052211], [135.3167218, 34.7052163], [135.3174438, 34.7051539], [135.3194622, 34.7049814], [135.3201562, 34.7049203], [135.3209513, 34.7048502], [135.3218138, 34.7054613], [135.3220914, 34.705657], [135.3220914, 34.7060554], [135.3220915, 34.7064404], [135.3220903, 34.7073451], [135.3220919, 34.7078599], [135.3220907, 34.7078708], [135.3220892, 34.7078814], [135.3220863, 34.7078906], [135.322083, 34.7079012], [135.3220775, 34.7079119], [135.3220708, 34.7079226], [135.3220626, 34.7079341], [135.3220561, 34.7079417], [135.3220474, 34.7079496], [135.3220378, 34.7079581], [135.3220241, 34.7079674], [135.3220122, 34.7079738], [135.3220023, 34.7079781], [135.3219924, 34.7079819], [135.3219795, 34.7079861], [135.3219656, 34.7079895], [135.3219498, 34.7079914], [135.3219307, 34.7079924], [135.3218439, 34.7079943], [135.3217399, 34.7079959], [135.3216264, 34.7080015], [135.3213516, 34.7080252], [135.3212324, 34.7080404], [135.3211284, 34.7080571], [135.320972, 34.7080879], [135.3208735, 34.7081108], [135.3207474, 34.7081431], [135.3206292, 34.7081773], [135.3205419, 34.708205], [135.3204563, 34.7082343], [135.3202599, 34.7083101], [135.3202064, 34.7083333], [135.3201968, 34.7083375], [135.3201653, 34.7083512], [135.3193254, 34.7087215], [135.3191849, 34.7087833], [135.318548, 34.7090638], [135.3185352, 34.7090683], [135.318525, 34.7090712], [135.3185149, 34.7090738], [135.3185016, 34.7090765], [135.3184907, 34.7090776], [135.318477, 34.7090784], [135.3184653, 34.7090783], [135.3184533, 34.7090773], [135.3184381, 34.7090751], [135.3184255, 34.7090721], [135.3184139, 34.7090687], [135.3184018, 34.7090641], [135.3183893, 34.7090586], [135.3183772, 34.7090516], [135.3183622, 34.7090404], [135.3183477, 34.7090277], [135.3183378, 34.7090155], [135.3181928, 34.7087914], [135.3180336, 34.7085451], [135.3178971, 34.7083333], [135.3178625, 34.7082797], [135.3176833, 34.7080021], [135.3175667, 34.7078199], [135.3175616, 34.7078136], [135.3175567, 34.7078072], [135.3175513, 34.7078008], [135.3175428, 34.7077923], [135.3175319, 34.7077829], [135.3175199, 34.7077736], [135.3175061, 34.707765], [135.317489, 34.7077561], [135.3174746, 34.7077494], [135.3174635, 34.7077452], [135.3174446, 34.707739], [135.3174279, 34.7077352], [135.3174154, 34.7077331], [135.3174027, 34.7077315], [135.3173866, 34.7077303], [135.3173723, 34.70773], [135.3173561, 34.7077308], [135.3173438, 34.7077323], [135.3173306, 34.7077346], [135.3173185, 34.7077369], [135.3173043, 34.7077407], [135.3172907, 34.7077453], [135.3172729, 34.7077523], [135.3166667, 34.7080184], [135.3164624, 34.7081081], [135.3159489, 34.7083333], [135.3158521, 34.7083758], [135.3158682, 34.7084004], [135.3160277, 34.7086421], [135.3166667, 34.7083622], [135.3167325, 34.7083333], [135.3172665, 34.7080994], [135.3174161, 34.7083333], [135.3174827, 34.7084376], [135.3175798, 34.7085896], [135.317485, 34.7086309], [135.3170989, 34.7088002], [135.3166667, 34.7089897], [135.3163438, 34.7091312], [135.3163834, 34.7091911], [135.3165195, 34.7093966], [135.3165472, 34.7093845], [135.3166577, 34.709336], [135.3166667, 34.7093321], [135.3169993, 34.7091861], [135.3174891, 34.7089709], [135.3177453, 34.7088585], [135.3179424, 34.7091507], [135.3179473, 34.7091609], [135.3179533, 34.7091784], [135.3179565, 34.7091962], [135.3179566, 34.7092088], [135.3179559, 34.7092247], [135.3179539, 34.7092347], [135.3179512, 34.7092439], [135.3179476, 34.7092517], [135.3179424, 34.7092622], [135.3179357, 34.7092721], [135.3179291, 34.7092813], [135.3179229, 34.7092891], [135.3179175, 34.7092945], [135.3179109, 34.7093004], [135.3179032, 34.7093066], [135.3178943, 34.7093131], [135.3178856, 34.7093189], [135.3178746, 34.7093249], [135.3178634, 34.7093309], [135.3178524, 34.7093357], [135.3178332, 34.7093439], [135.3178157, 34.7093513], [135.3178023, 34.709357], [135.317801, 34.7093576], [135.3174952, 34.7094922], [135.3174291, 34.7095215], [135.3174144, 34.709528], [135.3171109, 34.7096624], [135.3170962, 34.7096689], [135.3168654, 34.7097711], [135.3168507, 34.7097776], [135.3166667, 34.7098591], [135.3166199, 34.7098798], [135.3166052, 34.7098863], [135.3165161, 34.7099257], [135.3166485, 34.7101323], [135.3166573, 34.710146], [135.3166667, 34.7101606], [135.3167388, 34.7102731], [135.316771, 34.7102605], [135.3167987, 34.7102513], [135.3168147, 34.7102472], [135.3168374, 34.7102419], [135.3168633, 34.7102369], [135.3168998, 34.7102312], [135.3169269, 34.7102285], [135.3169524, 34.7102267], [135.3169792, 34.710226], [135.3170043, 34.7102259], [135.3170284, 34.710227], [135.3170502, 34.7102287], [135.3170725, 34.7102306], [135.3170981, 34.7102338], [135.3171328, 34.71024], [135.3171696, 34.7102477], [135.3171979, 34.7102546], [135.3172279, 34.7102633], [135.3175029, 34.7101423], [135.3177603, 34.7100286], [135.317958, 34.7099417], [135.3183846, 34.7097553], [135.318623, 34.7101271], [135.3186394, 34.7101558], [135.3186639, 34.7102052], [135.3186837, 34.7102453], [135.318715, 34.7103205], [135.3187684, 34.7103078], [135.3187929, 34.710302], [135.3192161, 34.7102018], [135.3193431, 34.7101717], [135.3193992, 34.7103311], [135.3194239, 34.7104312], [135.319435, 34.7104856], [135.3194424, 34.7105267], [135.3194492, 34.7105721], [135.3194531, 34.7106099], [135.3194579, 34.710655], [135.3194604, 34.710694], [135.3194618, 34.7107526], [135.3194606, 34.7108205], [135.3194596, 34.7108669], [135.3194577, 34.7109074], [135.3194538, 34.7109559], [135.3194505, 34.7109869], [135.3194459, 34.7110171], [135.3194407, 34.7110521], [135.3194348, 34.7110833], [135.3194291, 34.7111139], [135.3194208, 34.7111535], [135.3194122, 34.7111867], [135.319403, 34.7112211], [135.3193945, 34.7112503], [135.3193841, 34.71128], [135.3193723, 34.7113121], [135.3193635, 34.7113367], [135.3193484, 34.7113738], [135.3193347, 34.7114063], [135.3193158, 34.7114467], [135.3192965, 34.7114868], [135.3192953, 34.7114895], [135.3193897, 34.7115208], [135.320238, 34.7118021], [135.3202897, 34.7118192], [135.3204212, 34.7118629], [135.320483, 34.7118831], [135.3204615, 34.7119296], [135.3204527, 34.7119399], [135.3204056, 34.7120346], [135.3204662, 34.7120546], [135.3205129, 34.7119596], [135.3205143, 34.7119439], [135.3205356, 34.7119013], [135.3205585, 34.7119088], [135.3205789, 34.7119156], [135.3206773, 34.7119481], [135.3206976, 34.7119548], [135.3207205, 34.7119624], [135.3207651, 34.7118601], [135.3208021, 34.7117626], [135.3208189, 34.7117146], [135.3208372, 34.7116607], [135.3208648, 34.7115712], [135.3208794, 34.7115202], [135.3208915, 34.7114739], [135.3208929, 34.7114683], [135.3209039, 34.7114259], [135.3209139, 34.7113794], [135.3209219, 34.7113426], [135.3209327, 34.7112873], [135.320941, 34.7112392], [135.3209559, 34.7111414], [135.3209637, 34.7110831], [135.3209655, 34.7110646], [135.3209681, 34.7110376], [135.3209693, 34.7110259], [135.3209747, 34.7109515], [135.3209776, 34.7108887], [135.3209799, 34.7107963], [135.3209797, 34.7107191], [135.3209772, 34.7106584], [135.3209732, 34.7105878], [135.3209698, 34.7105384], [135.3209637, 34.7104752], [135.3209552, 34.7104042], [135.3209446, 34.7103343], [135.3209359, 34.710285], [135.3209214, 34.7102158], [135.3209016, 34.7101299], [135.3208789, 34.7100463], [135.3208539, 34.7099639], [135.3208176, 34.7098595], [135.3208198, 34.7094371], [135.3208208, 34.7093097], [135.3208212, 34.7092712], [135.3208222, 34.7092499], [135.3208243, 34.7092264], [135.3208266, 34.7092058], [135.3208302, 34.7091831], [135.3208356, 34.709155], [135.3208389, 34.7091353], [135.3208447, 34.7091084], [135.320856, 34.7090717], [135.3208631, 34.7090492], [135.3208728, 34.7090248], [135.3208882, 34.7089889], [135.3208979, 34.7089691], [135.3209114, 34.708944], [135.3209263, 34.7089193], [135.3209403, 34.7088974], [135.3209635, 34.7088623], [135.3209823, 34.7088376], [135.3210036, 34.7088107], [135.3210225, 34.7087889], [135.321041, 34.7087683], [135.3210457, 34.7087631], [135.3210713, 34.7087374], [135.3211056, 34.7087062], [135.3211383, 34.7086785], [135.3211591, 34.7086625], [135.3211813, 34.7086461], [135.3212123, 34.7086245], [135.3212411, 34.7086059], [135.321275, 34.7085854], [135.3213169, 34.7085627], [135.3213519, 34.7085452], [135.3214066, 34.7085203], [135.3214438, 34.7085052], [135.3214757, 34.7084939], [135.3215147, 34.7084815], [135.3215591, 34.7084686], [135.3215893, 34.7084611], [135.3216309, 34.7084517], [135.321661, 34.7084457], [135.3216948, 34.7084402], [135.3217363, 34.7084347], [135.3217857, 34.7084291], [135.3218491, 34.7084249], [135.321874, 34.7084249], [135.3219016, 34.708425], [135.3219167, 34.708426], [135.3219316, 34.7084266], [135.3219503, 34.7084283], [135.3219676, 34.7084302], [135.3219856, 34.7084325], [135.3219969, 34.7084347], [135.3220079, 34.7084367], [135.3220167, 34.7084391], [135.3220246, 34.7084419], [135.3220331, 34.7084456], [135.3220424, 34.7084504], [135.3220516, 34.7084561], [135.3220592, 34.7084613], [135.3220686, 34.7084699], [135.3220765, 34.7084781], [135.3220842, 34.7084881], [135.3220903, 34.7084971], [135.3220956, 34.7085061], [135.3220996, 34.7085154], [135.3221041, 34.708527], [135.3221069, 34.7085377], [135.322109, 34.7085483], [135.3221096, 34.7085585], [135.3221095, 34.7085697], [135.322109, 34.7085982], [135.3221091, 34.7087596], [135.3221091, 34.7091447], [135.3221086, 34.7093118], [135.3221066, 34.7104172], [135.3221064, 34.7111917], [135.3221061, 34.7114641], [135.3221057, 34.7118492], [135.3221052, 34.7120757], [135.3221047, 34.7125805], [135.3221045, 34.7131641], [135.3221062, 34.7138334], [135.3221064, 34.7141685], [135.3221067, 34.7145536], [135.3221074, 34.7145539], [135.3221085, 34.7148837], [135.3221079, 34.7148991], [135.3221052, 34.7149155], [135.3220999, 34.7149473], [135.3220959, 34.7149709], [135.3220957, 34.7149839], [135.3220963, 34.715151], [135.3220957, 34.7158767], [135.3221003, 34.7163367], [135.3221012, 34.7163603], [135.3220987, 34.7163724], [135.3220935, 34.7163835], [135.3220857, 34.7163944], [135.3220765, 34.7164042], [135.3220646, 34.7164131], [135.3220478, 34.7164215], [135.322032, 34.7164266], [135.3220176, 34.7164291], [135.3220029, 34.7164293], [135.321991, 34.7164284], [135.3219754, 34.7164245], [135.3219644, 34.7164204], [135.3219497, 34.7164124], [135.3219406, 34.7164067], [135.3212776, 34.7162733], [135.3210428, 34.7162267], [135.3205588, 34.7161309], [135.3202888, 34.7160769], [135.3200947, 34.7160381], [135.3195238, 34.7159239], [135.3190174, 34.7158238], [135.3185222, 34.7157264], [135.3178065, 34.7155864], [135.3175669, 34.7155401], [135.3166667, 34.7153624], [135.316382, 34.7153061], [135.316319, 34.7152917], [135.3159116, 34.7152119], [135.31568, 34.7151666], [135.3154716, 34.7151254], [135.3149582, 34.7150252], [135.3145978, 34.7149537], [135.3141065, 34.7148559], [135.3137453, 34.7147836], [135.3135185, 34.7147394], [135.3133547, 34.7147073], [135.3131898, 34.7146749], [135.3130849, 34.7146529], [135.3129476, 34.7146277], [135.3125759, 34.7145551], [135.3121263, 34.7144659], [135.3115815, 34.7143572], [135.3115346, 34.7143478], [135.3110803, 34.7142575], [135.3110005, 34.7142416], [135.3102582, 34.7140937], [135.3095896, 34.7139615], [135.3092192, 34.7138881], [135.3090498, 34.7138534], [135.3088128, 34.7138063], [135.3084978, 34.7137432], [135.3083333, 34.7137105], [135.3079844, 34.713641], [135.307942, 34.7136326], [135.3078254, 34.7136094], [135.3074353, 34.7135319], [135.3071576, 34.7134772], [135.3069459, 34.7134356], [135.3064832, 34.7133461], [135.3062265, 34.7132972], [135.3061937, 34.7132923], [135.3061691, 34.7132863], [135.3061516, 34.7132799], [135.3061356, 34.7132705], [135.3061211, 34.7132584], [135.3061114, 34.7132472], [135.3061028, 34.7132344], [135.3060969, 34.7132204], [135.3060932, 34.7132054], [135.3060918, 34.7131925], [135.3060879, 34.7131357]]]]}, "properties": {"uri": "https://uedayou.net/loa/兵庫県芦屋市", "name": "兵庫県芦屋市", "prefecture": "兵庫県", "municipality": "芦屋市", "notation": "兵庫県芦屋市"}}