{"type": "Feature", "geometry": {"type": "Polygon", "coordinates": [[[135.4392081, 34.873715], [135.4391067, 34.8738047], [135.4390008, 34.8739447], [135.4387331, 34.8741656], [135.4385014, 34.8742908], [135.4383711, 34.8743325], [135.4382339, 34.8744697], [135.4380265, 34.875], [135.4380239, 34.8750067], [135.4379878, 34.8752989], [135.4380167, 34.875615], [135.4381192, 34.8761292], [135.438125, 34.8761578], [135.4381394, 34.8763247], [135.4381686, 34.876635], [135.4381614, 34.8767483], [135.4381178, 34.8768497], [135.4379589, 34.8770225], [135.4377561, 34.8771061], [135.4374892, 34.8771247], [135.4375542, 34.8770411], [135.437546, 34.8769898], [135.4375181, 34.8768144], [135.4374094, 34.87657], [135.4372094, 34.8761233], [135.437185, 34.8760689], [135.4370258, 34.8758303], [135.4369556, 34.8757711], [135.4367219, 34.8755739], [135.4362731, 34.8753411], [135.4359981, 34.8752397], [135.4357592, 34.8750667], [135.4356928, 34.875], [135.4353319, 34.8746375], [135.4351706, 34.8744139], [135.4346208, 34.8734533], [135.4340128, 34.8722125], [135.4338897, 34.8716936], [135.4338897, 34.8713956], [135.4339547, 34.8711808], [135.4340633, 34.8709303], [135.4343094, 34.8707336], [135.4344542, 34.8705247], [135.4344906, 34.8703339], [135.4345339, 34.8702503], [135.43467, 34.8701656], [135.4348017, 34.8700833], [135.4347872, 34.8699639], [135.4346, 34.8695292], [135.4345919, 34.8695106], [135.4342228, 34.8685206], [135.4341842, 34.8683964], [135.4341503, 34.8682881], [135.4340489, 34.8682044], [135.4338678, 34.8681939], [135.4336869, 34.8681836], [135.4336075, 34.8680464], [135.4333333, 34.8676357], [135.4332889, 34.8675692], [135.4331947, 34.8673694], [135.4327586, 34.8666667], [135.4327244, 34.8666117], [135.4326522, 34.8663136], [135.4325725, 34.8658661], [135.4324097, 34.8655083], [135.4322358, 34.8651208], [135.4321419, 34.8647806], [135.4320694, 34.8644617], [135.4319103, 34.8634714], [135.4318742, 34.8632386], [135.4316353, 34.8628631], [135.4313167, 34.8626306], [135.4310922, 34.8624278], [135.4306075, 34.8620697], [135.4304411, 34.8618489], [135.4302311, 34.8615567], [135.4300936, 34.8612822], [135.4300575, 34.8610556], [135.4300606, 34.8610439], [135.4301225, 34.8608111], [135.4302294, 34.8606567], [135.4305642, 34.8601731], [135.4306728, 34.8599344], [135.4310708, 34.8592008], [135.4311506, 34.8589383], [135.4312592, 34.8586639], [135.431462, 34.8583333], [135.4315631, 34.8581686], [135.4316211, 34.8579064], [135.43165, 34.8576619], [135.4316494, 34.8576567], [135.4316136, 34.8571967], [135.4315228, 34.8569681], [135.4314617, 34.8568147], [135.4313583, 34.8564153], [135.4310108, 34.8560214], [135.4306878, 34.8557553], [135.4305764, 34.8556636], [135.4304389, 34.8555144], [135.4298236, 34.8553], [135.4295703, 34.8552106], [135.4290422, 34.8548944], [135.4288178, 34.8547453], [135.4280794, 34.8542142], [135.4278419, 34.8540592], [135.4275958, 34.8539636], [135.4269953, 34.8537967], [135.42699, 34.8537956], [135.4257939, 34.8535164], [135.4255478, 34.8533194], [135.4252147, 34.8527767], [135.4251219, 34.8527167], [135.425, 34.8526376], [135.4248094, 34.8525142], [135.4245778, 34.8524008], [135.42397, 34.8521742], [135.4236442, 34.8521264], [135.4231522, 34.8520906], [135.4228769, 34.8520489], [135.4227539, 34.8519653], [135.4226392, 34.8519378], [135.4225294, 34.8519117], [135.4222544, 34.8518758], [135.4212703, 34.8517208], [135.4210461, 34.8516611], [135.420605, 34.8515267], [135.4205169, 34.8515], [135.4203503, 34.8514942], [135.4200897, 34.8515478], [135.4192139, 34.8518819], [135.4179981, 34.8523114], [135.4178594, 34.8523006], [135.4170211, 34.8522358], [135.4168783, 34.8522247], [135.4173922, 34.8517417], [135.4175367, 34.8515839], [135.4176761, 34.8514308], [135.4177781, 34.8513197], [135.4178556, 34.8512347], [135.4179858, 34.8510497], [135.4180186, 34.8507847], [135.4180214, 34.8507617], [135.4180219, 34.8507578], [135.4180583, 34.8505369], [135.4180592, 34.8505342], [135.4181161, 34.8503581], [135.4183278, 34.85], [135.4183911, 34.8498928], [135.4184222, 34.8498333], [135.4185069, 34.8496719], [135.4186372, 34.8494692], [135.4191264, 34.8487772], [135.4196042, 34.848145], [135.4197994, 34.8479603], [135.4199661, 34.8477811], [135.4203497, 34.8472742], [135.4205944, 34.8469478], [135.4206897, 34.8468208], [135.4208275, 34.8465167], [135.4208925, 34.8463736], [135.4209092, 34.846325], [135.4209725, 34.8461406], [135.4210011, 34.8460575], [135.4210661, 34.8458189], [135.4211169, 34.84564], [135.4211603, 34.8450314], [135.4212256, 34.8447989], [135.421305, 34.8445722], [135.4215583, 34.8440594], [135.4216961, 34.8438447], [135.4218336, 34.8436181], [135.4219083, 34.8434578], [135.4220869, 34.8430753], [135.4222817, 34.8426636], [135.4224914, 34.8421028], [135.4225278, 34.8418644], [135.4226097, 34.8416667], [135.4226217, 34.8416378], [135.4228364, 34.8411533], [135.4229547, 34.8408861], [135.4234325, 34.8398603], [135.4235397, 34.8396547], [135.4238908, 34.8389811], [135.4239175, 34.8389297], [135.4242286, 34.83822], [135.4242939, 34.8379039], [135.4243144, 34.8377403], [135.424315, 34.8377367], [135.42433, 34.8376175], [135.42433, 34.8371228], [135.4242794, 34.8365694], [135.4241969, 34.8363683], [135.4240956, 34.8361], [135.4240894, 34.8360725], [135.4239725, 34.8355414], [135.4239622, 34.8354958], [135.4239536, 34.8354561], [135.4239292, 34.8353453], [135.4238497, 34.8350889], [135.4237558, 34.8347492], [135.4235967, 34.8341467], [135.4235953, 34.8340169], [135.423595, 34.8339736], [135.4235936, 34.8338369], [135.4235894, 34.8334069], [135.4236161, 34.8333333], [135.4236364, 34.8332772], [135.4236833, 34.8331475], [135.4237197, 34.8326344], [135.4237414, 34.8320561], [135.4237269, 34.8317339], [135.4237528, 34.8311792], [135.4237631, 34.8309614], [135.423785, 34.8306094], [135.4237886, 34.8303842], [135.4237922, 34.8301739], [135.4237994, 34.8299475], [135.4237272, 34.8297447], [135.4235897, 34.82919], [135.4234017, 34.8288558], [135.4233367, 34.8285725], [135.4231992, 34.82834], [135.4229967, 34.8280236], [135.4229533, 34.8278806], [135.4227869, 34.8275886], [135.4223822, 34.8269086], [135.42197, 34.8263328], [135.4217606, 34.8261778], [135.4216781, 34.8260694], [135.4216003, 34.8259669], [135.4214206, 34.8257303], [135.4210519, 34.8252947], [135.4208206, 34.8250681], [135.4207194, 34.825], [135.4204661, 34.8248297], [135.4203203, 34.8246614], [135.4201408, 34.8244539], [135.4197069, 34.8240453], [135.4193311, 34.8237233], [135.41882, 34.82332], [135.4186731, 34.8232042], [135.4184344, 34.8229836], [135.4182825, 34.8228106], [135.4176608, 34.82219], [135.4175089, 34.8220233], [135.4172703, 34.8217758], [135.4169303, 34.8213761], [135.4166667, 34.8210401], [135.4165183, 34.8208511], [135.4161858, 34.8204575], [135.4161136, 34.8202008], [135.4160919, 34.8197894], [135.4160928, 34.819785], [135.4161281, 34.8195597], [135.4160542, 34.8185581], [135.4159906, 34.8176928], [135.4161631, 34.8173031], [135.4163089, 34.8169742], [135.4163186, 34.8169425], [135.416402, 34.8166667], [135.416475, 34.8164256], [135.4164894, 34.8162822], [135.4165753, 34.8160175], [135.4166667, 34.8157353], [135.4167136, 34.8155903], [135.4169594, 34.8148894], [135.4170411, 34.8147842], [135.4171031, 34.8147047], [135.4171908, 34.8145914], [135.4174658, 34.8139828], [135.4174886, 34.8138703], [135.4175164, 34.8137322], [135.41759, 34.8136311], [135.41769, 34.8134936], [135.4179864, 34.8127367], [135.4180297, 34.8126258], [135.4180839, 34.8125056], [135.4183986, 34.8118089], [135.4184503, 34.8116881], [135.4185242, 34.8115147], [135.4186642, 34.8111875], [135.4187094, 34.8110811], [135.4187586, 34.8109111], [135.4188189, 34.8107022], [135.4188281, 34.8106703], [135.4188922, 34.8104483], [135.4189481, 34.8102547], [135.4192156, 34.8097897], [135.4194978, 34.8092647], [135.4197364, 34.8088294], [135.4199925, 34.8084881], [135.4201086, 34.8083333], [135.4202064, 34.8082031], [135.4204939, 34.8078467], [135.4205072, 34.8078303], [135.4205386, 34.8077917], [135.4207122, 34.8075083], [135.4210158, 34.8070669], [135.4212767, 34.8067075], [135.4214789, 34.8064286], [135.421645, 34.8061661], [135.4217825, 34.8059872], [135.4218475, 34.8058381], [135.4218764, 34.8056828], [135.4218764, 34.80562], [135.4218764, 34.8051792], [135.4219722, 34.8050433], [135.4220572, 34.8049225], [135.4221803, 34.8046661], [135.4223681, 34.804165], [135.4226647, 34.8034253], [135.4227586, 34.8032286], [135.4233083, 34.8026233], [135.4234964, 34.8023786], [135.4236914, 34.8020744], [135.4237403, 34.8020533], [135.423896, 34.8020848], [135.4242375, 34.8021514], [135.4249082, 34.8022745], [135.425, 34.8023399], [135.4252249, 34.8025001], [135.4259267, 34.8024437], [135.4260198, 34.8025975], [135.4261378, 34.8026283], [135.4262558, 34.8027001], [135.4264669, 34.8025155], [135.4267339, 34.8023001], [135.4269141, 34.802295], [135.4273488, 34.802295], [135.4276058, 34.8022983], [135.4277261, 34.8025189], [135.4278347, 34.8026858], [135.4280008, 34.8027217], [135.4282828, 34.8027633], [135.428355, 34.8028231], [135.4283622, 34.8029661], [135.4283831, 34.8031103], [135.4283839, 34.8031153], [135.4284492, 34.8031811], [135.4286369, 34.8031811], [135.428695, 34.8031333], [135.428695, 34.8030497], [135.4286442, 34.8029125], [135.4286661, 34.8026561], [135.4287692, 34.8026422], [135.4288178, 34.8026358], [135.4288903, 34.8026261], [135.4289061, 34.802545], [135.4289194, 34.8024783], [135.4289561, 34.8022908], [135.4291072, 34.8015228], [135.4293022, 34.801505], [135.4294903, 34.8014453], [135.4295481, 34.8013261], [135.4296278, 34.8012842], [135.4297869, 34.8012603], [135.4298953, 34.8012097], [135.4299242, 34.8011142], [135.4299314, 34.8009889], [135.4299603, 34.80081], [135.4300569, 34.8006908], [135.4301528, 34.8005725], [135.4301753, 34.8005444], [135.4302517, 34.8004506], [135.4303122, 34.8003758], [135.430315, 34.8003725], [135.4303853, 34.8002856], [135.4304814, 34.8001672], [135.4305039, 34.8001392], [135.4306166, 34.8], [135.4306856, 34.799915], [135.4308072, 34.7997647], [135.4308289, 34.7997381], [135.4308353, 34.7997303], [135.4308497, 34.7996953], [135.4309153, 34.7995347], [135.4310233, 34.7992711], [135.4311681, 34.7992475], [135.4311897, 34.7989581], [135.4312331, 34.7984867], [135.4313414, 34.7984711], [135.431535, 34.7984431], [135.4316483, 34.7984264], [135.4317681, 34.7984092], [135.4324186, 34.7984211], [135.4326283, 34.7983317], [135.4328019, 34.7982242], [135.4329683, 34.7979797], [135.4330261, 34.7979283], [135.4332358, 34.7977411], [135.4333333, 34.7977716], [135.4334456, 34.7978067], [135.4336033, 34.7979553], [135.433768, 34.7981096], [135.4338586, 34.7981934], [135.4344488, 34.7982398], [135.4344633, 34.7981478], [135.4345103, 34.7979261], [135.4345231, 34.7978664], [135.4345275, 34.7978319], [135.4346025, 34.79727], [135.4345467, 34.7972578], [135.4340531, 34.7971508], [135.4340531, 34.7968406], [135.4340747, 34.7965931], [135.4346314, 34.7960025], [135.4348406, 34.7957819], [135.4353833, 34.7952094], [135.4356933, 34.7948983], [135.4360372, 34.7945533], [135.4361858, 34.7944042], [135.4363603, 34.7942181], [135.4364317, 34.7941417], [135.4370103, 34.7935481], [135.4377406, 34.7927728], [135.437895, 34.7926147], [135.4379717, 34.7925358], [135.4381889, 34.7923133], [135.4383883, 34.7920975], [135.4384781, 34.7920003], [135.438695, 34.7918928], [135.4396058, 34.7918333], [135.4405822, 34.7917736], [135.4406856, 34.7917947], [135.4407031, 34.7917983], [135.4408528, 34.7918289], [135.4410533, 34.79187], [135.4411433, 34.7918883], [135.4411114, 34.7920422], [135.4409947, 34.7926058], [135.4410019, 34.7929756], [135.4410381, 34.7930114], [135.4412333, 34.7930175], [135.4413272, 34.7930175], [135.4413706, 34.7930503], [135.4413853, 34.7932114], [135.4415119, 34.793465], [135.4415231, 34.7934869], [135.4416033, 34.7936481], [135.4416667, 34.7937745], [135.4417511, 34.7939438], [135.4417756, 34.7939928], [135.4418117, 34.7941894], [135.4419781, 34.7941894], [135.4421517, 34.7942133], [135.4423469, 34.7942133], [135.442535, 34.7941894], [135.4428961, 34.7941894], [135.442925, 34.7942553], [135.4429614, 34.794595], [135.44311, 34.7951056], [135.44311, 34.7951061], [135.4431172, 34.7951311], [135.443205, 34.7954331], [135.4432269, 34.7955075], [135.443265, 34.7956389], [135.4433733, 34.7960147], [135.443395, 34.7961728], [135.4434386, 34.7962144], [135.4436556, 34.7962444], [135.44367, 34.79631], [135.4436772, 34.7966381], [135.4436917, 34.7967633], [135.4437278, 34.7969658], [135.4437133, 34.7970375], [135.4436294, 34.7971444], [135.4436047, 34.7971761], [135.443535, 34.797265], [135.4435064, 34.7973014], [135.4434756, 34.7973408], [135.4434, 34.7974372], [135.4433439, 34.7975086], [135.4432839, 34.7975853], [135.4431708, 34.7977294], [135.4430697, 34.7978489], [135.4429758, 34.7979681], [135.4428961, 34.7980456], [135.4429686, 34.7981708], [135.4429714, 34.7981858], [135.4429903, 34.7982842], [135.4429658, 34.7984625], [135.4429614, 34.7984961], [135.4429106, 34.7986631], [135.4428989, 34.7987261], [135.4428792, 34.7988311], [135.4428725, 34.7988672], [135.4428658, 34.7989036], [135.4428528, 34.7989731], [135.4428528, 34.7991281], [135.4428539, 34.7992511], [135.4428542, 34.7992992], [135.4428567, 34.7995611], [135.4428594, 34.7998919], [135.44286, 34.7999453], [135.4430914, 34.7999275], [135.4432019, 34.7998994], [135.4432156, 34.7998958], [135.4432794, 34.7998797], [135.4433517, 34.7997664], [135.4434675, 34.7996469], [135.4436917, 34.7995397], [135.4438725, 34.7994322], [135.4440489, 34.7994264], [135.4440531, 34.7994264], [135.4442881, 34.7994958], [135.4443883, 34.7995253], [135.4445378, 34.7995694], [135.4447183, 34.7995756], [135.4448697, 34.7996886], [135.4450294, 34.7998081], [135.4451522, 34.7998081], [135.4452031, 34.7997664], [135.4452681, 34.799635], [135.4453692, 34.7996053], [135.4456367, 34.7995994], [135.4458317, 34.7996233], [135.4459258, 34.7997067], [135.4459404, 34.7997783], [135.4460126, 34.7998081], [135.4460979, 34.7998133], [135.4462307, 34.7998221], [135.44633, 34.7998285], [135.4464542, 34.7998364], [135.4465194, 34.7998405], [135.4465432, 34.7993391], [135.4471398, 34.7993486], [135.4471302, 34.7994566], [135.447288, 34.7994789], [135.4473072, 34.7995266], [135.4473823, 34.7995281], [135.447975, 34.7995615], [135.4478385, 34.8], [135.4477787, 34.8001923], [135.4477171, 34.8005084], [135.447584, 34.8014153], [135.4472056, 34.8015706], [135.4470683, 34.8016542], [135.4469961, 34.8021136], [135.4468875, 34.8026533], [135.4468225, 34.8028144], [135.4468153, 34.8028919], [135.4468369, 34.8029397], [135.4472347, 34.8028442], [135.4472056, 34.8029158], [135.4471558, 34.8029747], [135.4471128, 34.8030256], [135.4470394, 34.8031128], [135.4470172, 34.8031394], [135.4469164, 34.8032619], [135.4468297, 34.8033931], [135.4466128, 34.8040072], [135.446555, 34.8041622], [135.4465406, 34.8042817], [135.4467139, 34.8044069], [135.4470669, 34.804435], [135.4471983, 34.8044456], [135.4474919, 34.8044489], [135.4477553, 34.8044517], [135.4478928, 34.8044694], [135.4480394, 34.8044969], [135.4482758, 34.8045411], [135.4485289, 34.8045531], [135.4490139, 34.8045125], [135.4491208, 34.8045036], [135.4491722, 34.8044994], [135.4491936, 34.8045031], [135.4494253, 34.8045411], [135.449635, 34.8046367], [135.4498158, 34.8049408], [135.4499317, 34.8050781], [135.45, 34.8051385], [135.4500328, 34.8051675], [135.4502353, 34.8052839], [135.4504811, 34.8053614], [135.450575, 34.8053672], [135.4506692, 34.8052539], [135.4508356, 34.8051406], [135.4510089, 34.8051347], [135.4511536, 34.8051883], [135.4512983, 34.80526], [135.4514067, 34.8052778], [135.4515078, 34.80526], [135.4516811, 34.80523], [135.4518981, 34.8052481], [135.4520572, 34.8052839], [135.4521222, 34.8053433], [135.4521731, 34.8055283], [135.4522164, 34.8056597], [135.4522381, 34.805785], [135.4523103, 34.8059222], [135.4524044, 34.8060356], [135.4524117, 34.8061131], [135.4523608, 34.8061786], [135.4521222, 34.8062622], [135.4520422, 34.8062492], [135.4519053, 34.8062264], [135.4518031, 34.8061792], [135.4517247, 34.8061428], [135.45158, 34.8061308], [135.4514714, 34.8061547], [135.4511389, 34.8063278], [135.4510233, 34.8063814], [135.4509006, 34.8063994], [135.4507703, 34.8063875], [135.4506475, 34.8063517], [135.4505028, 34.8062503], [135.4501631, 34.8059936], [135.45, 34.8059289], [135.4499678, 34.8059161], [135.4497292, 34.8058625], [135.4495628, 34.8058386], [135.4494469, 34.8058506], [135.4490703, 34.8060369], [135.4489408, 34.8061011], [135.4489142, 34.8061103], [135.4488181, 34.8061428], [135.4486733, 34.8061547], [135.4484708, 34.8061369], [135.4481019, 34.8060772], [135.4480694, 34.8061825], [135.4479864, 34.8064528], [135.4480769, 34.8068825], [135.4481019, 34.8070017], [135.4480792, 34.8073539], [135.4480442, 34.8078903], [135.4480608, 34.8080322], [135.4480719, 34.8081275], [135.4480903, 34.8082856], [135.4480959, 34.8083333], [135.4481, 34.8083683], [135.4481069, 34.8084267], [135.4481192, 34.8085306], [135.4481406, 34.8087139], [135.4481672, 34.80894], [135.4481992, 34.8090436], [135.4483869, 34.8093181], [135.4484131, 34.8093881], [135.4485014, 34.8096256], [135.4485169, 34.8096681], [135.4485437, 34.8097397], [135.4485541, 34.8097918], [135.4478028, 34.8097656], [135.4475837, 34.8097232], [135.4470851, 34.8097624], [135.4470329, 34.8098208], [135.4470266, 34.8098637], [135.4470462, 34.8099387], [135.4470837, 34.8099611], [135.4472667, 34.8100693], [135.4472928, 34.8100837], [135.4474746, 34.8101536], [135.4475471, 34.8102252], [135.4475983, 34.8102767], [135.4476233, 34.8103624], [135.4476438, 34.8104316], [135.4476504, 34.8104537], [135.4476837, 34.8105004], [135.4477422, 34.8105815], [135.4477873, 34.8106434], [135.4478648, 34.8107511], [135.4479555, 34.8108769], [135.4480682, 34.8109593], [135.4481307, 34.8110055], [135.4482087, 34.811026], [135.4482544, 34.8110376], [135.4483188, 34.8110428], [135.448417, 34.8110335], [135.4484801, 34.8110271], [135.4486964, 34.8109737], [135.4492114, 34.8109617], [135.4493469, 34.8112131], [135.4493697, 34.811255], [135.4494778, 34.8114556], [135.4495572, 34.8117836], [135.4495211, 34.8119447], [135.44955, 34.8120881], [135.44955, 34.8127442], [135.4495861, 34.8128636], [135.4494583, 34.8129492], [135.4492028, 34.81312], [135.4489886, 34.8134364], [135.4489281, 34.8135256], [135.4489189, 34.8135931], [135.4489122, 34.8136433], [135.4489075, 34.8136764], [135.4488964, 34.8137594], [135.4488889, 34.813815], [135.4488769, 34.8139017], [135.4488703, 34.8139519], [135.4488483, 34.8139731], [135.4487697, 34.8140481], [135.4486658, 34.8141478], [135.4485944, 34.8142158], [135.4484472, 34.8143567], [135.4483914, 34.81441], [135.4482847, 34.8145125], [135.4482989, 34.8150375], [135.4482772, 34.8152522], [135.4481906, 34.8154253], [135.4481183, 34.8155744], [135.4480097, 34.8156639], [135.4479017, 34.8157356], [135.4478364, 34.815825], [135.4478364, 34.8159264], [135.4478928, 34.8160256], [135.4479519, 34.8161292], [135.44814, 34.8163706], [135.4482628, 34.8164481], [135.4483419, 34.8165461], [135.4484392, 34.8166664], [135.4484394, 34.8166667], [135.4485, 34.8167414], [135.4486458, 34.8169219], [135.4486967, 34.816985], [135.4488847, 34.8170983], [135.4490078, 34.8172236], [135.44921, 34.8173786], [135.4493981, 34.8174564], [135.4495644, 34.81748], [135.4497597, 34.8174919], [135.45, 34.8174886], [135.4501719, 34.8174861], [135.4502875, 34.8174919], [135.4503222, 34.8174583], [135.4503939, 34.8173883], [135.4504483, 34.8173353], [135.4505425, 34.8172439], [135.4506489, 34.81714], [135.4507428, 34.8171161], [135.4508731, 34.8171342], [135.4512056, 34.8173131], [135.4512781, 34.8174294], [135.4512564, 34.8176203], [135.4512128, 34.8177933], [135.4511261, 34.8179306], [135.4510031, 34.8180797], [135.4509164, 34.8182825], [135.4508731, 34.8184853], [135.4508875, 34.8186522], [135.4509453, 34.8186942], [135.4512419, 34.8187528], [135.45182, 34.8188669], [135.4518851, 34.8189113], [135.4519541, 34.8189582], [135.4519865, 34.8189805], [135.4519865, 34.819088], [135.4518923, 34.8191475], [135.4518489, 34.8192036], [135.4517553, 34.8193233], [135.4515572, 34.8199572], [135.4515167, 34.8200867], [135.4515672, 34.8202539], [135.4517481, 34.8204925], [135.4518081, 34.820615], [135.4518419, 34.8206816], [135.4518415, 34.8209238], [135.4517036, 34.8213382], [135.4516756, 34.8214214], [135.4516014, 34.8214719], [135.4514942, 34.8215453], [135.4514419, 34.8215808], [135.451225, 34.8217289], [135.45109, 34.8218208], [135.4507572, 34.8221072], [135.4506128, 34.8222028], [135.4505258, 34.8223161], [135.4504914, 34.8224597], [135.4504678, 34.8225569], [135.4504325, 34.8227042], [135.4504103, 34.8227961], [135.4503975, 34.8229428], [135.4503925, 34.8230011], [135.4503806, 34.8231383], [135.4503714, 34.8232419], [135.4503583, 34.8233917], [135.4503525, 34.8234583], [135.4503669, 34.8235956], [135.4504175, 34.8237864], [135.4504225, 34.8238489], [135.4504319, 34.8239714], [135.4504247, 34.8240369], [135.4503525, 34.8241564], [135.4503597, 34.8242575], [135.4503886, 34.8243767], [135.4504031, 34.8244661], [135.4503306, 34.8247108], [135.4503381, 34.8247944], [135.4503814, 34.8249256], [135.4504047, 34.825], [135.4504319, 34.8250867], [135.4505042, 34.8252836], [135.4505547, 34.8254683], [135.4505547, 34.8258175], [135.4505911, 34.8260739], [135.4506403, 34.8262], [135.4506842, 34.8263131], [135.4507353, 34.8264439], [135.4508294, 34.8265392], [135.4508656, 34.8266467], [135.4508439, 34.8267539], [135.4507497, 34.8268611], [135.4507136, 34.8269564], [135.4507425, 34.8270281], [135.4508944, 34.8271653], [135.4509089, 34.8272489], [135.4509017, 34.8273503], [135.45085, 34.8274839], [135.4508439, 34.8274994], [135.4508294, 34.8275769], [135.4508439, 34.8276783], [135.4509739, 34.8278425], [135.4509883, 34.8279319], [135.4509692, 34.8284089], [135.4509667, 34.8284747], [135.450945, 34.8286478], [135.450945, 34.8288325], [135.4509594, 34.8289281], [135.4510392, 34.8292561], [135.4510786, 34.8293892], [135.4511186, 34.8295244], [135.45112, 34.8295278], [135.4511931, 34.82971], [135.4512489, 34.8298494], [135.4512533, 34.8298542], [135.4513167, 34.8299231], [135.4513644, 34.8299747], [135.4515597, 34.8300642], [135.4516972, 34.8301239], [135.4518725, 34.8301703], [135.4518994, 34.8301775], [135.4522178, 34.8302731], [135.45242, 34.8303683], [135.4525936, 34.8305294], [135.4526947, 34.8306906], [135.4527669, 34.8309053], [135.4527886, 34.8310722], [135.4527669, 34.83115], [135.4527164, 34.8312572], [135.452705, 34.8313922], [135.4527019, 34.8314303], [135.45289, 34.8318119], [135.4529911, 34.8319792], [135.4530419, 34.8321939], [135.4531431, 34.83231], [135.4531833, 34.83234], [135.4533528, 34.832465], [135.4535336, 34.8325903], [135.4536203, 34.8327094], [135.4536492, 34.8328467], [135.4537072, 34.8331569], [135.4537664, 34.8333333], [135.4538372, 34.8335447], [135.4538444, 34.8336819], [135.4538228, 34.8338311], [135.453765, 34.8339742], [135.4537144, 34.8341592], [135.4534539, 34.8345886], [135.4533311, 34.8347764], [135.4532817, 34.8348233], [135.4532369, 34.8348658], [135.4530636, 34.8349969], [135.4528467, 34.8351997], [135.4528219, 34.8352461], [135.4527669, 34.8353489], [135.4527525, 34.83551], [135.4527814, 34.835665], [135.4528539, 34.8358561], [135.4529767, 34.8360589], [135.4530492, 34.8362019], [135.4530708, 34.8363272], [135.4530681, 34.8365031], [135.4530822, 34.83657], [135.4530367, 34.8372475], [135.4530511, 34.8377903], [135.4531594, 34.8380767], [135.4533117, 34.8382019], [135.4534128, 34.8382556], [135.4535939, 34.8383869], [135.4540933, 34.8387447], [135.4542164, 34.8388403], [135.4543611, 34.8389594], [135.4544481, 34.8390967], [135.4545203, 34.8392161], [135.4545494, 34.8394547], [135.4544914, 34.8396872], [135.4544275, 34.8399078], [135.4543756, 34.8400867], [135.4543033, 34.8402239], [135.4543106, 34.8404089], [135.4543972, 34.8407608], [135.45439, 34.8409397], [135.4543756, 34.8410828], [135.454325, 34.84122], [135.4542525, 34.8413036], [135.4537964, 34.8415958], [135.4537311, 34.8416667], [135.4536589, 34.841745], [135.4536517, 34.8418822], [135.4537242, 34.8420553], [135.4538039, 34.8423233], [135.4538039, 34.8424308], [135.4537531, 34.84258], [135.4537336, 34.8427767], [135.4537986, 34.8429139], [135.4538856, 34.8430811], [135.4539942, 34.8432003], [135.4540231, 34.8433317], [135.4540447, 34.8434211], [135.4541172, 34.8434269], [135.4542475, 34.8434031], [135.4543561, 34.843445], [135.4544647, 34.8435583], [135.4544936, 34.8436953], [135.4544936, 34.8438683], [135.4545219, 34.8439936], [135.4546372, 34.8440236], [135.4547967, 34.8440356], [135.4549819, 34.8440206], [135.4550211, 34.8440175], [135.4552236, 34.8440056], [135.4554119, 34.8440117], [135.4554842, 34.8440294], [135.4556, 34.844125], [135.4556581, 34.8442144], [135.4558461, 34.8443336], [135.4559764, 34.8443456], [135.4561792, 34.8442919], [135.4564108, 34.8442561], [135.4565411, 34.8442742], [135.4566569, 34.8443217], [135.4569247, 34.8445783], [135.4570622, 34.8446261], [135.4572069, 34.8446142], [135.4575614, 34.8445128], [135.4578944, 34.8443636], [135.4582419, 34.8441069], [135.4583333, 34.8440642], [135.4584589, 34.8440056], [135.4586472, 34.8439519], [135.4588353, 34.8438922], [135.4590308, 34.8438444], [135.4592914, 34.8438267], [135.4594142, 34.8438306], [135.4594722, 34.8438325], [135.4596533, 34.8440117], [135.4597403, 34.8441369], [135.4598561, 34.8442861], [135.4599356, 34.8444589], [135.45995, 34.8445425], [135.4599283, 34.8446381], [135.4597111, 34.8449839], [135.4595564, 34.84513], [135.4589556, 34.8459708], [135.4588181, 34.8461081], [135.4588253, 34.8462572], [135.4589844, 34.8464481], [135.4590714, 34.8465972], [135.4590858, 34.8467106], [135.4590786, 34.8468956], [135.4590858, 34.8470567], [135.4591003, 34.8472356], [135.4592306, 34.8479453], [135.4592994, 34.8482494], [135.4594764, 34.8490308], [135.4595778, 34.849335], [135.4598167, 34.8498422], [135.4598584, 34.85], [135.45986, 34.8500061], [135.4598528, 34.8501731], [135.4598239, 34.8502864], [135.4598239, 34.8503819], [135.4598744, 34.8504236], [135.4602147, 34.8506264], [135.4603522, 34.8507633], [135.4605622, 34.8509603], [135.4606997, 34.8511094], [135.4608083, 34.8513242], [135.4607867, 34.8514614], [135.4606925, 34.8515508], [135.4605694, 34.8515569], [135.4604392, 34.8515389], [135.4603378, 34.8514197], [135.4601569, 34.8512263], [135.46007, 34.8511333], [135.4599181, 34.8509961], [135.4598311, 34.8509722], [135.459795, 34.8510258], [135.4598239, 34.8511692], [135.45986, 34.8513361], [135.4598744, 34.8514256], [135.4598672, 34.8515628], [135.4597806, 34.8519028], [135.4597442, 34.8520697], [135.4597369, 34.8522189], [135.4597514, 34.8524189], [135.4598022, 34.8529197], [135.459795, 34.8530986], [135.4597514, 34.8532536], [135.4596647, 34.8535997], [135.4595344, 34.8539278], [135.4594475, 34.8540828], [135.4593822, 34.8542439], [135.4593028, 34.8543753], [135.4590275, 34.8547628], [135.4588394, 34.85493], [135.4587011, 34.8550469], [135.4585717, 34.8551564], [135.4583833, 34.8553472], [135.4583833, 34.8554547], [135.4584486, 34.8556814], [135.4584775, 34.8558422], [135.4585136, 34.8560033], [135.4585717, 34.8563406], [135.4586222, 34.8566386], [135.4587092, 34.8567997], [135.4588106, 34.8569369], [135.4588467, 34.8571219], [135.4588033, 34.8573364], [135.4587525, 34.8574736], [135.4587656, 34.8575639], [135.4587961, 34.8577778], [135.4588439, 34.8578892], [135.4588828, 34.8579806], [135.4589697, 34.8580939], [135.4590131, 34.8582014], [135.459102, 34.8583333], [135.4592664, 34.8585772], [135.4592811, 34.8587383], [135.4592592, 34.8588694], [135.4592447, 34.8590664], [135.4593606, 34.8595256], [135.4595178, 34.8600683], [135.4595178, 34.8601936], [135.4594814, 34.8603425], [135.4593728, 34.8605456], [135.4593006, 34.8607244], [135.4593006, 34.8608794], [135.4593439, 34.8610883], [135.4593367, 34.8611956], [135.4592556, 34.8613044], [135.4591992, 34.8613806], [135.4589603, 34.8616908], [135.4587503, 34.8619472], [135.4583333, 34.8623845], [135.4581931, 34.8625317], [135.457515, 34.8632711], [135.4574547, 34.8633369], [135.4573389, 34.8634742], [135.4572014, 34.8635575], [135.4569408, 34.8637367], [135.4567308, 34.8638991], [135.4567019, 34.8639214], [135.4565483, 34.8640647], [135.4563964, 34.8643272], [135.4563097, 34.8646072], [135.4562733, 34.8647325], [135.4561867, 34.8647622], [135.455535, 34.8647622], [135.4552531, 34.8647981], [135.4550756, 34.8648272], [135.4549636, 34.8648458], [135.4547392, 34.8649353], [135.4544206, 34.8650667], [135.4541456, 34.8651261], [135.4537511, 34.8651353], [135.4535411, 34.8651292], [135.4530925, 34.8651769], [135.4528608, 34.8652367], [135.4525567, 34.8653619], [135.4523394, 34.8654453], [135.4521658, 34.8654992], [135.4516811, 34.8656661], [135.45137, 34.8657019], [135.4511167, 34.8657853], [135.4509789, 34.8658569], [135.4502842, 34.8663639], [135.4500669, 34.8664714], [135.45, 34.8665345], [135.4499656, 34.8665669], [135.4497411, 34.8666622], [135.4497356, 34.8666667], [135.4492492, 34.8670617], [135.4491333, 34.8672286], [135.4490681, 34.8673719], [135.4489669, 34.8674878], [135.4489411, 34.8675175], [135.4488075, 34.8676703], [135.4487489, 34.8677408], [135.4487161, 34.86778], [135.4486642, 34.8678425], [135.4486339, 34.8678789], [135.4485758, 34.8680222], [135.4485758, 34.8681653], [135.4485839, 34.8683264], [135.4485694, 34.8684517], [135.4485042, 34.8686306], [135.4479975, 34.8692508], [135.4478675, 34.8693225], [135.4476142, 34.8693167], [135.4474186, 34.8693583], [135.4472594, 34.8694658], [135.4470494, 34.8696981], [135.4468614, 34.8699544], [135.4463958, 34.8705928], [135.4459544, 34.8713564], [135.4459036, 34.8715175], [135.4458529, 34.8717453], [135.4458386, 34.8718097], [135.4457878, 34.8719531], [135.4456867, 34.87212], [135.4453319, 34.87212], [135.4447314, 34.8722333], [135.4440003, 34.8725253], [135.4437614, 34.8726147], [135.4436022, 34.8727103], [135.443175, 34.8733186], [135.4430883, 34.8734978], [135.4431028, 34.8737064], [135.443435, 34.8741928], [135.4434481, 34.8742114], [135.4435404, 34.8743432], [135.4435436, 34.8743478], [135.443435, 34.8743956], [135.4432903, 34.8743178], [135.4431236, 34.8742344], [135.4427617, 34.8741628], [135.4424939, 34.8741569], [135.4421756, 34.8742822], [135.4420742, 34.8743536], [135.4420089, 34.8744731], [135.4419872, 34.8746936], [135.4419728, 34.8748186], [135.4418353, 34.8749739], [135.4417865, 34.875], [135.4416906, 34.8750514], [135.4416667, 34.8750531], [135.4414375, 34.8750692], [135.4413144, 34.8750514], [135.4412253, 34.875], [135.4410972, 34.8749261], [135.4407497, 34.8746814], [135.440395, 34.8745325], [135.4399608, 34.8742819], [135.4399137, 34.8741851], [135.4399028, 34.8741625], [135.4398378, 34.8740372], [135.4397839, 34.8739625], [135.4397003, 34.8738464], [135.43936, 34.8737092], [135.4392081, 34.873715]]]}, "properties": {"uri": "https://uedayou.net/loa/大阪府池田市", "name": "大阪府池田市", "prefecture": "大阪府", "municipality": "池田市", "notation": "大阪府池田市"}}