{"type":"Feature","geometry":{"type":"Polygon","coordinates":[[[135.3120781,34.9589064],[135.3114478,34.9591153],[135.3110747,34.9592286],[135.3106967,34.9593156],[135.3105822,34.9593419],[135.3104011,34.9593717],[135.3100169,34.9594314],[135.3092778,34.9596403],[135.3085097,34.9599264],[135.3083333,34.9600094],[135.3081044,34.9601172],[135.3077456,34.9603617],[135.3072383,34.9607614],[135.3071661,34.9608689],[135.3071369,34.9610000],[135.3071661,34.9613639],[135.3071225,34.9615069],[135.3070356,34.9615906],[135.3068978,34.9616322],[135.3065356,34.9618114],[135.3063183,34.9619722],[135.3061372,34.9620439],[135.3059706,34.9620797],[135.3057022,34.9621811],[135.3053003,34.9623836],[135.3052494,34.9622286],[135.3052639,34.9619783],[135.3052350,34.9618411],[135.3051336,34.9616742],[135.3046411,34.9613758],[135.3044164,34.9611969],[135.3042789,34.9610597],[135.3041919,34.9609283],[135.3041791,34.9608435],[135.3041775,34.9608331],[135.3042353,34.9605944],[135.3042569,34.9604931],[135.3042897,34.9603319],[135.3043403,34.9599800],[135.3043114,34.9596339],[135.3042172,34.9591331],[135.3040922,34.9586831],[135.3040650,34.9585844],[135.3040289,34.9584292],[135.3040245,34.9583333],[135.3040181,34.9581906],[135.3040469,34.9579519],[135.3041194,34.9575942],[135.3041339,34.9574153],[135.3040903,34.9572064],[135.3039311,34.9569500],[135.3038875,34.9568128],[135.3038875,34.9567231],[135.3039456,34.9565383],[135.3040758,34.9563239],[135.3040811,34.9563119],[135.3041956,34.9560614],[135.3045142,34.9556556],[135.3046375,34.9555303],[135.3046664,34.9553753],[135.3046956,34.9552083],[135.3047533,34.9549339],[135.3048694,34.9547192],[135.3049564,34.9545522],[135.3050142,34.9543672],[135.3050433,34.9542061],[135.3049781,34.9540689],[135.3046844,34.9539022],[135.3043439,34.9536217],[135.3039456,34.9532758],[135.3037208,34.9530550],[135.3035036,34.9527747],[135.3034092,34.9526136],[135.3032936,34.9523931],[135.3031561,34.9522497],[135.3029675,34.9521186],[135.3026597,34.9518144],[135.3025364,34.9516175],[135.3024133,34.9512953],[135.3023697,34.9509494],[135.3023553,34.9505142],[135.3023697,34.9503531],[135.3024206,34.9502756],[135.3025508,34.9501919],[135.3027539,34.9500847],[135.3028006,34.9500000],[135.3028264,34.9499533],[135.3028661,34.9497625],[135.3029894,34.9493033],[135.3031125,34.9491600],[135.3032283,34.9491183],[135.3034314,34.9490586],[135.3038950,34.9490467],[135.3039583,34.9490519],[135.3043875,34.9490883],[135.3044928,34.9490844],[135.3047064,34.9490767],[135.3049456,34.9490467],[135.3051844,34.9489394],[135.3054672,34.9487664],[135.3057208,34.9484922],[135.3059308,34.9481700],[135.3060431,34.9480628],[135.3062822,34.9478600],[135.3064128,34.9477942],[135.3068039,34.9477228],[135.3069128,34.9476689],[135.3069850,34.9475497],[135.3071300,34.9472633],[135.3072967,34.9469592],[135.3074344,34.9468100],[135.3076917,34.9466608],[135.3079308,34.9465775],[135.3081478,34.9465236],[135.3082856,34.9464103],[135.3083333,34.9462642],[135.3084883,34.9457903],[135.3086189,34.9453964],[135.3086261,34.9452533],[135.3085681,34.9450803],[135.3083692,34.9446269],[135.3083333,34.9445258],[135.3082725,34.9443542],[135.3082531,34.9442989],[135.3082531,34.9441439],[135.3082822,34.9439828],[135.3083333,34.9439018],[135.3084706,34.9436844],[135.3087314,34.9433269],[135.3087603,34.9432256],[135.3087603,34.9431181],[135.3086953,34.9429153],[135.3085322,34.9425572],[135.3084897,34.9423883],[135.3084453,34.9422114],[135.3084089,34.9418236],[135.3084228,34.9416667],[135.3084306,34.9415789],[135.3085467,34.9414894],[135.3088364,34.9413942],[135.3090175,34.9413642],[135.3090683,34.9412331],[135.3090247,34.9410900],[135.3089814,34.9408278],[135.3089886,34.9406547],[135.3090647,34.9404697],[135.3093256,34.9400461],[135.3093689,34.9399508],[135.3093544,34.9398792],[135.3091589,34.9395392],[135.3090431,34.9393244],[135.3089850,34.9391336],[135.3089850,34.9389189],[135.3090431,34.9385728],[135.3090683,34.9382747],[135.3089886,34.9378931],[135.3089089,34.9376128],[135.3086697,34.9373322],[135.3085031,34.9372428],[135.3083333,34.9371988],[135.3081119,34.9371414],[135.3074886,34.9369983],[135.3071192,34.9368789],[135.3069383,34.9368669],[135.3070322,34.9365986],[135.3071881,34.9361572],[135.3073403,34.9358350],[135.3073981,34.9356681],[135.3076083,34.9351256],[135.3076725,34.9350461],[135.3078256,34.9348569],[135.3079850,34.9346542],[135.3080286,34.9345408],[135.3080286,34.9344275],[135.3079417,34.9342783],[135.3075978,34.9339861],[135.3074019,34.9337772],[135.3073514,34.9336342],[135.3073514,34.9335328],[135.3074239,34.9334133],[135.3075146,34.9333333],[135.3076267,34.9332344],[135.3078006,34.9331211],[135.3080683,34.9330375],[135.3083333,34.9330375],[135.3083656,34.9330375],[135.3085175,34.9330317],[135.3087133,34.9329661],[135.3088292,34.9328467],[135.3088728,34.9326917],[135.3089089,34.9323639],[135.3089233,34.9322147],[135.3088256,34.9319522],[135.3086589,34.9318208],[135.3083333,34.9315949],[135.3082894,34.9315644],[135.3082242,34.9314928],[135.3082100,34.9313317],[135.3082389,34.9311886],[135.3083333,34.9309454],[135.3083547,34.9308903],[135.3084053,34.9306278],[135.3083911,34.9304847],[135.3083333,34.9303712],[135.3082969,34.9302997],[135.3079383,34.9299000],[135.3076992,34.9296794],[135.3075978,34.9295661],[135.3075978,34.9294231],[135.3077644,34.9291667],[135.3078006,34.9290294],[135.3077644,34.9289458],[135.3076339,34.9286597],[135.3073803,34.9283317],[135.3072064,34.9282064],[135.3070181,34.9280511],[135.3068219,34.9278614],[135.3067717,34.9278125],[135.3067100,34.9276933],[135.3065869,34.9273711],[135.3064636,34.9271922],[135.3062608,34.9269000],[135.3060000,34.9266136],[135.3058478,34.9263633],[135.3058264,34.9262200],[135.3057031,34.9260711],[135.3056233,34.9259339],[135.3056089,34.9257608],[135.3055583,34.9256294],[135.3054606,34.9255042],[135.3054458,34.9253492],[135.3055111,34.9251881],[135.3056532,34.9250000],[135.3056778,34.9249675],[135.3056344,34.9248897],[135.3054678,34.9246511],[135.3054386,34.9245261],[135.3054458,34.9242756],[135.3055475,34.9238697],[135.3055692,34.9236972],[135.3055619,34.9235719],[135.3054714,34.9234586],[135.3051089,34.9232497],[135.3048264,34.9229872],[135.3045367,34.9226531],[135.3044425,34.9224803],[135.3041308,34.9220089],[135.3038917,34.9216928],[135.3035078,34.9213886],[135.3031600,34.9212214],[135.3028122,34.9211739],[135.3027686,34.9211903],[135.3026531,34.9212333],[135.3025950,34.9213289],[135.3025589,34.9215197],[135.3025225,34.9218419],[135.3024822,34.9220111],[135.3024644,34.9220864],[135.3023053,34.9223550],[135.3020697,34.9226175],[135.3017944,34.9228442],[135.3014756,34.9230169],[135.3011350,34.9232136],[135.3010117,34.9233211],[135.3008958,34.9235178],[135.3007147,34.9239892],[135.3003706,34.9246333],[135.3002256,34.9249436],[135.3001920,34.9250000],[135.3000661,34.9252119],[135.3000000,34.9253110],[135.2997836,34.9256353],[135.2995375,34.9259931],[135.2994578,34.9260350],[135.2992622,34.9260708],[135.2989506,34.9260528],[135.2987839,34.9260589],[135.2984578,34.9261364],[135.2983275,34.9262019],[135.2982261,34.9263511],[135.2981172,34.9266375],[135.2980450,34.9267328],[135.2978672,34.9268222],[135.2973675,34.9270431],[135.2967225,34.9274247],[135.2961358,34.9277586],[135.2959186,34.9278542],[135.2957592,34.9278778],[135.2954331,34.9279675],[135.2952339,34.9280281],[135.2950417,34.9280867],[135.2946867,34.9281822],[135.2944547,34.9281942],[135.2942556,34.9281642],[135.2938353,34.9280569],[135.2935383,34.9279375],[135.2933136,34.9278897],[135.2927631,34.9276511],[135.2923792,34.9274244],[135.2919589,34.9271503],[135.2917080,34.9270334],[135.2916667,34.9270142],[135.2916256,34.9269950],[135.2912417,34.9268817],[135.2908975,34.9268458],[135.2905061,34.9268936],[135.2902961,34.9269592],[135.2901439,34.9269772],[135.2894556,34.9267981],[135.2892308,34.9266908],[135.2889556,34.9264700],[135.2886153,34.9263269],[135.2878761,34.9260286],[135.2870175,34.9257186],[135.2869378,34.9256469],[135.2869378,34.9255036],[135.2869781,34.9253339],[135.2870464,34.9250444],[135.2870454,34.9250000],[135.2870392,34.9247222],[135.2870536,34.9241678],[135.2870453,34.9241283],[135.2869886,34.9238636],[135.2868981,34.9237264],[135.2865211,34.9236011],[135.2861950,34.9235117],[135.2857606,34.9233506],[135.2855289,34.9231894],[135.2853550,34.9231058],[135.2852028,34.9230225],[135.2850289,34.9229747],[135.2848042,34.9229508],[135.2845722,34.9228375],[135.2843042,34.9227481],[135.2841739,34.9227778],[135.2841447,34.9229867],[135.2840072,34.9230822],[135.2835325,34.9227242],[135.2833333,34.9226402],[135.2829383,34.9224736],[135.2826486,34.9222767],[135.2824239,34.9221456],[135.2822211,34.9220619],[135.2819894,34.9218533],[135.2819386,34.9217400],[135.2817867,34.9214239],[135.2816850,34.9212508],[135.2815258,34.9211136],[135.2812794,34.9210003],[135.2811633,34.9209347],[135.2810403,34.9208989],[135.2808664,34.9208928],[135.2807142,34.9208272],[135.2804969,34.9207019],[135.2801525,34.9206781],[135.2795947,34.9206900],[135.2792178,34.9206722],[135.2788772,34.9206125],[135.2785658,34.9206364],[135.2781592,34.9206847],[135.2779875,34.9207050],[135.2778258,34.9207242],[135.2778042,34.9207267],[135.2777111,34.9207378],[135.2767692,34.9206244],[135.2765881,34.9205647],[135.2763631,34.9203914],[135.2760964,34.9201106],[135.2759475,34.9198944],[135.2757467,34.9193908],[135.2756669,34.9190669],[135.2755511,34.9187867],[135.2754353,34.9183911],[135.2753631,34.9180850],[135.2752833,34.9175761],[135.2752328,34.9172778],[135.2752256,34.9170436],[135.2752400,34.9168828],[135.2752700,34.9166667],[135.2752833,34.9165706],[135.2753122,34.9163978],[135.2753342,34.9160439],[135.2753703,34.9157797],[135.2754208,34.9155511],[135.2754789,34.9153722],[135.2755150,34.9152469],[135.2756236,34.9150842],[135.2757394,34.9149528],[135.2757756,34.9148753],[135.2757756,34.9147619],[135.2757539,34.9145833],[135.2757972,34.9144403],[135.2759275,34.9142792],[135.2760144,34.9141419],[135.2763331,34.9138322],[135.2764269,34.9137250],[135.2765139,34.9134786],[135.2765461,34.9133772],[135.2765575,34.9133414],[135.2765500,34.9131861],[135.2764922,34.9126714],[135.2764922,34.9124431],[135.2765575,34.9122997],[135.2765936,34.9122461],[135.2767744,34.9120972],[135.2772233,34.9117972],[135.2774839,34.9115883],[135.2777011,34.9113917],[135.2778386,34.9112425],[135.2779156,34.9111450],[135.2779328,34.9111231],[135.2779833,34.9109842],[135.2779906,34.9108111],[135.2779328,34.9106800],[135.2778603,34.9105964],[135.2774042,34.9100917],[135.2770306,34.9097956],[135.2768397,34.9096442],[135.2766886,34.9095136],[135.2765500,34.9093936],[135.2763692,34.9092147],[135.2762028,34.9090717],[135.2761086,34.9089286],[135.2761014,34.9087881],[135.2761231,34.9086447],[135.2762100,34.9085075],[135.2762931,34.9083333],[135.2763039,34.9083108],[135.2763619,34.9081856],[135.2763981,34.9080661],[135.2764269,34.9078931],[135.2764561,34.9074864],[135.2764706,34.9072478],[135.2764706,34.9070747],[135.2764994,34.9069256],[135.2765500,34.9068242],[135.2766731,34.9067108],[135.2770403,34.9063911],[135.2773225,34.9061347],[135.2774614,34.9060372],[135.2775181,34.9059975],[135.2776750,34.9058211],[135.2777328,34.9057256],[135.2777183,34.9055150],[135.2776678,34.9053658],[135.2776025,34.9052228],[135.2772356,34.9046267],[135.2771633,34.9044894],[135.2771197,34.9043583],[135.2770908,34.9042747],[135.2770908,34.9041794],[135.2771269,34.9040900],[135.2772139,34.9039886],[135.2773731,34.9038572],[135.2775614,34.9037261],[135.2776700,34.9036247],[135.2779522,34.9034339],[135.2779667,34.9033564],[135.2779450,34.9032669],[135.2776214,34.9028858],[135.2775553,34.9028143],[135.2775056,34.9027606],[135.2773681,34.9026711],[135.2771219,34.9025578],[135.2768564,34.9024367],[135.2766825,34.9023172],[135.2766103,34.9021561],[135.2765739,34.9020069],[135.2765739,34.9017744],[135.2765958,34.9014486],[135.2765378,34.9010669],[135.2762700,34.9009239],[135.2760892,34.9008044],[135.2760964,34.9004608],[135.2760964,34.9003297],[135.2760744,34.9002103],[135.2760441,34.9000000],[135.2760383,34.8999597],[135.2758575,34.8995147],[135.2757922,34.8993839],[135.2757489,34.8992644],[135.2756619,34.8989900],[135.2756619,34.8988911],[135.2757344,34.8987358],[135.2758211,34.8985928],[135.2759661,34.8983422],[135.2759981,34.8982853],[135.2761903,34.8979425],[135.2762047,34.8978536],[135.2761614,34.8976747],[135.2760817,34.8975494],[135.2760022,34.8974225],[135.2759514,34.8973150],[135.2759193,34.8972650],[135.2758864,34.8972136],[135.2757489,34.8970883],[135.2756186,34.8969750],[135.2755100,34.8967961],[135.2754664,34.8966647],[135.2754519,34.8965119],[135.2754664,34.8963808],[135.2754956,34.8962556],[135.2755606,34.8960944],[135.2756042,34.8959575],[135.2756186,34.8958083],[135.2755317,34.8956975],[135.2753581,34.8956258],[135.2752422,34.8956019],[135.2750972,34.8955900],[135.2750000,34.8955863],[135.2749453,34.8955842],[135.2748586,34.8955364],[135.2748367,34.8954828],[135.2747933,34.8953097],[135.2747789,34.8951906],[135.2747064,34.8950592],[135.2745617,34.8948408],[135.2744603,34.8946978],[135.2744473,34.8946513],[135.2744386,34.8946200],[135.2744386,34.8945544],[135.2744675,34.8943814],[135.2746197,34.8941192],[135.2747789,34.8937217],[135.2748006,34.8936083],[135.2747933,34.8934472],[135.2747356,34.8933103],[135.2746847,34.8931850],[135.2746703,34.8931072],[135.2747064,34.8930178],[135.2748586,34.8928175],[135.2750000,34.8926668],[135.2750322,34.8926325],[135.2752111,34.8924142],[135.2752275,34.8923939],[135.2756644,34.8919372],[135.2759106,34.8916667],[135.2760119,34.8915553],[135.2763739,34.8912272],[135.2766853,34.8909589],[135.2769667,34.8907269],[135.2770544,34.8906547],[135.2771739,34.8905800],[135.2772642,34.8905233],[135.2773444,34.8904547],[135.2774453,34.8903683],[135.2775136,34.8903317],[135.2776117,34.8902789],[135.2779950,34.8901117],[135.2780339,34.8900886],[135.2782419,34.8899656],[135.2784444,34.8898178],[135.2784953,34.8897808],[135.2789297,34.8894825],[135.2791903,34.8892856],[135.2793856,34.8891244],[135.2795014,34.8890111],[135.2795811,34.8888825],[135.2796031,34.8888503],[135.2796755,34.8887431],[135.2797547,34.8886261],[135.2798008,34.8885464],[135.2798994,34.8883756],[135.2803336,34.8874431],[135.2804278,34.8872106],[135.2804856,34.8869361],[135.2805364,34.8866917],[135.2804422,34.8861964],[135.2804206,34.8860472],[135.2803958,34.8857475],[135.2805653,34.8856067],[135.2808692,34.8852489],[135.2810647,34.8850519],[135.2810819,34.8850342],[135.2811783,34.8849350],[135.2814389,34.8847322],[135.2816778,34.8845472],[135.2817933,34.8844458],[135.2818875,34.8843289],[135.2821119,34.8841144],[135.2823072,34.8839175],[135.2824447,34.8837447],[135.2825678,34.8834881],[135.2826698,34.8833333],[135.2827053,34.8832794],[135.2828458,34.8829578],[135.2829617,34.8826953],[135.2830992,34.8823178],[135.2832294,34.8820136],[135.2833019,34.8818883],[135.2833333,34.8818066],[135.2833936,34.8816497],[135.2834250,34.8815683],[135.2835767,34.8812761],[135.2837431,34.8809881],[135.2837719,34.8809419],[135.2838444,34.8808269],[135.2839675,34.8806778],[135.2840978,34.8805764],[135.2842569,34.8804869],[135.2844381,34.8804153],[135.2845856,34.8803044],[135.2846364,34.8801850],[135.2847161,34.8800597],[135.2848172,34.8799822],[135.2849258,34.8798989],[135.2850200,34.8798272],[135.2851936,34.8796839],[135.2853531,34.8795528],[135.2854542,34.8794275],[135.2855192,34.8792808],[135.2856061,34.8790839],[135.2856422,34.8789169],[135.2856422,34.8787600],[135.2856206,34.8785933],[135.2855192,34.8782753],[135.2853744,34.8779292],[135.2852731,34.8775814],[135.2852369,34.8774144],[135.2852117,34.8772786],[135.2851717,34.8770650],[135.2851500,34.8769097],[135.2851717,34.8767250],[135.2852153,34.8765025],[135.2852875,34.8761564],[135.2854406,34.8755553],[135.2854456,34.8755358],[135.2854758,34.8754172],[135.2856061,34.8751250],[135.2856485,34.8750000],[135.2856567,34.8749758],[135.2857075,34.8748267],[135.2857147,34.8746536],[135.2857075,34.8744789],[135.2856925,34.8741628],[135.2857000,34.8739300],[135.2857217,34.8737894],[135.2857867,34.8736044],[135.2858808,34.8734375],[135.2860286,34.8731356],[135.2861369,34.8728789],[135.2862094,34.8726347],[135.2862819,34.8724439],[135.2862964,34.8722708],[135.2863325,34.8718617],[135.2863542,34.8716944],[135.2864122,34.8715872],[135.2865642,34.8713825],[135.2866583,34.8711319],[135.2867811,34.8707861],[135.2868678,34.8706667],[135.2870589,34.8705139],[135.2872328,34.8704603],[135.2873631,34.8703947],[135.2875222,34.8703231],[135.2875803,34.8702397],[135.2876669,34.8700131],[135.2878747,34.8695142],[135.2879544,34.8693294],[135.2880414,34.8692219],[135.2881833,34.8691417],[135.2883942,34.8690222],[135.2884206,34.8690072],[135.2885869,34.8689178],[135.2888039,34.8688878],[135.2891586,34.8688997],[135.2893033,34.8688461],[135.2893872,34.8688128],[135.2894989,34.8687686],[135.2898297,34.8685722],[135.2899019,34.8685008],[135.2899456,34.8684231],[135.2899528,34.8683336],[135.2899092,34.8680831],[135.2899528,34.8679264],[135.2900106,34.8677950],[135.2900975,34.8676697],[135.2903364,34.8674253],[135.2904450,34.8673178],[135.2905750,34.8670458],[135.2907008,34.8667981],[135.2907053,34.8667892],[135.2907631,34.8666667],[135.2908067,34.8665744],[135.2908789,34.8665567],[135.2909381,34.8666294],[135.2909658,34.8666639],[135.2909745,34.8666667],[135.2910961,34.8667058],[135.2912481,34.8667417],[135.2913422,34.8667297],[135.2914135,34.8666667],[135.2914436,34.8666400],[135.2915522,34.8665089],[135.2916667,34.8663853],[135.2919719,34.8660556],[135.2919369,34.8654714],[135.2919367,34.8654633],[135.2919328,34.8654000],[135.2919150,34.8651011],[135.2918914,34.8647064],[135.2918861,34.8646200],[135.2918778,34.8644781],[135.2918633,34.8642633],[135.2918706,34.8640903],[135.2918922,34.8639411],[135.2919286,34.8637978],[135.2920078,34.8636728],[135.2921961,34.8634842],[135.2924278,34.8632575],[135.2926086,34.8630069],[135.2927678,34.8627861],[135.2928983,34.8625058],[135.2930089,34.8621931],[135.2931039,34.8619247],[135.2931297,34.8618519],[135.2932947,34.8617897],[135.2934772,34.8617208],[135.2936292,34.8616253],[135.2937450,34.8615119],[135.2938389,34.8613269],[135.2938611,34.8611647],[135.2938211,34.8610164],[135.2937114,34.8608353],[135.2935714,34.8606869],[135.2934514,34.8605797],[135.2934042,34.8605458],[135.2932914,34.8604644],[135.2931614,34.8603161],[135.2930614,34.8602089],[135.2929914,34.8600439],[135.2929314,34.8598875],[135.2929614,34.8597394],[135.2930514,34.8595664],[135.2930947,34.8595039],[135.2931339,34.8594475],[135.2931714,34.8593933],[135.2932614,34.8592944],[135.2934414,34.8592036],[135.2934467,34.8592022],[135.2936017,34.8591658],[135.2936511,34.8591542],[135.2938411,34.8591542],[135.2940211,34.8591503],[135.2942211,34.8591458],[135.2948911,34.8591789],[135.2952811,34.8591872],[135.2955411,34.8591789],[135.2957197,34.8591011],[135.2960508,34.8589564],[135.2963808,34.8587917],[135.2966061,34.8587164],[135.2966097,34.8587150],[135.2966350,34.8587067],[135.2967164,34.8587033],[135.2968450,34.8586983],[135.2971750,34.8587314],[135.2975850,34.8588056],[135.2981650,34.8588881],[135.2987147,34.8589783],[135.2989992,34.8590439],[135.2996789,34.8592008],[135.2999817,34.8592378],[135.3000000,34.8592400],[135.3000189,34.8592422],[135.3004489,34.8592997],[135.3007189,34.8593244],[135.3007856,34.8593161],[135.3009186,34.8592997],[135.3011975,34.8592997],[135.3011986,34.8592997],[135.3013886,34.8592750],[135.3014306,34.8592603],[135.3015986,34.8592008],[135.3018386,34.8590667],[135.3018786,34.8590444],[135.3019486,34.8589042],[135.3019286,34.8587394],[135.3018847,34.8586253],[135.3018686,34.8585828],[135.3017586,34.8583686],[135.3017528,34.8583608],[135.3017329,34.8583333],[135.3016789,34.8582583],[135.3015386,34.8580639],[135.3012686,34.8577672],[135.3009086,34.8574300],[135.3006489,34.8571828],[135.3003989,34.8569850],[135.3002189,34.8567956],[135.3000389,34.8565894],[135.3000000,34.8565287],[135.2998489,34.8562928],[135.2997389,34.8561114],[135.2996789,34.8559300],[135.2996189,34.8557489],[135.2996089,34.8554769],[135.2996189,34.8552872],[135.2996489,34.8550567],[135.2996989,34.8549167],[135.2997889,34.8547847],[135.3000000,34.8545746],[135.3000289,34.8545458],[135.3000417,34.8545367],[135.3003669,34.8543019],[135.3006669,34.8541453],[135.3009028,34.8540744],[135.3009967,34.8540464],[135.3011967,34.8540300],[135.3014072,34.8540439],[135.3014467,34.8540464],[135.3017767,34.8541453],[135.3023267,34.8543431],[135.3026367,34.8544750],[135.3028267,34.8545408],[135.3028931,34.8545481],[135.3030567,34.8545656],[135.3033867,34.8545822],[135.3036381,34.8545769],[135.3038164,34.8545736],[135.3041667,34.8545825],[135.3047764,34.8545983],[135.3053067,34.8546478],[135.3057367,34.8546972],[135.3058247,34.8547167],[135.3058867,34.8547303],[135.3060678,34.8547853],[135.3060956,34.8547936],[135.3062172,34.8548306],[135.3063256,34.8548633],[135.3063517,34.8548714],[135.3065658,34.8549364],[135.3068372,34.8550186],[135.3072372,34.8551669],[135.3075425,34.8552892],[135.3075514,34.8552928],[135.3078881,34.8554278],[135.3079575,34.8554556],[135.3083333,34.8556320],[135.3085414,34.8557297],[135.3089845,34.8559938],[135.3090811,34.8560514],[135.3091708,34.8561022],[135.3094311,34.8562492],[135.3095847,34.8563419],[135.3097311,34.8564303],[135.3104611,34.8569578],[135.3108253,34.8572347],[135.3111753,34.8574656],[135.3115150,34.8576717],[135.3118350,34.8578611],[135.3120850,34.8579847],[135.3125250,34.8581822],[135.3126992,34.8582506],[135.3129692,34.8583169],[135.3130642,34.8583333],[135.3131592,34.8583497],[135.3133492,34.8583497],[135.3133700,34.8583453],[135.3134251,34.8583333],[135.3135392,34.8583086],[135.3139292,34.8581519],[135.3142092,34.8579461],[135.3145792,34.8576081],[135.3149303,34.8571994],[135.3152003,34.8568697],[135.3152786,34.8567525],[135.3154203,34.8565400],[135.3154903,34.8564081],[135.3155403,34.8562269],[135.3155403,34.8556583],[135.3155642,34.8553025],[135.3155703,34.8552133],[135.3155803,34.8548647],[135.3156303,34.8546506],[135.3157303,34.8543044],[135.3158403,34.8539417],[135.3159303,34.8536978],[135.3160203,34.8534094],[135.3161203,34.8530383],[135.3161103,34.8526769],[135.3161103,34.8525617],[135.3160503,34.8524214],[135.3159450,34.8522481],[135.3157903,34.8519928],[135.3153242,34.8514564],[135.3152703,34.8513944],[135.3151308,34.8512192],[135.3148903,34.8509167],[135.3148761,34.8509003],[135.3146803,34.8506775],[135.3145456,34.8504869],[135.3145189,34.8504494],[135.3143303,34.8501831],[135.3141822,34.8500000],[135.3141703,34.8499853],[135.3140869,34.8498756],[135.3140067,34.8497703],[135.3138800,34.8496036],[135.3138100,34.8494058],[135.3137400,34.8492000],[135.3137100,34.8490550],[135.3137103,34.8488572],[135.3137703,34.8486925],[135.3140300,34.8483544],[135.3143003,34.8480661],[135.3146258,34.8477450],[135.3148103,34.8475633],[135.3149842,34.8474347],[135.3154642,34.8472453],[135.3160342,34.8469486],[135.3162036,34.8468025],[135.3162542,34.8467592],[135.3163642,34.8465533],[135.3163742,34.8463506],[135.3163642,34.8462022],[135.3163642,34.8460539],[135.3164442,34.8458394],[135.3166242,34.8455592],[135.3166667,34.8455276],[135.3167242,34.8454850],[135.3169142,34.8454108],[135.3171400,34.8452733],[135.3171442,34.8452708],[135.3171456,34.8452689],[135.3172342,34.8451389],[135.3173842,34.8448372],[135.3174442,34.8446642],[135.3175342,34.8445078],[135.3177744,34.8441536],[135.3178933,34.8439969],[135.3180283,34.8438189],[135.3181383,34.8437119],[135.3183283,34.8434150],[135.3184783,34.8431597],[135.3184883,34.8431300],[135.3185497,34.8429461],[135.3185583,34.8429206],[135.3185983,34.8426322],[135.3187183,34.8422836],[135.3187981,34.8421192],[135.3188183,34.8420778],[135.3190181,34.8416906],[135.3190286,34.8416667],[135.3192281,34.8412158],[135.3193481,34.8410097],[135.3194581,34.8408614],[135.3195881,34.8407461],[135.3199381,34.8405564],[135.3202753,34.8404139],[135.3204053,34.8403233],[135.3205053,34.8402242],[135.3206753,34.8399278],[135.3208553,34.8395744],[135.3209453,34.8393022],[135.3209753,34.8391211],[135.3210153,34.8387419],[135.3209953,34.8384122],[135.3209953,34.8382119],[135.3209892,34.8380656],[135.3209753,34.8377425],[135.3209053,34.8372925],[135.3208753,34.8370122],[135.3208753,34.8368886],[135.3208853,34.8367733],[135.3209553,34.8366333],[135.3210022,34.8365675],[135.3210747,34.8364219],[135.3211758,34.8363325],[135.3212006,34.8363156],[135.3213422,34.8362192],[135.3214417,34.8361614],[135.3215375,34.8361058],[135.3216342,34.8360706],[135.3217183,34.8360400],[135.3217986,34.8360164],[135.3219208,34.8359806],[135.3224992,34.8357956],[135.3226836,34.8356853],[135.3229656,34.8355722],[135.3231969,34.8354528],[135.3234067,34.8352797],[135.3236308,34.8350711],[135.3238983,34.8348086],[135.3241078,34.8345819],[135.3242886,34.8343731],[135.3244514,34.8340361],[135.3246322,34.8337258],[135.3247550,34.8334633],[135.3248025,34.8333333],[135.3248203,34.8332847],[135.3248853,34.8330581],[135.3249219,34.8328564],[135.3249936,34.8324614],[135.3250000,34.8324264],[135.3250333,34.8322436],[135.3250411,34.8320706],[135.3250556,34.8318142],[135.3250917,34.8316053],[135.3250844,34.8313906],[135.3250628,34.8310267],[135.3250483,34.8308064],[135.3250556,34.8307108],[135.3250917,34.8305794],[135.3251314,34.8304094],[135.3252183,34.8299475],[135.3252325,34.8298728],[135.3252833,34.8293956],[135.3252689,34.8292583],[135.3252108,34.8290553],[135.3252000,34.8290294],[135.3251314,34.8288644],[135.3250592,34.8287033],[135.3250000,34.8285923],[135.3248892,34.8283842],[135.3247633,34.8282383],[135.3247144,34.8281817],[135.3245347,34.8279731],[135.3242311,34.8275494],[135.3240525,34.8273131],[135.3239925,34.8272333],[135.3237256,34.8269197],[135.3235661,34.8267322],[135.3235419,34.8267067],[135.3233925,34.8265472],[135.3233358,34.8264797],[135.3232844,34.8264186],[135.3231322,34.8262369],[135.3233647,34.8261642],[135.3247769,34.8257214],[135.3244574,34.8250000],[135.3244228,34.8249219],[135.3246309,34.8248361],[135.3250000,34.8246838],[135.3257211,34.8243864],[135.3257678,34.8243672],[135.3260136,34.8246356],[135.3261728,34.8247847],[135.3263281,34.8249131],[135.3264609,34.8250000],[135.3266103,34.8250978],[135.3270294,34.8254558],[135.3271522,34.8255989],[135.3275644,34.8262194],[135.3276656,34.8263806],[135.3278103,34.8264997],[135.3280344,34.8265533],[135.3281900,34.8265506],[135.3289925,34.8264253],[135.3291433,34.8263656],[135.3291733,34.8263536],[135.3292600,34.8262522],[135.3293036,34.8261389],[135.3293469,34.8258644],[135.3293614,34.8256914],[135.3294336,34.8254947],[135.3295517,34.8253192],[135.3295783,34.8252797],[135.3297083,34.8250889],[135.3297831,34.8250000],[135.3298386,34.8249339],[135.3299761,34.8247967],[135.3299936,34.8247840],[135.3301494,34.8246717],[135.3307964,34.8243167],[135.3314328,34.8239828],[135.3315558,34.8238753],[135.3316425,34.8237858],[135.3316931,34.8236664],[135.3317294,34.8234636],[135.3317439,34.8232847],[135.3317547,34.8231206],[135.3318053,34.8229833],[135.3319064,34.8228344],[135.3320872,34.8226497],[135.3322825,34.8225303],[135.3325356,34.8223514],[135.3328972,34.8221664],[135.3330128,34.8220889],[135.3330064,34.8220772],[135.3329767,34.8220233],[135.3329314,34.8219651],[135.3329117,34.8219397],[135.3327733,34.8218208],[135.3325022,34.8215875],[135.3324056,34.8215042],[135.3322392,34.8211642],[135.3321814,34.8210092],[135.3322319,34.8208361],[135.3322897,34.8207525],[135.3326183,34.8203611],[135.3326622,34.8203086],[135.3327344,34.8201833],[135.3328719,34.8201414],[135.3332622,34.8201117],[135.3333333,34.8200797],[135.3333419,34.8200758],[135.3333853,34.8200342],[135.3335661,34.8197239],[135.3335828,34.8196939],[135.3338119,34.8192825],[135.3340975,34.8188261],[135.3341914,34.8187369],[135.3342417,34.8186894],[135.3343867,34.8185519],[135.3343900,34.8185461],[135.3344158,34.8185017],[135.3344417,34.8184578],[135.3346822,34.8180456],[135.3347556,34.8179197],[135.3348425,34.8178242],[135.3352544,34.8177228],[135.3356739,34.8176094],[135.3358075,34.8175622],[135.3361908,34.8174275],[135.3367331,34.8172606],[135.3368814,34.8172267],[135.3371525,34.8171650],[135.3372464,34.8171114],[135.3373622,34.8169800],[135.3374056,34.8168014],[135.3374181,34.8166772],[135.3374191,34.8166667],[135.3374211,34.8166458],[135.3374272,34.8165867],[135.3374319,34.8165719],[135.3374778,34.8164314],[135.3377383,34.8160975],[135.3378106,34.8159125],[135.3378106,34.8158169],[135.3377845,34.8157108],[135.3377430,34.8154813],[135.3376464,34.8155385],[135.3375498,34.8153624],[135.3373004,34.8150563],[135.3371582,34.8150519],[135.3364615,34.8145998],[135.3359116,34.8141176],[135.3355102,34.8136357],[135.3353519,34.8137260],[135.3353036,34.8136687],[135.3350515,34.8137832],[135.3347887,34.8140144],[135.3344748,34.8139153],[135.3346197,34.8133824],[135.3338001,34.8129262],[135.3336446,34.8131640],[135.3333333,34.8138135],[135.3332583,34.8139700],[135.3326253,34.8137674],[135.3323356,34.8136353],[135.3319972,34.8133133],[135.3319828,34.8132944],[135.3317297,34.8129672],[135.3313681,34.8125258],[135.3312525,34.8124064],[135.3310933,34.8123169],[135.3309161,34.8122244],[135.3307283,34.8120933],[135.3304464,34.8118725],[135.3300775,34.8117114],[135.3299331,34.8116281],[135.3297667,34.8114850],[135.3296508,34.8112822],[135.3295553,34.8111489],[135.3295353,34.8111211],[135.3294775,34.8110436],[135.3292097,34.8109364],[135.3290725,34.8108467],[135.3287686,34.8106797],[135.3285589,34.8106439],[135.3279636,34.8104878],[135.3279339,34.8104800],[135.3274058,34.8103486],[135.3267767,34.8101281],[135.3266106,34.8100503],[135.3264297,34.8099489],[135.3262922,34.8098417],[135.3262802,34.8098309],[135.3259669,34.8095494],[135.3256994,34.8093047],[135.3255622,34.8091675],[135.3253597,34.8090303],[135.3250000,34.8088828],[135.3246836,34.8087531],[135.3244108,34.8086431],[135.3236374,34.8083333],[135.3226447,34.8079358],[135.3217472,34.8075825],[135.3215239,34.8074944],[135.3211875,34.8074019],[135.3203197,34.8072828],[135.3197272,34.8071992],[135.3193800,34.8070739],[135.3191342,34.8069786],[135.3189606,34.8069189],[135.3187508,34.8069069],[135.3185267,34.8069428],[135.3183317,34.8069606],[135.3181581,34.8071156],[135.3177783,34.8075364],[135.3175469,34.8079417],[135.3175287,34.8083333],[135.3175181,34.8085619],[135.3175614,34.8090392],[135.3175108,34.8093911],[135.3174458,34.8095044],[135.3173372,34.8095044],[135.3172181,34.8093644],[135.3171081,34.8092719],[135.3168625,34.8090653],[135.3168492,34.8090542],[135.3166667,34.8089171],[135.3165744,34.8088478],[135.3163575,34.8086844],[135.3163117,34.8086164],[135.3161205,34.8083333],[135.3160031,34.8081594],[135.3155911,34.8077358],[135.3154103,34.8076600],[135.3153644,34.8076397],[135.3152222,34.8075767],[135.3148822,34.8073736],[135.3146472,34.8072339],[135.3144808,34.8071086],[135.3143364,34.8069772],[135.3142567,34.8068758],[135.3137939,34.8064225],[135.3136061,34.8062494],[135.3128181,34.8057067],[135.3126372,34.8055756],[135.3124708,34.8054858],[135.3122722,34.8054114],[135.3116864,34.8054114],[135.3114911,34.8053936],[135.3112814,34.8053458],[135.3110789,34.8052683],[135.3099581,34.8048031],[135.3088772,34.8042989],[135.3084144,34.8040725],[135.3083333,34.8040334],[135.3077708,34.8037622],[135.3073806,34.8036131],[135.3067372,34.8034044],[135.3062817,34.8032314],[135.3060378,34.8031319],[135.3054247,34.8028822],[135.3051546,34.8027439],[135.3050053,34.8026675],[135.3042461,34.8023633],[135.3040581,34.8023097],[135.3038556,34.8022978],[135.3034219,34.8023336],[135.3025831,34.8023514],[135.3023878,34.8023514],[135.3021853,34.8023097],[135.3019683,34.8022442],[135.3018889,34.8021664],[135.3018456,34.8020831],[135.3018383,34.8019100],[135.3018456,34.8017489],[135.3018519,34.8017272],[135.3018997,34.8015669],[135.3019358,34.8014119],[135.3019792,34.8011075],[135.3019806,34.8011020],[135.3020081,34.8009944],[135.3021167,34.8008217],[135.3021728,34.8007681],[135.3022975,34.8006486],[135.3024492,34.8004756],[135.3027025,34.8002192],[135.3028253,34.8000997],[135.3028959,34.8000000],[135.3029267,34.7999567],[135.3031328,34.7996911],[135.3033350,34.7993272],[135.3033931,34.7992019],[135.3034653,34.7989872],[135.3034869,34.7988381],[135.3034581,34.7986533],[135.3034364,34.7984567],[135.3034386,34.7984456],[135.3034797,34.7982478],[135.3036642,34.7978392],[135.3037606,34.7976347],[135.3039533,34.7972247],[135.3044109,34.7963344],[135.3046078,34.7959514],[135.3046797,34.7957699],[135.3049767,34.7950208],[135.3050200,34.7948536],[135.3050922,34.7949550],[135.3051936,34.7950208],[135.3053453,34.7950386],[135.3054900,34.7950147],[135.3055986,34.7948894],[135.3056419,34.7947822],[135.3057936,34.7948000],[135.3059236,34.7947761],[135.3060250,34.7946867],[135.3060175,34.7945614],[135.3059742,34.7944303],[135.3059958,34.7941800],[135.3060394,34.7940486],[135.3061225,34.7939442],[135.3061947,34.7938608],[135.3063250,34.7937892],[135.3064769,34.7937414],[135.3067083,34.7937056],[135.3071047,34.7935794],[135.3072144,34.7935444],[135.3076050,34.7934133],[135.3080097,34.7932403],[135.3081842,34.7931722],[135.3082847,34.7931331],[135.3083333,34.7931230],[135.3084003,34.7931092],[135.3085811,34.7931031],[135.3088486,34.7930614],[135.3098175,34.7929242],[135.3099186,34.7928883],[135.3099258,34.7928286],[135.3098753,34.7927453],[135.3097161,34.7926319],[135.3094706,34.7925128],[135.3092175,34.7924411],[135.3091019,34.7924158],[135.3087547,34.7923397],[135.3084436,34.7923100],[135.3083333,34.7922983],[135.3078544,34.7922472],[135.3074133,34.7922172],[135.3072292,34.7921833],[135.3072181,34.7921814],[135.3070950,34.7921456],[135.3069722,34.7921158],[135.3069056,34.7920881],[135.3066467,34.7919789],[135.3064586,34.7918953],[135.3062347,34.7917881],[135.3060614,34.7916806],[135.3060072,34.7916667],[135.3059478,34.7916514],[135.3059456,34.7916508],[135.3057214,34.7916211],[135.3055261,34.7915911],[135.3053019,34.7915375],[135.3048753,34.7914003],[135.3046114,34.7912900],[135.3044306,34.7911586],[135.3041847,34.7909856],[135.3039822,34.7908961],[135.3033753,34.7906694],[135.3029847,34.7905322],[135.3028183,34.7904131],[135.3026956,34.7902222],[135.3024494,34.7900133],[135.3022689,34.7898344],[135.3020339,34.7894853],[135.3020047,34.7894197],[135.3019975,34.7893361],[135.3019831,34.7892347],[135.3019542,34.7891333],[135.3018675,34.7889664],[135.3016867,34.7887997],[135.3014842,34.7886444],[135.3013033,34.7885492],[135.3011661,34.7884833],[135.3010647,34.7884058],[135.3009492,34.7882389],[135.3008767,34.7880300],[135.3008911,34.7878869],[135.3011081,34.7877378],[135.3011878,34.7876900],[135.3013831,34.7876542],[135.3015564,34.7875886],[135.3017881,34.7875408],[135.3020047,34.7875767],[135.3021856,34.7876842],[135.3023158,34.7877556],[135.3024242,34.7877794],[135.3025617,34.7877975],[135.3027425,34.7877914],[135.3029631,34.7877289],[135.3029828,34.7877261],[135.3032667,34.7876869],[135.3035053,34.7877108],[135.3038092,34.7877883],[135.3041125,34.7879019],[135.3042933,34.7880092],[135.3048500,34.7884028],[135.3050381,34.7885342],[135.3052550,34.7885939],[135.3061842,34.7887936],[135.3067628,34.7888711],[135.3068856,34.7888711],[135.3069869,34.7888472],[135.3070950,34.7888056],[135.3071964,34.7887281],[135.3074278,34.7886206],[135.3076014,34.7885492],[135.3078111,34.7884953],[135.3080206,34.7884536],[135.3083333,34.7884209],[135.3084183,34.7884119],[135.3088594,34.7884119],[135.3096658,34.7884686],[135.3100128,34.7884983],[135.3104464,34.7885639],[135.3106561,34.7886356],[135.3107431,34.7887131],[135.3107792,34.7888444],[135.3109164,34.7890053],[135.3111406,34.7891008],[135.3113142,34.7891128],[135.3119867,34.7891008],[135.3123339,34.7890472],[135.3126593,34.7889537],[135.3129558,34.7888683],[135.3131147,34.7887489],[135.3137022,34.7886258],[135.3146058,34.7883158],[135.3150669,34.7882511],[135.3155297,34.7882989],[135.3158914,34.7882631],[135.3163542,34.7881439],[135.3166667,34.7880542],[135.3166869,34.7880483],[135.3168361,34.7879147],[135.3170339,34.7877381],[135.3170772,34.7875592],[135.3171931,34.7874281],[135.3173519,34.7872131],[135.3175833,34.7867836],[135.3176556,34.7866169],[135.3177056,34.7865367],[135.3179158,34.7861994],[135.3181183,34.7858056],[135.3181906,34.7854597],[135.3184075,34.7852686],[135.3188269,34.7852447],[135.3191886,34.7852686],[135.3195500,34.7853283],[135.3199261,34.7853044],[135.3201186,34.7852308],[135.3203311,34.7851494],[135.3209698,34.7847724],[135.3218814,34.7842342],[135.3228972,34.7836344],[135.3234074,34.7833333],[135.3244047,34.7827447],[135.3247311,34.7825519],[135.3247961,34.7824625],[135.3249047,34.7822119],[135.3249767,34.7820747],[135.3250000,34.7820169],[135.3250561,34.7818778],[135.3251756,34.7817317],[135.3253492,34.7815886],[135.3256167,34.7813917],[135.3260578,34.7810219],[135.3263108,34.7808550],[135.3264264,34.7808194],[135.3265856,34.7808311],[135.3271967,34.7810847],[135.3281367,34.7813511],[135.3281439,34.7813531],[135.3282236,34.7812936],[135.3282575,34.7812531],[135.3283031,34.7811981],[135.3283897,34.7811803],[135.3284911,34.7811981],[135.3287872,34.7812875],[135.3289308,34.7813389],[135.3307144,34.7819764],[135.3310686,34.7820419],[135.3318331,34.7822156],[135.3318567,34.7822208],[135.3318586,34.7822219],[135.3319722,34.7822925],[135.3319778,34.7823375],[135.3319867,34.7824117],[135.3320133,34.7824144],[135.3321336,34.7824267],[135.3321903,34.7824325],[135.3324569,34.7824594],[135.3330353,34.7824236],[135.3330786,34.7822983],[135.3330931,34.7821614],[135.3331075,34.7819586],[135.3331511,34.7818753],[135.3333333,34.7817997],[135.3339644,34.7815381],[135.3342031,34.7814667],[135.3344492,34.7814367],[135.3346806,34.7814428],[135.3348828,34.7814844],[135.3349986,34.7815381],[135.3350492,34.7816039],[135.3351067,34.7817886],[135.3352369,34.7819856],[135.3354683,34.7819856],[135.3360325,34.7818603],[135.3362197,34.7818075],[135.3366036,34.7816992],[135.3371894,34.7814906],[135.3373703,34.7814486],[135.3380464,34.7813025],[135.3383717,34.7812069],[135.3389428,34.7810281],[135.3404600,34.7805078],[135.3407000,34.7804258],[135.3408408,34.7803453],[135.3409783,34.7801664],[135.3411156,34.7800114],[135.3413181,34.7798919],[135.3415711,34.7796711],[135.3416667,34.7795776],[135.3416869,34.7795578],[135.3417808,34.7793669],[135.3418172,34.7791819],[135.3418533,34.7786928],[135.3418497,34.7785647],[135.3416833,34.7779267],[135.3416700,34.7777008],[135.3416667,34.7776456],[135.3416617,34.7775628],[135.3416667,34.7775520],[135.3417314,34.7774125],[135.3418281,34.7772047],[135.3423197,34.7764411],[135.3423486,34.7762503],[135.3422944,34.7757703],[135.3422800,34.7756094],[135.3423811,34.7754483],[135.3424681,34.7753408],[135.3427572,34.7752575],[135.3430464,34.7752036],[135.3436014,34.7750719],[135.3439041,34.7750000],[135.3442139,34.7749264],[135.3443367,34.7748933],[135.3448142,34.7747653],[135.3451147,34.7746867],[135.3460217,34.7744492],[135.3461394,34.7744211],[135.3462167,34.7744028],[135.3463400,34.7743733],[135.3463508,34.7743706],[135.3463978,34.7743594],[135.3466003,34.7743536],[135.3468317,34.7743953],[135.3469792,34.7744389],[135.3469856,34.7744408],[135.3471136,34.7744789],[135.3473958,34.7745506],[135.3475186,34.7745625],[135.3476200,34.7745506],[135.3478475,34.7744581],[135.3479306,34.7744072],[135.3480131,34.7743572],[135.3480136,34.7743567],[135.3481582,34.7742374],[135.3482742,34.7740942],[135.3488019,34.7738378],[135.3489175,34.7737689],[135.3489647,34.7737406],[135.3490911,34.7736650],[135.3492142,34.7735039],[135.3494117,34.7734411],[135.3494811,34.7734192],[135.3495431,34.7733994],[135.3500000,34.7733943],[135.3511483,34.7733814],[135.3516544,34.7733994],[135.3518878,34.7733606],[135.3519417,34.7733514],[135.3520175,34.7733389],[135.3522617,34.7732981],[135.3529381,34.7732653],[135.3530103,34.7732414],[135.3530897,34.7731697],[135.3532489,34.7728894],[135.3534658,34.7724539],[135.3535514,34.7722706],[135.3535664,34.7722383],[135.3535906,34.7721867],[135.3536400,34.7720803],[135.3536467,34.7720664],[135.3539069,34.7721678],[135.3540119,34.7722214],[135.3543986,34.7724181],[135.3549192,34.7727222],[135.3557722,34.7732747],[135.3561953,34.7735486],[135.3568750,34.7739722],[135.3571331,34.7741219],[135.3572656,34.7741989],[135.3573483,34.7742339],[135.3575764,34.7743300],[135.3576994,34.7743836],[135.3579467,34.7744556],[135.3579625,34.7744600],[135.3579669,34.7744614],[135.3583333,34.7745556],[135.3584550,34.7745869],[135.3586392,34.7746342],[135.3592503,34.7747639],[135.3597203,34.7748639],[135.3602518,34.7750000],[135.3603494,34.7750250],[135.3612111,34.7753258],[135.3620411,34.7756156],[135.3626414,34.7758419],[135.3628506,34.7759336],[135.3628947,34.7759531],[135.3632742,34.7761194],[135.3637586,34.7762567],[135.3642861,34.7763222],[135.3644794,34.7763272],[135.3649661,34.7763400],[135.3655083,34.7763342],[135.3662097,34.7762925],[135.3664267,34.7762744],[135.3666667,34.7762273],[135.3668353,34.7761942],[135.3674283,34.7760331],[135.3679558,34.7759078],[135.3682119,34.7758375],[135.3685850,34.7757350],[135.3687514,34.7756811],[135.3691200,34.7755558],[135.3694239,34.7754425],[135.3696081,34.7753461],[135.3697203,34.7752875],[135.3701558,34.7750000],[135.3701903,34.7749772],[135.3706386,34.7745956],[135.3707544,34.7744781],[135.3709025,34.7743283],[135.3709858,34.7742439],[135.3710419,34.7742131],[135.3710508,34.7742081],[135.3712047,34.7743086],[135.3714339,34.7744586],[135.3714556,34.7745239],[135.3713861,34.7746692],[135.3713758,34.7746908],[135.3712658,34.7747936],[135.3711919,34.7748628],[135.3710658,34.7749800],[135.3710445,34.7750000],[135.3709917,34.7750494],[135.3708369,34.7751933],[135.3706017,34.7754128],[135.3703806,34.7756189],[135.3703747,34.7756244],[135.3700569,34.7758564],[135.3699761,34.7759156],[135.3698097,34.7760369],[135.3697456,34.7760839],[135.3697208,34.7761033],[135.3695936,34.7762031],[135.3695503,34.7763106],[135.3695575,34.7764297],[135.3696517,34.7767458],[135.3696461,34.7768706],[135.3696353,34.7771181],[135.3696297,34.7772469],[135.3697347,34.7774706],[135.3699661,34.7779597],[135.3700094,34.7781328],[135.3699950,34.7783294],[135.3696153,34.7793642],[135.3691092,34.7809094],[135.3691164,34.7809869],[135.3692467,34.7811658],[135.3695942,34.7812244],[135.3704603,34.7813703],[135.3706636,34.7814044],[135.3703475,34.7824050],[135.3703300,34.7824606],[135.3702406,34.7827433],[135.3704258,34.7828961],[135.3704772,34.7829386],[135.3705517,34.7830000],[135.3709681,34.7833333],[135.3710014,34.7833600],[135.3711547,34.7834825],[135.3712747,34.7835786],[135.3715831,34.7838294],[135.3716092,34.7838508],[135.3718578,34.7840533],[135.3720181,34.7841833],[135.3721997,34.7843314],[135.3722569,34.7843750],[135.3723592,34.7844539],[135.3723103,34.7845369],[135.3721997,34.7846950],[135.3721506,34.7847728],[135.3721053,34.7848442],[135.3720661,34.7849200],[135.3720644,34.7849231],[135.3718089,34.7854169],[135.3717150,34.7855900],[135.3714617,34.7860553],[135.3713158,34.7863253],[135.3711942,34.7865503],[135.3711364,34.7866814],[135.3710133,34.7870692],[135.3709550,34.7872889],[135.3708833,34.7875583],[135.3706211,34.7883608],[135.3705969,34.7884356],[135.3705181,34.7886767],[135.3702217,34.7894342],[135.3701908,34.7895281],[135.3701617,34.7896164],[135.3701383,34.7896875],[135.3700806,34.7898486],[135.3700444,34.7899858],[135.3700156,34.7901292],[135.3699644,34.7904775],[135.3699217,34.7907675],[135.3698275,34.7913158],[135.3698014,34.7914817],[135.3697724,34.7916667],[135.3697661,34.7917067],[135.3697686,34.7917561],[135.3697733,34.7918439],[135.3697828,34.7918917],[135.3698167,34.7920644],[135.3697917,34.7921833],[135.3697878,34.7922017],[135.3697661,34.7923150],[135.3697806,34.7923986],[135.3699033,34.7925239],[135.3700236,34.7925864],[135.3701719,34.7926636],[135.3702361,34.7926969],[135.3705297,34.7929100],[135.3708278,34.7931264],[135.3708289,34.7931269],[135.3708750,34.7931606],[135.3708939,34.7931742],[135.3709697,34.7933144],[135.3709842,34.7937081],[135.3710275,34.7938511],[135.3711000,34.7939344],[135.3711614,34.7939417],[135.3712011,34.7939464],[135.3712444,34.7939106],[135.3712306,34.7935244],[135.3712300,34.7935111],[135.3712519,34.7935153],[135.3713253,34.7935289],[135.3715696,34.7935733],[135.3718967,34.7936373],[135.3722016,34.7936944],[135.3725197,34.7937944],[135.3725908,34.7938306],[135.3726717,34.7938719],[135.3727078,34.7936928],[135.3727800,34.7935556],[135.3728450,34.7933767],[135.3729681,34.7931978],[135.3730764,34.7929294],[135.3732067,34.7925536],[135.3732933,34.7924222],[135.3734453,34.7922850],[135.3737128,34.7922792],[135.3740164,34.7923447],[135.3743611,34.7924042],[135.3743633,34.7924044],[135.3745442,34.7924044],[135.3746092,34.7923925],[135.3746961,34.7922611],[135.3747611,34.7922553],[135.3749492,34.7922850],[135.3750000,34.7922997],[135.3750556,34.7923158],[135.3751133,34.7923322],[135.3752175,34.7923625],[135.3753106,34.7923892],[135.3754047,34.7924164],[135.3755003,34.7924267],[135.3755708,34.7924342],[135.3756289,34.7923806],[135.3756939,34.7921597],[135.3757156,34.7918617],[135.3757228,34.7916769],[135.3757195,34.7916667],[135.3756578,34.7914742],[135.3755131,34.7913189],[135.3754914,34.7912653],[135.3755419,34.7911578],[135.3757011,34.7909969],[135.3758458,34.7910444],[135.3760192,34.7911339],[135.3761061,34.7911281],[135.3762072,34.7910564],[135.3763158,34.7909133],[135.3763447,34.7908089],[135.3763086,34.7906061],[135.3762869,34.7904569],[135.3763592,34.7904092],[135.3764458,34.7904511],[135.3765039,34.7905881],[135.3765039,34.7906983],[135.3765039,34.7908567],[135.3764822,34.7910356],[135.3764242,34.7912444],[135.3764314,34.7913994],[135.3764822,34.7914650],[135.3766019,34.7915367],[135.3766122,34.7915428],[135.3768147,34.7915606],[135.3769811,34.7915367],[135.3770967,34.7914889],[135.3771764,34.7913517],[135.3773208,34.7910297],[135.3774006,34.7909519],[135.3775956,34.7909283],[135.3776992,34.7909408],[135.3777906,34.7909519],[135.3779208,34.7909044],[135.3780944,34.7907792],[135.3781739,34.7907253],[135.3782461,34.7907433],[135.3784414,34.7908744],[135.3784847,34.7909819],[135.3784703,34.7911011],[135.3784631,34.7912564],[135.3784342,34.7913339],[135.3783764,34.7914592],[135.3783836,34.7915547],[135.3784194,34.7916072],[135.3784602,34.7916667],[135.3784825,34.7916992],[135.3785303,34.7917692],[135.3786078,34.7918828],[135.3786439,34.7920139],[135.3787669,34.7922286],[135.3788536,34.7923003],[135.3789983,34.7923419],[135.3792803,34.7923481],[135.3793597,34.7923897],[135.3793814,34.7929025],[135.3793958,34.7930397],[135.3794828,34.7932544],[135.3795622,34.7934006],[135.3795911,34.7935200],[135.3796347,34.7936033],[135.3796853,34.7938061],[135.3797163,34.7938987],[135.3797575,34.7940211],[135.3800656,34.7944225],[135.3801494,34.7945314],[135.3802217,34.7946256],[135.3803053,34.7947347],[135.3804442,34.7949158],[135.3805311,34.7949994],[135.3807697,34.7951961],[135.3809503,34.7952856],[135.3812542,34.7954050],[135.3817083,34.7955656],[135.3819028,34.7956344],[135.3819572,34.7956539],[135.3819700,34.7956583],[135.3822158,34.7956939],[135.3823894,34.7957058],[135.3824978,34.7956819],[135.3826064,34.7955869],[135.3827003,34.7954914],[135.3827872,34.7954436],[135.3829389,34.7954617],[135.3830981,34.7955214],[135.3832933,34.7955928],[135.3833333,34.7956311],[135.3834306,34.7957242],[135.3834231,34.7958850],[135.3833942,34.7961117],[135.3833333,34.7962054],[135.3832858,34.7962786],[135.3830114,34.7965708],[135.3829889,34.7966039],[135.3822156,34.7977356],[135.3820931,34.7979147],[135.3818458,34.7983467],[135.3817711,34.7984769],[135.3815506,34.7988628],[135.3813408,34.7992386],[135.3809368,34.8000000],[135.3807189,34.8004106],[135.3805350,34.8007389],[135.3804850,34.8008281],[135.3804553,34.8008817],[135.3804094,34.8009636],[135.3803214,34.8011206],[135.3801189,34.8015558],[135.3795547,34.8025072],[135.3795322,34.8025522],[135.3794031,34.8028114],[135.3793439,34.8029125],[135.3791208,34.8032944],[135.3790486,34.8034617],[135.3789778,34.8035922],[135.3787739,34.8039686],[135.3786739,34.8041767],[135.3781736,34.8052181],[135.3779856,34.8055939],[135.3779597,34.8056453],[135.3778869,34.8057906],[135.3777911,34.8059822],[135.3777033,34.8061569],[135.3775156,34.8065319],[135.3773419,34.8068542],[135.3771033,34.8073072],[135.3770167,34.8074803],[135.3769517,34.8076383],[135.3766333,34.8081989],[135.3765633,34.8083333],[135.3765386,34.8083808],[135.3764311,34.8085867],[135.3760769,34.8091833],[135.3759900,34.8093353],[135.3758311,34.8097647],[135.3758406,34.8098703],[135.3758444,34.8099147],[135.3758600,34.8100867],[135.3757586,34.8101764],[135.3755489,34.8102539],[135.3754189,34.8102956],[135.3753319,34.8104031],[135.3752958,34.8105700],[135.3752886,34.8106714],[135.3753258,34.8107097],[135.3753756,34.8107608],[135.3754003,34.8107697],[135.3755233,34.8108147],[135.3757369,34.8108922],[135.3759392,34.8109994],[135.3763578,34.8111797],[135.3766044,34.8112858],[135.3767564,34.8113753],[135.3770600,34.8116794],[135.3775228,34.8117333],[135.3779711,34.8118047],[135.3781692,34.8118494],[135.3784989,34.8119242],[135.3785875,34.8119483],[135.3787825,34.8120019],[135.3789758,34.8120550],[135.3794894,34.8121953],[135.3799233,34.8123264],[135.3803717,34.8124936],[135.3808633,34.8126725],[135.3813333,34.8128156],[135.3814506,34.8128525],[135.3816369,34.8129111],[135.3818319,34.8129947],[135.3819328,34.8130297],[135.3822383,34.8131361],[135.3825263,34.8132362],[135.3828688,34.8133951],[135.3831192,34.8135106],[135.3833333,34.8136037],[135.3835169,34.8136836],[135.3837046,34.8137794],[135.3838544,34.8138336],[135.3840561,34.8138767],[135.3842419,34.8139164],[135.3848317,34.8140431],[135.3851061,34.8141011],[135.3854764,34.8141803],[135.3856861,34.8141861],[135.3858450,34.8142519],[135.3860258,34.8143233],[135.3861922,34.8144069],[135.3863569,34.8145300],[135.3869772,34.8149939],[135.3872467,34.8151953],[135.3875068,34.8153914],[135.3877458,34.8154981],[135.3878900,34.8155342],[135.3879305,34.8155336],[135.3881081,34.8155283],[135.3881439,34.8155158],[135.3882108,34.8154928],[135.3883831,34.8154331],[135.3887300,34.8152481],[135.3889975,34.8150869],[135.3890844,34.8150036],[135.3891856,34.8148306],[135.3893303,34.8144667],[135.3894458,34.8141981],[135.3894819,34.8140431],[135.3895906,34.8137508],[135.3898075,34.8133992],[135.3901400,34.8130053],[135.3903714,34.8126772],[135.3905306,34.8125281],[135.3906825,34.8123939],[135.3908269,34.8122269],[135.3909356,34.8120122],[135.3910511,34.8117736],[135.3911164,34.8115944],[135.3912103,34.8115231],[135.3916658,34.8109147],[135.3916667,34.8109083],[135.3916875,34.8107478],[135.3917728,34.8105528],[135.3917950,34.8105022],[135.3919644,34.8101153],[135.3919881,34.8100617],[135.3920100,34.8100114],[135.3920669,34.8098814],[135.3921069,34.8097903],[135.3922014,34.8096208],[135.3922967,34.8094497],[135.3923592,34.8093372],[135.3923944,34.8092739],[135.3924325,34.8092058],[135.3926928,34.8085797],[135.3927578,34.8083647],[135.3927662,34.8083333],[135.3928156,34.8081500],[135.3928300,34.8079772],[135.3929025,34.8078131],[135.3930269,34.8076147],[135.3930614,34.8075600],[135.3930953,34.8075064],[135.3931447,34.8074275],[135.3932061,34.8073297],[135.3935311,34.8070436],[135.3938856,34.8067514],[135.3940403,34.8066161],[135.3940603,34.8065989],[135.3941533,34.8065175],[135.3941653,34.8065069],[135.3942472,34.8064353],[135.3943194,34.8063400],[135.3943883,34.8062678],[135.3944786,34.8061728],[135.3946667,34.8059164],[135.3947967,34.8057492],[135.3953536,34.8059253],[135.3957006,34.8060328],[135.3961128,34.8061997],[135.3965250,34.8062772],[135.3966478,34.8063250],[135.3968006,34.8064744],[135.3969225,34.8065933],[135.3970381,34.8066472],[135.3970511,34.8066508],[135.3971394,34.8066764],[135.3975153,34.8067842],[135.3975586,34.8069872],[135.3976022,34.8071481],[135.3976022,34.8072794],[135.3976486,34.8074022],[135.3976878,34.8075061],[135.3977289,34.8076147],[135.3977756,34.8077386],[135.3977900,34.8078817],[135.3978625,34.8079472],[135.3980722,34.8079742],[135.3981950,34.8079742],[135.3983347,34.8079931],[135.3984344,34.8080064],[135.3985161,34.8080172],[135.3986681,34.8080378],[135.3988294,34.8080594],[135.3989036,34.8080694],[135.3990267,34.8080694],[135.3990917,34.8080517],[135.3992003,34.8079264],[135.3993228,34.8077892],[135.3994458,34.8076939],[135.3996628,34.8075150],[135.3997639,34.8074972],[135.3998942,34.8075389],[135.4000000,34.8076320],[135.4001111,34.8077297],[135.4003353,34.8079144],[135.4004244,34.8080575],[135.4005208,34.8081806],[135.4006404,34.8083333],[135.4006486,34.8083439],[135.4010275,34.8084869],[135.4012342,34.8085647],[135.4014075,34.8086267],[135.4017839,34.8087614],[135.4024417,34.8090239],[135.4025592,34.8090719],[135.4036997,34.8095369],[135.4038292,34.8098269],[135.4039167,34.8100233],[135.4038950,34.8105422],[135.4035769,34.8105481],[135.4034250,34.8105183],[135.4032008,34.8105125],[135.4029644,34.8106797],[135.4023867,34.8110897],[135.4016533,34.8116097],[135.4015594,34.8120572],[135.4014869,34.8122897],[135.4012919,34.8128178],[135.4019200,34.8129667],[135.4021958,34.8130322],[135.4020500,34.8131681],[135.4019717,34.8132408],[135.4019058,34.8133786],[135.4018631,34.8134678],[135.4017692,34.8135869],[135.4016967,34.8137778],[135.4016475,34.8138847],[135.4015161,34.8141717],[135.4013931,34.8144161],[135.4012628,34.8146964],[135.4011039,34.8150633],[135.4010428,34.8152514],[135.4009086,34.8156633],[135.4008653,34.8157969],[135.4008436,34.8161308],[135.4008508,34.8163039],[135.4008292,34.8166558],[135.4008251,34.8166667],[135.4007639,34.8168289],[135.4007639,34.8170258],[135.4007017,34.8173181],[135.4006628,34.8175000],[135.4006339,34.8176728],[135.4006372,34.8177547],[135.4006444,34.8179267],[135.4006483,34.8180247],[135.4006419,34.8182078],[135.4006386,34.8183000],[135.4006358,34.8183844],[135.4006311,34.8185169],[135.4006194,34.8188478],[135.4005350,34.8192511],[135.4005078,34.8193800],[135.4004675,34.8195728],[135.4003808,34.8198411],[135.4003583,34.8199336],[135.4003497,34.8199683],[135.4003181,34.8200972],[135.4003078,34.8201394],[135.4002786,34.8202578],[135.4002683,34.8203000],[135.4002603,34.8203325],[135.4002361,34.8204314],[135.4002194,34.8205192],[135.4002122,34.8205575],[135.4002072,34.8205836],[135.4001639,34.8208131],[135.4001781,34.8209647],[135.4001822,34.8210111],[135.4001900,34.8210939],[135.4001983,34.8211858],[135.4002022,34.8212272],[135.4002072,34.8212814],[135.4002319,34.8213439],[135.4002873,34.8214841],[135.4003075,34.8215353],[135.4004097,34.8217944],[135.4004172,34.8218069],[135.4004700,34.8218969],[135.4004947,34.8219389],[135.4005489,34.8220311],[135.4005975,34.8221133],[135.4006483,34.8222000],[135.4008092,34.8222714],[135.4008508,34.8222897],[135.4012553,34.8224089],[135.4012872,34.8224519],[135.4013567,34.8225461],[135.4013639,34.8227367],[135.4013350,34.8228619],[135.4012950,34.8229425],[135.4012650,34.8230028],[135.4012042,34.8231253],[135.4011542,34.8232258],[135.4011036,34.8232439],[135.4008625,34.8231994],[135.4006250,34.8231556],[135.4004892,34.8231306],[135.4003767,34.8232922],[135.4003458,34.8233367],[135.4002361,34.8234944],[135.4001275,34.8237181],[135.4000914,34.8239047],[135.4000408,34.8241656],[135.4000000,34.8241638],[135.3994814,34.8241417],[135.3993539,34.8241364],[135.3992461,34.8241317],[135.3984933,34.8240997],[135.3984917,34.8241103],[135.3984622,34.8243047],[135.3984356,34.8244817],[135.3989064,34.8245669],[135.3990175,34.8245869],[135.3992600,34.8246308],[135.3994550,34.8246486],[135.4000000,34.8247556],[135.4001853,34.8247919],[135.4002489,34.8248106],[135.4004094,34.8248572],[135.4004066,34.8250000],[135.4004022,34.8252092],[135.4004528,34.8253164],[135.4005756,34.8254358],[135.4009806,34.8256208],[135.4011903,34.8256864],[135.4012625,34.8256803],[135.4013639,34.8256147],[135.4014942,34.8254656],[135.4016531,34.8251614],[135.4016886,34.8251100],[135.4017400,34.8250361],[135.4018267,34.8250125],[135.4019350,34.8250422],[135.4020131,34.8250742],[135.4020644,34.8250956],[135.4020942,34.8251078],[135.4021158,34.8252689],[135.4020508,34.8254956],[135.4020075,34.8257042],[135.4021519,34.8258533],[135.4021697,34.8258900],[135.4022319,34.8260197],[135.4023039,34.8261694],[135.4023111,34.8263544],[135.4023328,34.8264350],[135.4025353,34.8266319],[135.4026294,34.8268167],[135.4027014,34.8270375],[135.4026981,34.8270661],[135.4026819,34.8272039],[135.4026689,34.8273144],[135.4026556,34.8274297],[135.4026528,34.8274525],[135.4026486,34.8274894],[135.4026419,34.8275469],[135.4026286,34.8276606],[135.4026075,34.8278301],[135.4025746,34.8279851],[135.4025072,34.8281425],[135.4024181,34.8283392],[135.4024050,34.8283675],[135.4024408,34.8283969],[135.4024714,34.8284222],[135.4024819,34.8284311],[135.4025442,34.8284825],[135.4026011,34.8285292],[135.4026678,34.8285842],[135.4027881,34.8286836],[135.4031353,34.8288775],[135.4033342,34.8290478],[135.4033586,34.8290686],[135.4034322,34.8291317],[135.4034547,34.8291508],[135.4035186,34.8292056],[135.4035619,34.8294503],[135.4035739,34.8294861],[135.4035967,34.8295558],[135.4036053,34.8295814],[135.4036314,34.8295861],[135.4037356,34.8296053],[135.4039089,34.8295397],[135.4042128,34.8293728],[135.4044006,34.8292356],[135.4045742,34.8290683],[135.4048417,34.8293011],[135.4050297,34.8295100],[135.4051814,34.8296353],[135.4052389,34.8295944],[135.4053564,34.8295114],[135.4054850,34.8294203],[135.4055575,34.8293428],[135.4058106,34.8293489],[135.4059669,34.8293564],[135.4060231,34.8293589],[135.4060636,34.8293608],[135.4060669,34.8293633],[135.4061219,34.8294050],[135.4061431,34.8294208],[135.4061481,34.8294247],[135.4061936,34.8294592],[135.4062589,34.8295725],[135.4062978,34.8298117],[135.4063094,34.8298828],[135.4063114,34.8299450],[135.4063142,34.8300381],[135.4063239,34.8303481],[135.4062878,34.8309025],[135.4062300,34.8312186],[135.4061972,34.8312994],[135.4061358,34.8314514],[135.4060853,34.8316244],[135.4060131,34.8317644],[135.4058106,34.8319433],[135.4056369,34.8321642],[135.4055283,34.8322717],[135.4054417,34.8323731],[135.4053550,34.8325161],[135.4054417,34.8325519],[135.4056156,34.8325856],[135.4056333,34.8325889],[135.4057550,34.8326122],[135.4058753,34.8326356],[135.4059353,34.8326472],[135.4060475,34.8326686],[135.4062156,34.8327011],[135.4064033,34.8327189],[135.4067794,34.8327250],[135.4069964,34.8327250],[135.4070750,34.8327033],[135.4071283,34.8326886],[135.4071719,34.8326767],[135.4073000,34.8326414],[135.4076397,34.8324444],[135.4077917,34.8323014],[135.4078422,34.8321819],[135.4079000,34.8320628],[135.4080331,34.8318836],[135.4080375,34.8318778],[135.4082906,34.8317467],[135.4083022,34.8317419],[135.4083333,34.8317291],[135.4083706,34.8317136],[135.4086519,34.8315975],[135.4090136,34.8314186],[135.4095922,34.8311619],[135.4097294,34.8311053],[135.4099175,34.8311233],[135.4100333,34.8312067],[135.4100622,34.8313081],[135.4101200,34.8314992],[135.4102503,34.8316125],[135.4104308,34.8316303],[135.4107131,34.8317019],[135.4109006,34.8317436],[135.4111900,34.8317794],[135.4116528,34.8318450],[135.4117558,34.8318569],[135.4117597,34.8318572],[135.4121453,34.8319019],[135.4122464,34.8319136],[135.4122781,34.8319172],[135.4123758,34.8319286],[135.4125639,34.8319286],[135.4127083,34.8319583],[135.4128747,34.8320358],[135.4130122,34.8321283],[135.4131833,34.8322397],[135.4132158,34.8322608],[135.4132869,34.8323072],[135.4132486,34.8324089],[135.4132147,34.8324983],[135.4127808,34.8323969],[135.4124408,34.8323072],[135.4122167,34.8322775],[135.4120525,34.8322161],[135.4119131,34.8321642],[135.4117194,34.8321283],[135.4113633,34.8320628],[135.4108067,34.8319672],[135.4103153,34.8319078],[135.4097944,34.8318003],[135.4096139,34.8317944],[135.4095703,34.8317961],[135.4094689,34.8318003],[135.4093969,34.8318033],[135.4093864,34.8319114],[135.4093828,34.8319494],[135.4093656,34.8321261],[135.4093608,34.8321731],[135.4093525,34.8321742],[135.4092594,34.8321850],[135.4089125,34.8321850],[135.4087389,34.8322031],[135.4087067,34.8322786],[135.4086436,34.8324258],[135.4086233,34.8324733],[135.4086094,34.8325064],[135.4085994,34.8325297],[135.4085722,34.8325931],[135.4085581,34.8326264],[135.4084878,34.8326844],[135.4084372,34.8327261],[135.4083858,34.8327686],[135.4083556,34.8327936],[135.4083333,34.8328005],[135.4080881,34.8328769],[135.4079650,34.8329069],[135.4077917,34.8329308],[135.4076253,34.8330378],[135.4075331,34.8331503],[135.4074842,34.8332097],[135.4074589,34.8332406],[135.4074503,34.8332861],[135.4074419,34.8333308],[135.4074415,34.8333333],[135.4074228,34.8334317],[135.4074197,34.8335525],[135.4074156,34.8337239],[135.4075603,34.8340103],[135.4075986,34.8340542],[135.4076586,34.8341231],[135.4077917,34.8342756],[135.4079361,34.8344008],[135.4080375,34.8344069],[135.4081675,34.8343472],[135.4082347,34.8342936],[135.4083333,34.8342146],[135.4084378,34.8341308],[135.4086519,34.8339594],[135.4087606,34.8338164],[135.4088417,34.8337786],[135.4089233,34.8337403],[135.4090931,34.8336611],[135.4092953,34.8335950],[135.4094981,34.8335061],[135.4096572,34.8334344],[135.4097875,34.8333816],[135.4098500,34.8333764],[135.4099206,34.8333706],[135.4100911,34.8333569],[135.4103442,34.8333392],[135.4105464,34.8333869],[135.4106619,34.8334525],[135.4108300,34.8336386],[135.4108717,34.8336850],[135.4108789,34.8337717],[135.4108789,34.8338789],[135.4109514,34.8340578],[135.4111031,34.8341831],[135.4111483,34.8342128],[135.4112117,34.8342547],[135.4112333,34.8343083],[135.4110525,34.8344397],[135.4109875,34.8345650],[135.4109586,34.8346722],[135.4108789,34.8348753],[135.4107994,34.8350242],[135.4107200,34.8351139],[135.4103944,34.8353583],[135.4102861,34.8355194],[135.4101910,34.8356299],[135.4100039,34.8358472],[135.4098739,34.8360022],[135.4099678,34.8360708],[135.4100447,34.8361317],[135.4101042,34.8361789],[135.4101419,34.8362086],[135.4102267,34.8362758],[135.4103222,34.8363514],[135.4103958,34.8363936],[135.4107033,34.8365692],[135.4107033,34.8366528],[135.4106889,34.8368319],[135.4104644,34.8369392],[135.4099506,34.8372314],[135.4098928,34.8373806],[135.4101389,34.8375594],[135.4102414,34.8375878],[135.4103778,34.8376253],[135.4105722,34.8376597],[135.4111286,34.8377581],[135.4112464,34.8377786],[135.4112897,34.8377864],[135.4112206,34.8379992],[135.4112050,34.8380467],[135.4111778,34.8381308],[135.4111622,34.8381778],[135.4111181,34.8383144],[135.4110858,34.8384131],[135.4110353,34.8385689],[135.4109761,34.8387503],[135.4109639,34.8387881],[135.4108914,34.8390003],[135.4108611,34.8390892],[135.4107792,34.8393283],[135.4107686,34.8393594],[135.4107317,34.8394678],[135.4105214,34.8400825],[135.4104767,34.8402136],[135.4104553,34.8402761],[135.4104258,34.8403617],[135.4104078,34.8404150],[135.4103783,34.8405006],[135.4103175,34.8406789],[135.4104908,34.8406636],[135.4105069,34.8406622],[135.4111256,34.8406072],[135.4113317,34.8405978],[135.4115656,34.8405872],[135.4119142,34.8405714],[135.4120333,34.8406233],[135.4122089,34.8406997],[135.4118469,34.8411769],[135.4118542,34.8412725],[135.4119989,34.8415289],[135.4119886,34.8416667],[135.4119772,34.8418211],[135.4117651,34.8418965],[135.4117533,34.8419006],[135.4116597,34.8419339],[135.4115372,34.8419772],[135.4114558,34.8420061],[135.4108244,34.8422631],[135.4103850,34.8424417],[135.4101317,34.8425550],[135.4096972,34.8426025],[135.4094917,34.8425950],[135.4093644,34.8425906],[135.4091833,34.8425486],[135.4091039,34.8424456],[135.4090969,34.8424344],[135.4090175,34.8423033],[135.4085247,34.8422806],[135.4083333,34.8422857],[135.4083075,34.8422864],[135.4079603,34.8423761],[135.4075397,34.8425875],[135.4073806,34.8426889],[135.4072286,34.8428083],[135.4070764,34.8429753],[135.4069100,34.8433808],[135.4067000,34.8436433],[135.4066061,34.8437747],[135.4064322,34.8438403],[135.4055419,34.8438700],[135.4046692,34.8438458],[135.4044644,34.8438403],[135.4042039,34.8438881],[135.4038781,34.8440550],[135.4034981,34.8440450],[135.4029806,34.8440311],[135.4027706,34.8440369],[135.4025753,34.8440908],[135.4016994,34.8443708],[135.4009106,34.8446750],[135.4008311,34.8447467],[135.4007153,34.8450211],[135.4006139,34.8452656],[135.4004981,34.8454683],[135.4000000,34.8456089],[135.3996500,34.8457078],[135.3994194,34.8457728],[135.3988478,34.8457011],[135.3984642,34.8456056],[135.3978564,34.8454147],[135.3976825,34.8453253],[135.3973931,34.8452656],[135.3969586,34.8450331],[135.3967417,34.8448183],[135.3964686,34.8443650],[135.3961792,34.8438758],[135.3960633,34.8437147],[135.3959042,34.8436014],[135.3957989,34.8434997],[135.3957375,34.8434403],[135.3955931,34.8433389],[135.3951369,34.8431900],[135.3949128,34.8431600],[135.3946594,34.8431300],[135.3944639,34.8431300],[135.3943192,34.8431419],[135.3940803,34.8431539],[135.3935953,34.8432672],[135.3932694,34.8433389],[135.3930814,34.8433686],[135.3922708,34.8435475],[135.3920756,34.8435714],[135.3918872,34.8435833],[135.3916667,34.8435819],[135.3911767,34.8435786],[135.3909897,34.8435775],[135.3908086,34.8435775],[135.3905553,34.8436014],[135.3902796,34.8436256],[135.3898431,34.8436639],[135.3897056,34.8436758],[135.3894956,34.8437236],[135.3893006,34.8437414],[135.3886781,34.8437892],[135.3884031,34.8437953],[135.3881642,34.8437892],[135.3879397,34.8437414],[135.3875706,34.8437058],[135.3873317,34.8437533],[135.3871217,34.8438608],[135.3869842,34.8439678],[135.3864703,34.8444450],[135.3862747,34.8446003],[135.3860653,34.8445942],[135.3855875,34.8445047],[135.3853897,34.8444883],[135.3852981,34.8444808],[135.3852111,34.8445108],[135.3851822,34.8446061],[135.3852111,34.8450297],[135.3852689,34.8454892],[135.3853631,34.8457814],[135.3850519,34.8459842],[135.3847622,34.8462225],[135.3845017,34.8464492],[135.3843569,34.8465208],[135.3842700,34.8465864],[135.3840964,34.8467356],[135.3839153,34.8466758],[135.3836114,34.8465386],[135.3833869,34.8464850],[135.3833333,34.8464820],[135.3828586,34.8464553],[135.3826342,34.8464492],[135.3825183,34.8465625],[135.3824244,34.8467533],[135.3822667,34.8470100],[135.3820931,34.8472367],[135.3819556,34.8473858],[135.3816658,34.8475825],[135.3814706,34.8477675],[135.3813908,34.8478989],[135.3813258,34.8480658],[135.3812606,34.8482267],[135.3811375,34.8485906],[135.3810072,34.8488886],[135.3808408,34.8491094],[135.3807106,34.8492169],[135.3805658,34.8493003],[135.3805150,34.8494197],[135.3805078,34.8495867],[135.3804644,34.8497536],[135.3803671,34.8500000],[135.3803631,34.8500103],[135.3802617,34.8501294],[135.3800953,34.8502489],[135.3797983,34.8503919],[135.3796825,34.8502250],[135.3796814,34.8502164],[135.3796559,34.8500000],[135.3796536,34.8499803],[135.3794933,34.8497511],[135.3793281,34.8495150],[135.3789369,34.8491214],[135.3786981,34.8488708],[135.3786114,34.8487217],[135.3784958,34.8485008],[135.3783944,34.8482386],[135.3782931,34.8479642],[135.3781194,34.8477969],[135.3778242,34.8476269],[135.3778050,34.8476111],[135.3776792,34.8475078],[135.3775489,34.8474064],[135.3773969,34.8472633],[135.3772883,34.8471442],[135.3765792,34.8479553],[135.3759822,34.8486222],[135.3758261,34.8487964],[135.3754353,34.8492317],[135.3752761,34.8493689],[135.3751025,34.8493750],[135.3750000,34.8493667],[135.3736189,34.8492556],[135.3733147,34.8492736],[135.3727139,34.8493686],[135.3725258,34.8494044],[135.3721981,34.8494311],[135.3718792,34.8494672],[135.3716825,34.8494583],[135.3713056,34.8494536],[135.3705736,34.8494086],[135.3704206,34.8494403],[135.3703169,34.8495483],[135.3702239,34.8497103],[135.3700164,34.8499536],[135.3699774,34.8500000],[135.3698689,34.8501292],[135.3697269,34.8502778],[135.3695903,34.8503858],[135.3694044,34.8505117],[135.3691542,34.8506600],[135.3687281,34.8508806],[135.3683839,34.8510517],[135.3680017,34.8512358],[135.3679686,34.8512989],[135.3679633,34.8513844],[135.3679797,34.8515647],[135.3680453,34.8518644],[135.3681272,34.8520400],[135.3682092,34.8521886],[135.3683731,34.8523806],[135.3685150,34.8524931],[135.3686789,34.8526144],[135.3688156,34.8527450],[135.3690178,34.8529506],[135.3691817,34.8531531],[135.3692689,34.8532881],[135.3692919,34.8533469],[135.3693128,34.8534006],[135.3693719,34.8535231],[135.3694244,34.8536319],[135.3695203,34.8538311],[135.3696694,34.8540723],[135.3698317,34.8543400],[135.3702306,34.8550356],[135.3704872,34.8549367],[135.3708097,34.8547864],[135.3708150,34.8547839],[135.3712247,34.8546308],[135.3713797,34.8545586],[135.3715764,34.8544911],[135.3718169,34.8544147],[135.3720081,34.8543606],[135.3721336,34.8543292],[135.3721981,34.8543292],[135.3725131,34.8542917],[135.3728967,34.8541903],[135.3732078,34.8541244],[135.3735336,34.8541425],[135.3737508,34.8542319],[135.3738956,34.8542917],[135.3740331,34.8543811],[135.3742286,34.8545778],[135.3744167,34.8548642],[135.3744528,34.8550492],[135.3744167,34.8552936],[135.3743661,34.8554428],[135.3741778,34.8559914],[135.3740911,34.8561764],[135.3740647,34.8562414],[135.3740114,34.8563731],[135.3738883,34.8565342],[135.3737581,34.8567847],[135.3737072,34.8570233],[135.3736639,34.8572500],[135.3735989,34.8574053],[135.3735047,34.8575244],[135.3733889,34.8576019],[135.3729039,34.8577692],[135.3727156,34.8578706],[135.3725131,34.8579419],[135.3721981,34.8579533],[135.3720197,34.8579594],[135.3716939,34.8579950],[135.3714622,34.8580308],[135.3712236,34.8580844],[135.3710067,34.8581678],[135.3708472,34.8582753],[135.3707707,34.8583333],[135.3706664,34.8584125],[135.3705506,34.8585378],[135.3704564,34.8586689],[135.3703986,34.8587822],[135.3702900,34.8589017],[135.3701525,34.8590150],[135.3700583,34.8591461],[135.3700075,34.8592989],[135.3699569,34.8594481],[135.3698992,34.8596092],[135.3697978,34.8597939],[135.3696603,34.8599133],[135.3694647,34.8600506],[135.3684194,34.8607319],[135.3681953,34.8608872],[135.3680578,34.8609586],[135.3679131,34.8610064],[135.3677683,34.8610422],[135.3675800,34.8610542],[135.3666667,34.8609985],[135.3666000,34.8609944],[135.3664914,34.8609886],[135.3662889,34.8609767],[135.3660758,34.8609647],[135.3658950,34.8609169],[135.3654606,34.8607739],[135.3652653,34.8607200],[135.3650769,34.8607739],[135.3646453,34.8610678],[135.3643772,34.8612231],[135.3642397,34.8613303],[135.3640372,34.8614194],[135.3636167,34.8615842],[135.3633342,34.8616678],[135.3632819,34.8616875],[135.3632461,34.8617011],[135.3629869,34.8617989],[135.3628203,34.8618706],[135.3626031,34.8619958],[135.3624511,34.8621033],[135.3623497,34.8621986],[135.3622847,34.8622881],[135.3622486,34.8624014],[135.3621897,34.8626472],[135.3621536,34.8627964],[135.3621464,34.8631542],[135.3621392,34.8635419],[135.3621175,34.8636972],[135.3621103,34.8638106],[135.3620814,34.8638939],[135.3620450,34.8639536],[135.3619294,34.8639775],[135.3617775,34.8639775],[135.3616039,34.8639536],[135.3613939,34.8639000],[135.3612131,34.8638464],[135.3610753,34.8638164],[135.3608075,34.8638164],[135.3603986,34.8639875],[135.3602633,34.8640653],[135.3599811,34.8641486],[135.3598797,34.8641606],[135.3597350,34.8642203],[135.3594525,34.8642739],[135.3590833,34.8643275],[135.3586350,34.8644172],[135.3584467,34.8644708],[135.3583333,34.8644869],[135.3581933,34.8645067],[135.3580197,34.8645425],[135.3578531,34.8645603],[135.3575275,34.8646319],[135.3571872,34.8647511],[135.3569694,34.8648306],[135.3566725,34.8649200],[135.3564989,34.8649439],[135.3563397,34.8649258],[135.3560572,34.8648842],[135.3557533,34.8648306],[135.3554714,34.8647708],[135.3551889,34.8647411],[135.3545708,34.8647231],[135.3543681,34.8647172],[135.3542306,34.8646992],[135.3538875,34.8646517],[135.3528761,34.8644906],[135.3526664,34.8644308],[135.3521744,34.8643414],[135.3518508,34.8642639],[135.3516481,34.8642161],[135.3515178,34.8642100],[135.3513894,34.8641978],[135.3512644,34.8641861],[135.3509533,34.8641861],[135.3506536,34.8641981],[135.3505089,34.8642161],[135.3503931,34.8642639],[135.3502844,34.8643592],[135.3501783,34.8644358],[135.3501686,34.8644428],[135.3500672,34.8645858],[135.3500000,34.8646631],[135.3499008,34.8647769],[135.3497503,34.8649217],[135.3495114,34.8651186],[135.3493306,34.8652856],[135.3492075,34.8653633],[135.3490339,34.8654767],[135.3488819,34.8655958],[135.3487661,34.8657386],[135.3486864,34.8658581],[135.3485922,34.8659953],[135.3485128,34.8661325],[135.3485086,34.8661481],[135.3484547,34.8663411],[135.3483825,34.8666472],[135.3483795,34.8666667],[135.3483317,34.8669753],[135.3482811,34.8673350],[135.3482594,34.8675678],[135.3482667,34.8677008],[135.3482883,34.8679872],[135.3483386,34.8682097],[135.3483533,34.8682753],[135.3483969,34.8684183],[135.3484403,34.8685019],[135.3486175,34.8686861],[135.3486214,34.8686903],[135.3486719,34.8688514],[135.3486358,34.8690125],[135.3485489,34.8690961],[135.3484258,34.8692033],[135.3483100,34.8693347],[135.3482522,34.8694600],[135.3479842,34.8698239],[135.3477889,34.8700744],[135.3475836,34.8703083],[135.3474533,34.8704217],[135.3471928,34.8705767],[135.3469103,34.8707856],[135.3467800,34.8708631],[135.3464833,34.8710419],[135.3462517,34.8712150],[135.3459767,34.8715072],[135.3456089,34.8719158],[135.3454742,34.8720653],[135.3453875,34.8721925],[135.3453489,34.8722581],[135.3452861,34.8723653],[135.3452281,34.8725325],[135.3451706,34.8727192],[135.3451342,34.8729100],[135.3451297,34.8729439],[135.3450981,34.8731783],[135.3450331,34.8733217],[135.3448592,34.8736992],[135.3447725,34.8737767],[135.3445522,34.8739356],[135.3443497,34.8740189],[135.3442122,34.8741322],[135.3440311,34.8742756],[135.3439369,34.8743708],[135.3437633,34.8745917],[135.3437056,34.8746633],[135.3435897,34.8747886],[135.3434158,34.8748839],[135.3432422,34.8749378],[135.3430069,34.8749889],[135.3429159,34.8750000],[135.3427611,34.8750189],[135.3424281,34.8750537],[135.3424208,34.8750544],[135.3420661,34.8751083],[135.3416667,34.8751306],[135.3414219,34.8751442],[135.3411397,34.8751739],[135.3409803,34.8752097],[135.3407706,34.8752811],[135.3405894,34.8753708],[135.3404236,34.8754947],[135.3402969,34.8755892],[135.3400003,34.8755950],[135.3397978,34.8756011],[135.3396025,34.8756247],[135.3392983,34.8756786],[135.3392189,34.8758236],[135.3391761,34.8759361],[135.3391464,34.8760144],[135.3391103,34.8761994],[135.3390742,34.8763783],[135.3390203,34.8765847],[135.3390114,34.8766186],[135.3389944,34.8766842],[135.3389944,34.8768811],[135.3389728,34.8773644],[135.3389628,34.8775456],[135.3389511,34.8777539],[135.3389800,34.8779406],[135.3391825,34.8784972],[135.3392767,34.8786583],[135.3393275,34.8788311],[135.3395300,34.8795744],[135.3395589,34.8796939],[135.3394286,34.8797833],[135.3392767,34.8798786],[135.3389408,34.8799897],[135.3388394,34.8800433],[135.3388361,34.8800583],[135.3388106,34.8801686],[135.3387453,34.8803297],[135.3387022,34.8804728],[135.3386806,34.8806358],[135.3386081,34.8808506],[135.3385783,34.8809308],[135.3385286,34.8810653],[135.3384417,34.8811906],[135.3383403,34.8813144],[135.3382461,34.8813978],[135.3381169,34.8815172],[135.3380072,34.8816186],[135.3379322,34.8816747],[135.3378481,34.8817378],[135.3377033,34.8818931],[135.3375947,34.8820481],[135.3375586,34.8821614],[135.3375514,34.8822986],[135.3374933,34.8830206],[135.3374501,34.8833333],[135.3374428,34.8833861],[135.3373053,34.8838669],[135.3372619,34.8840400],[135.3372258,34.8842906],[135.3372403,34.8844575],[135.3372692,34.8847158],[135.3373128,34.8852008],[135.3373200,34.8853856],[135.3373344,34.8855050],[135.3374117,34.8858203],[135.3374117,34.8858203],[135.3374575,34.8860078],[135.3375300,34.8864153],[135.3375444,34.8866181],[135.3375228,34.8870256],[135.3374864,34.8872761],[135.3374575,34.8874431],[135.3372475,34.8874789],[135.3370086,34.8874431],[135.3363883,34.8873894],[135.3361711,34.8873358],[135.3361567,34.8874492],[135.3363883,34.8876478],[135.3364608,34.8877908],[135.3364608,34.8880236],[135.3363956,34.8883850],[135.3364247,34.8885403],[135.3365114,34.8887311],[135.3366344,34.8888981],[135.3370036,34.8893014],[135.3370906,34.8895519],[135.3370978,34.8897131],[135.3370617,34.8898322],[135.3369964,34.8899756],[135.3369119,34.8901758],[135.3368250,34.8903072],[135.3366803,34.8905278],[135.3366153,34.8905994],[135.3365211,34.8907283],[135.3364414,34.8909550],[135.3363908,34.8911161],[135.3363475,34.8912353],[135.3362606,34.8914022],[135.3362100,34.8914978],[135.3361231,34.8915753],[135.3360000,34.8916528],[135.3359773,34.8916667],[135.3358044,34.8917722],[135.3355028,34.8919725],[135.3353144,34.8920978],[135.3351192,34.8922411],[135.3349817,34.8923664],[135.3348950,34.8924797],[135.3347575,34.8926169],[135.3346747,34.8927192],[135.3346706,34.8927242],[135.3345444,34.8928789],[135.3341536,34.8932542],[135.3339944,34.8933497],[135.3338642,34.8934094],[135.3337700,34.8933439],[135.3336686,34.8932483],[135.3334081,34.8928786],[135.3333333,34.8928133],[135.3332850,34.8927711],[135.3331331,34.8927114],[135.3329811,34.8927056],[135.3328378,34.8926578],[135.3327219,34.8925981],[135.3326206,34.8924967],[135.3325122,34.8923714],[135.3323531,34.8921031],[135.3321503,34.8917989],[135.3320552,34.8916667],[135.3320344,34.8916378],[135.3319622,34.8916139],[135.3318748,34.8916667],[135.3318536,34.8916794],[135.3318319,34.8917450],[135.3317667,34.8918464],[135.3316147,34.8919539],[135.3314481,34.8920492],[135.3310572,34.8921925],[135.3306014,34.8923833],[135.3303306,34.8925086],[135.3302944,34.8925861],[135.3302728,34.8928008],[135.3302872,34.8929203],[135.3301350,34.8929500],[135.3299831,34.8928964],[135.3297300,34.8928547],[135.3295347,34.8928367],[135.3293247,34.8928367],[135.3291525,34.8928403],[135.3289425,34.8928761],[135.3287689,34.8929058],[135.3285081,34.8929358],[135.3282911,34.8929656],[135.3280811,34.8930192],[135.3279075,34.8930492],[135.3277192,34.8930969],[135.3275311,34.8931803],[135.3272342,34.8932639],[135.3269378,34.8933533],[135.3267783,34.8934067],[135.3265614,34.8934425],[135.3263658,34.8934664],[135.3261181,34.8935125],[135.3260994,34.8935158],[135.3255131,34.8935994],[135.3250789,34.8936531],[135.3250000,34.8936633],[135.3247097,34.8937008],[135.3242756,34.8937725],[135.3239208,34.8938439],[135.3236386,34.8939336],[135.3234475,34.8940231],[135.3232956,34.8941364],[135.3232594,34.8942197],[135.3232811,34.8943450],[135.3233969,34.8945003],[135.3236214,34.8947961],[135.3237878,34.8950586],[135.3238311,34.8952136],[135.3239036,34.8956450],[135.3240050,34.8962314],[135.3240628,34.8964122],[135.3240772,34.8965372],[135.3240628,34.8966686],[135.3239542,34.8969147],[135.3238094,34.8971711],[135.3236358,34.8973281],[135.3230711,34.8973103],[135.3228539,34.8973461],[135.3224850,34.8974653],[135.3222744,34.8975406],[135.3220572,34.8976061],[135.3219269,34.8976239],[135.3215072,34.8976119],[135.3212756,34.8975942],[135.3210728,34.8976119],[135.3209775,34.8976622],[135.3208919,34.8977075],[135.3206675,34.8978925],[135.3204286,34.8981369],[135.3202647,34.8983494],[135.3202522,34.8983853],[135.3202067,34.8985164],[135.3201633,34.8986775],[135.3201561,34.8988325],[135.3201850,34.8989994],[135.3202936,34.8989931],[135.3203806,34.8989878],[135.3205900,34.8989281],[135.3208506,34.8988564],[135.3212053,34.8987847],[135.3214008,34.8987372],[135.3216125,34.8986697],[135.3217556,34.8986239],[135.3218714,34.8986119],[135.3222042,34.8985044],[135.3223200,34.8984867],[135.3224142,34.8985164],[135.3225589,34.8985881],[135.3228339,34.8987550],[135.3229642,34.8987908],[135.3230947,34.8988028],[135.3233331,34.8988206],[135.3235792,34.8988325],[135.3237675,34.8988086],[135.3240064,34.8987967],[135.3246506,34.8988028],[135.3248750,34.8988028],[135.3250000,34.8987972],[135.3250125,34.8987967],[135.3253019,34.8987492],[135.3255264,34.8986775],[135.3258456,34.8985342],[135.3261494,34.8984031],[135.3264969,34.8982658],[135.3266850,34.8982122],[135.3268153,34.8981822],[135.3270108,34.8981528],[135.3272786,34.8981289],[135.3276044,34.8981050],[135.3277664,34.8980931],[135.3282442,34.8979619],[135.3284181,34.8979261],[135.3286203,34.8978725],[135.3288519,34.8978725],[135.3291661,34.8978964],[135.3294483,34.8979439],[135.3296439,34.8980036],[135.3297958,34.8980992],[135.3299331,34.8982362],[135.3299333,34.8982364],[135.3300667,34.8983694],[135.3302547,34.8986081],[135.3303778,34.8988228],[135.3304503,34.8989300],[135.3305878,34.8992378],[135.3306531,34.8994289],[135.3306747,34.8996197],[135.3307036,34.8997983],[135.3306458,34.8999533],[135.3306232,34.9000000],[135.3305589,34.9001325],[135.3305008,34.9002219],[135.3305228,34.9002756],[135.3306531,34.9003053],[135.3312494,34.9003789],[135.3314667,34.9004803],[135.3315897,34.9005817],[135.3316400,34.9007189],[135.3316544,34.9008500],[135.3316547,34.9010008],[135.3316258,34.9011322],[135.3315969,34.9013469],[135.3315825,34.9015872],[135.3316114,34.9016947],[135.3316619,34.9018081],[135.3318456,34.9020442],[135.3320772,34.9022531],[135.3323378,34.9023961],[135.3326708,34.9025572],[135.3330544,34.9027183],[135.3333333,34.9028331],[135.3334069,34.9028633],[135.3335661,34.9029111],[135.3337761,34.9028992],[135.3339642,34.9028336],[135.3342683,34.9027442],[135.3344492,34.9027083],[135.3346517,34.9027022],[135.3348108,34.9027022],[135.3351944,34.9027558],[135.3354464,34.9027858],[135.3359025,34.9029050],[135.3361703,34.9030006],[135.3363731,34.9030244],[135.3367292,34.9030583],[135.3370025,34.9030842],[135.3371472,34.9030661],[135.3374514,34.9030781],[135.3376467,34.9030483],[135.3378422,34.9030422],[135.3387042,34.9030542],[135.3388636,34.9030781],[135.3388781,34.9031617],[135.3388056,34.9034558],[135.3387622,34.9037242],[135.3387333,34.9040778],[135.3387550,34.9048628],[135.3387550,34.9049939],[135.3387839,34.9051072],[135.3388108,34.9052161],[135.3388417,34.9053417],[135.3389214,34.9054311],[135.3390372,34.9055403],[135.3391242,34.9056197],[135.3392469,34.9057311],[135.3393025,34.9058153],[135.3393336,34.9058625],[135.3393556,34.9060117],[135.3393989,34.9064011],[135.3393844,34.9069158],[135.3393700,34.9073708],[135.3393772,34.9075694],[135.3395428,34.9075906],[135.3400822,34.9076589],[135.3402972,34.9077067],[135.3408864,34.9077981],[135.3412050,34.9078875],[135.3415303,34.9080008],[135.3415956,34.9080783],[135.3416667,34.9082749],[135.3416878,34.9083333],[135.3416969,34.9083586],[135.3418053,34.9088436],[135.3418994,34.9093644],[135.3419431,34.9096525],[135.3420514,34.9101017],[135.3421819,34.9104914],[135.3421892,34.9106222],[135.3421819,34.9110417],[135.3421061,34.9112794],[135.3420806,34.9113594],[135.3419864,34.9115044],[135.3418922,34.9116358],[135.3417258,34.9118086],[135.3416667,34.9118985],[135.3416028,34.9119956],[135.3414581,34.9122581],[135.3413783,34.9124083],[135.3412556,34.9125217],[135.3410964,34.9127722],[135.3410022,34.9128914],[135.3409444,34.9129989],[135.3408719,34.9131778],[135.3409008,34.9133864],[135.3409806,34.9137042],[135.3410239,34.9139506],[135.3410311,34.9141772],[135.3410311,34.9144536],[135.3409950,34.9146206],[135.3409589,34.9147578],[135.3408575,34.9148531],[135.3407536,34.9149117],[135.3406983,34.9149428],[135.3406258,34.9149964],[135.3405028,34.9151336],[135.3404811,34.9153422],[135.3404522,34.9154914],[135.3403581,34.9157694],[135.3402567,34.9159664],[135.3400322,34.9162167],[135.3398947,34.9163478],[135.3397861,34.9164253],[135.3396919,34.9164611],[135.3396053,34.9164611],[135.3394750,34.9164075],[135.3391781,34.9162525],[135.3389331,34.9161197],[135.3389250,34.9161153],[135.3388381,34.9160797],[135.3387586,34.9160856],[135.3386717,34.9161569],[135.3385775,34.9162703],[135.3384328,34.9163539],[135.3382511,34.9164092],[135.3380919,34.9164392],[135.3378892,34.9164153],[135.3377372,34.9163736],[135.3376286,34.9163258],[135.3374767,34.9162483],[135.3372811,34.9161586],[135.3370858,34.9161111],[135.3369339,34.9160931],[135.3367386,34.9161050],[135.3365647,34.9161231],[135.3361306,34.9162364],[135.3358547,34.9163378],[135.3356447,34.9164092],[135.3354783,34.9164631],[135.3353192,34.9164750],[135.3350367,34.9164750],[135.3348994,34.9164808],[135.3347475,34.9165225],[135.3345303,34.9165703],[135.3344000,34.9166003],[135.3342842,34.9165942],[135.3340911,34.9165842],[135.3339825,34.9166078],[135.3339100,34.9166436],[135.3338867,34.9166667],[135.3338014,34.9167511],[135.3337072,34.9168764],[135.3335842,34.9169956],[135.3334975,34.9170733],[135.3333333,34.9171554],[135.3333308,34.9171567],[135.3330992,34.9172461],[135.3330342,34.9173058],[135.3330269,34.9173775],[135.3330269,34.9177969],[135.3330631,34.9180950],[135.3330558,34.9183606],[135.3330558,34.9183653],[135.3330486,34.9184906],[135.3329908,34.9188322],[135.3329544,34.9189753],[135.3328678,34.9191303],[135.3327519,34.9192794],[135.3327447,34.9196214],[135.3327375,34.9197644],[135.3326908,34.9198956],[135.3326475,34.9199633],[135.3325386,34.9201125],[135.3324014,34.9202319],[135.3323433,34.9203272],[135.3323108,34.9205003],[135.3322600,34.9206733],[135.3322239,34.9208225],[135.3322239,34.9212575],[135.3322022,34.9215917],[135.3320861,34.9217944],[135.3319050,34.9219317],[135.3317383,34.9220211],[135.3316369,34.9221167],[135.3316006,34.9222597],[135.3316006,34.9224267],[135.3316117,34.9225161],[135.3317131,34.9226414],[135.3317564,34.9227489],[135.3317347,34.9229278],[135.3317492,34.9230114],[135.3318433,34.9231606],[135.3319594,34.9232558],[135.3319831,34.9232717],[135.3321114,34.9233572],[135.3322058,34.9234767],[135.3323072,34.9238108],[135.3323647,34.9240375],[135.3324736,34.9243592],[135.3326219,34.9246278],[135.3326728,34.9247886],[135.3326944,34.9249856],[135.3326944,34.9250000],[135.3326944,34.9251286],[135.3327236,34.9252839],[135.3327089,34.9253733],[135.3325786,34.9255703],[135.3325569,34.9256775],[135.3325569,34.9259008],[135.3325569,34.9259342],[135.3325061,34.9260950],[135.3323611,34.9262264],[135.3320789,34.9263875],[135.3318833,34.9265247],[135.3317094,34.9267156],[135.3316117,34.9270672],[135.3315100,34.9272283],[135.3314594,34.9273417],[135.3314450,34.9274728],[135.3314303,34.9280036],[135.3314158,34.9281528],[135.3313653,34.9282842],[135.3312058,34.9285706],[135.3310572,34.9288269],[135.3309050,34.9290297],[135.3305717,34.9294233],[135.3303544,34.9298228],[135.3303036,34.9299481],[135.3302892,34.9301389],[135.3303400,34.9304372],[135.3305247,34.9309800],[135.3306478,34.9311472],[135.3307419,34.9313319],[135.3307711,34.9314753],[135.3307711,34.9318928],[135.3307347,34.9321433],[135.3306261,34.9322925],[135.3305247,34.9323578],[135.3300247,34.9326500],[135.3291047,34.9328172],[135.3288803,34.9328053],[135.3287136,34.9328708],[135.3285178,34.9330139],[135.3284589,34.9330461],[135.3284092,34.9330736],[135.3281881,34.9330975],[135.3280289,34.9330856],[135.3278861,34.9330415],[135.3277389,34.9329961],[135.3275794,34.9330019],[135.3274056,34.9330558],[135.3271664,34.9332289],[135.3269950,34.9333333],[135.3268044,34.9334494],[135.3265364,34.9336522],[135.3262319,34.9338611],[135.3259494,34.9339922],[135.3256378,34.9340697],[135.3253697,34.9340997],[135.3251233,34.9341950],[135.3250003,34.9342967],[135.3250000,34.9342972],[135.3249206,34.9344517],[135.3248989,34.9346303],[135.3248697,34.9348092],[135.3247575,34.9349464],[135.3246417,34.9352208],[135.3244536,34.9356147],[135.3244394,34.9356687],[135.3243956,34.9358353],[135.3243592,34.9362350],[135.3243667,34.9366167],[135.3244169,34.9368136],[135.3244383,34.9368594],[135.3245111,34.9370164],[135.3246161,34.9371297],[135.3249061,34.9374158],[135.3250000,34.9375888],[135.3250292,34.9376425],[135.3250583,34.9378692],[135.3250511,34.9380361],[135.3250000,34.9381485],[135.3249642,34.9382272],[135.3247467,34.9385314],[135.3247683,34.9385792],[135.3250000,34.9386599],[135.3251958,34.9387281],[135.3259639,34.9389847],[135.3260867,34.9390319],[135.3261958,34.9390742],[135.3262792,34.9392411],[135.3263222,34.9395633],[135.3264094,34.9397244],[135.3264167,34.9398378],[135.3263586,34.9400228],[135.3262861,34.9401717],[135.3262281,34.9403567],[135.3262281,34.9404339],[135.3263297,34.9405233],[135.3265397,34.9406486],[135.3265686,34.9407203],[135.3265397,34.9408397],[135.3264528,34.9409947],[135.3264600,34.9411736],[135.3265253,34.9412631],[135.3261739,34.9412453],[135.3258769,34.9412572],[135.3256525,34.9413108],[135.3254350,34.9413289],[135.3251742,34.9414481],[135.3250147,34.9415853],[135.3250000,34.9415949],[135.3248902,34.9416667],[135.3248047,34.9417225],[135.3246742,34.9417583],[135.3244642,34.9417464],[135.3242831,34.9417044],[135.3238408,34.9416986],[135.3236236,34.9417464],[135.3235222,34.9418297],[135.3234714,34.9419731],[135.3233844,34.9421639],[135.3230369,34.9423308],[135.3227783,34.9424936],[135.3225914,34.9426114],[135.3224464,34.9427422],[135.3224319,34.9429092],[135.3223306,34.9431181],[135.3221856,34.9432553],[135.3218958,34.9434819],[135.3217436,34.9436908],[135.3216783,34.9438100],[135.3216131,34.9438517],[135.3213667,34.9438517],[135.3208814,34.9440128],[135.3207436,34.9441322],[135.3206856,34.9442394],[135.3206783,34.9443708],[135.3206989,34.9445506],[135.3207183,34.9447228],[135.3207400,34.9450389],[135.3207183,34.9451819],[135.3206242,34.9454025],[135.3204428,34.9456589],[135.3202400,34.9458797],[135.3200153,34.9461661],[135.3198486,34.9463450],[135.3197256,34.9464406],[135.3195733,34.9465358],[135.3193419,34.9466911],[135.3191642,34.9468878],[135.3190772,34.9470431],[135.3190194,34.9471919],[135.3189542,34.9473769],[135.3189033,34.9475858],[135.3187731,34.9478183],[135.3185628,34.9480686],[135.3184772,34.9481784],[135.3184325,34.9482358],[135.3182586,34.9485817],[135.3181208,34.9487906],[135.3180194,34.9488800],[135.3178203,34.9490053],[135.3176392,34.9492139],[135.3175375,34.9494289],[135.3172775,34.9500000],[135.3172333,34.9500969],[135.3170303,34.9504664],[135.3168419,34.9509675],[135.3168094,34.9511883],[135.3166667,34.9518892],[135.3166211,34.9521128],[135.3165631,34.9522261],[135.3164181,34.9523156],[135.3162153,34.9523514],[135.3161200,34.9523631],[135.3160197,34.9523753],[135.3156556,34.9524675],[135.3155486,34.9524947],[135.3152806,34.9525842],[135.3149114,34.9526794],[135.3144331,34.9528583],[135.3141722,34.9529894],[135.3140272,34.9530969],[135.3139150,34.9532878],[135.3139006,34.9535083],[135.3139150,34.9537353],[135.3139803,34.9539022],[135.3140817,34.9539917],[135.3142628,34.9540514],[135.3143642,34.9541944],[135.3144367,34.9545225],[135.3144439,34.9547372],[135.3144728,34.9549639],[135.3145525,34.9551011],[135.3146467,34.9551786],[135.3149328,34.9554056],[135.3150994,34.9556556],[135.3151747,34.9558047],[135.3152589,34.9559719],[135.3153022,34.9562700],[135.3154472,34.9569919],[135.3154978,34.9571769],[135.3156428,34.9573678],[135.3157442,34.9574869],[135.3156756,34.9575944],[135.3154508,34.9577556],[135.3153350,34.9578928],[135.3152697,34.9580717],[135.3151828,34.9583333],[135.3151608,34.9583994],[135.3151031,34.9587514],[135.3149436,34.9590794],[135.3147261,34.9593361],[135.3144617,34.9596283],[135.3144561,34.9596256],[135.3140558,34.9594314],[135.3137375,34.9593181],[135.3131722,34.9591392],[135.3126069,34.9589839],[135.3122811,34.9589006],[135.3120781,34.9589064]]]},"properties":{"uri":"https://uedayou.net/loa/兵庫県宝塚市","name":"兵庫県宝塚市","prefecture":"兵庫県","municipality":"宝塚市","notation":"兵庫県宝塚市"}}