{"type":"FeatureCollection","features":[{"type":"Feature","properties":{},"geometry":{"type":"MultiPolygon","coordinates":[[[[120.0,20.0],[120.0,50.0],[155.0,50.0],[155.0,20.0],[120.0,20.0]],[[134.91106,34.71746],[134.91149,34.71683],[134.91237,34.71666],[134.91338,34.71446],[134.91319,34.71366],[134.91218,34.71353],[134.91215,34.71321],[134.91186,34.71305],[134.91235,34.71118],[134.91309,34.70975],[134.91372,34.71093],[134.9149,34.71082],[134.91626,34.70888],[134.91694,34.70725],[134.91901,34.70881],[134.92055,34.70908],[134.92147,34.70887],[134.9214,34.70818],[134.92182,34.70773],[134.92174,34.70681],[134.92271,34.7064],[134.92356,34.70567],[134.92408,34.70575],[134.92405,34.705],[134.92498,34.70484],[134.9253,34.70359],[134.92471,34.7031],[134.92475,34.70257],[134.92615,34.70259],[134.92709,34.70209],[134.92808,34.70218],[134.928,34.70133],[134.92728,34.70086],[134.92795,34.69991],[134.92862,34.70028],[134.92894,34.70076],[134.9299,34.70088],[134.92962,34.69997],[134.93001,34.69932],[134.92955,34.69846],[134.9297,34.6982],[134.93012,34.69831],[134.9309,34.69933],[134.93288,34.70053],[134.9328,34.70208],[134.93396,34.70187],[134.93452,34.7022],[134.93424,34.70353],[134.93445,34.70383],[134.93563,34.70451],[134.93658,34.70541],[134.93684,34.70546],[134.93708,34.70515],[134.93742,34.70529],[134.93899,34.70683],[134.93936,34.70694],[134.94051,34.70824],[134.9429,34.71262],[134.94548,34.71282],[134.94715,34.71251],[134.94702,34.71209],[134.95066,34.71196],[134.95161,34.71159],[134.95258,34.71187],[134.95192,34.71307],[134.95268,34.71351],[134.95315,34.71355],[134.95337,34.71277],[134.95525,34.71252],[134.95754,34.71281],[134.95766,34.71247],[134.95792,34.71289],[134.9583,34.71279],[134.95838,34.71299],[134.95805,34.71326],[134.95823,34.714],[134.95871,34.71439],[134.95922,34.71427],[134.95896,34.71378],[134.95966,34.71337],[134.96137,34.71431],[134.96228,34.71415],[134.96238,34.71381],[134.96179,34.71363],[134.96196,34.71313],[134.96363,34.71271],[134.96467,34.71193],[134.965,34.71151],[134.96458,34.71104],[134.96488,34.71042],[134.96611,34.70928],[134.96527,34.7092],[134.96594,34.7084],[134.966,34.70764],[134.96533,34.7074],[134.96478,34.70769],[134.96462,34.7073],[134.96575,34.70576],[134.96577,34.70516],[134.96342,34.70419],[134.96316,34.70336],[134.96329,34.7027],[134.96466,34.70117],[134.96452,34.70097],[134.9648,34.70007],[134.96461,34.69926],[134.96598,34.69837],[134.96601,34.69791],[134.96567,34.69731],[134.96422,34.69654],[134.96446,34.69547],[134.96585,34.69539],[134.96616,34.69506],[134.96611,34.69485],[134.96458,34.69451],[134.96532,34.69387],[134.96574,34.69308],[134.96628,34.69179],[134.96616,34.6908],[134.96639,34.68998],[134.9667,34.68967],[134.96661,34.68941],[134.96592,34.6893],[134.96543,34.68713],[134.96485,34.68623],[134.96519,34.68568],[134.96442,34.6856],[134.9644,34.68526],[134.96558,34.68365],[134.96508,34.68346],[134.96506,34.68278],[134.96655,34.68166],[134.96733,34.67995],[134.9693,34.67808],[134.97137,34.6775],[134.97166,34.67722],[134.97198,34.67623],[134.97137,34.67501],[134.97202,34.67449],[134.97205,34.6742],[134.97023,34.67331],[134.97011,34.67252],[134.96985,34.67238],[134.97004,34.67148],[134.97189,34.66902],[134.97178,34.66816],[134.97198,34.66786],[134.97296,34.66748],[134.97373,34.66673],[134.9735,34.66636],[134.97439,34.66597],[134.97464,34.66479],[134.97546,34.66333],[134.97549,34.66246],[134.97496,34.6618],[134.97558,34.66156],[134.97565,34.66073],[134.9764,34.66014],[134.97617,34.65937],[134.97681,34.65906],[134.97668,34.65863],[134.97995,34.65771],[134.98119,34.65989],[134.98028,34.6604],[134.98069,34.66124],[134.98098,34.661],[134.98135,34.66117],[134.98181,34.66072],[134.98266,34.66106],[134.98372,34.66097],[134.98576,34.65893],[134.98605,34.65775],[134.98648,34.65741],[134.98891,34.65796],[134.9895,34.65768],[134.99182,34.65783],[134.99252,34.65759],[134.99457,34.65815],[134.99658,34.65904],[134.9973,34.65886],[134.9989,34.65732],[134.99973,34.65691],[135.00251,34.65908],[135.00458,34.65796],[135.00492,34.65739],[135.00609,34.65794],[135.00791,34.66008],[135.00832,34.65983],[135.00887,34.66035],[135.01034,34.66016],[135.01114,34.66043],[135.01106,34.66071],[135.00983,34.66087],[135.00976,34.66112],[135.01001,34.66131],[135.01064,34.66148],[135.01351,34.6614],[135.014,34.66159],[135.01435,34.66118],[135.01382,34.66061],[135.01383,34.66008],[135.01497,34.66052],[135.01519,34.66038],[135.01546,34.66078],[135.01567,34.66047],[135.01598,34.6607],[135.01644,34.66056],[135.01637,34.65993],[135.0176,34.65966],[135.01684,34.6594],[135.01536,34.65958],[135.01476,34.65944],[135.01473,34.65911],[135.01546,34.65851],[135.01443,34.65879],[135.01391,34.6581],[135.01515,34.65761],[135.01457,34.65714],[135.01474,34.65693],[135.01787,34.65891],[135.01821,34.65821],[135.01809,34.6578],[135.01935,34.65842],[135.01997,34.65842],[135.021,34.65816],[135.02102,34.65775],[135.02151,34.6573],[135.0223,34.65735],[135.02287,34.65927],[135.0232,34.65918],[135.02382,34.6583],[135.02387,34.65894],[135.02577,34.66035],[135.0252,34.66052],[135.02493,34.66094],[135.0264,34.66063],[135.02691,34.66183],[135.02841,34.66118],[135.03246,34.65842],[135.03085,34.65699],[135.02912,34.65467],[135.02478,34.65154],[135.02352,34.64997],[135.02138,34.64859],[135.02012,34.6474],[135.02024,34.64663],[135.01871,34.64319],[135.02216,34.64158],[135.02439,34.64003],[135.02607,34.63843],[135.02615,34.63787],[135.02654,34.63752],[135.02727,34.63768],[135.02794,34.63704],[135.02764,34.63663],[135.02794,34.63679],[135.02852,34.63609],[135.02882,34.63622],[135.03121,34.63427],[135.03221,34.6332],[135.03197,34.6328],[135.0327,34.63233],[135.03187,34.63129],[135.03463,34.62966],[135.03533,34.63035],[135.03695,34.6294],[135.0364,34.62862],[135.03835,34.62748],[135.03824,34.62788],[135.03913,34.62794],[135.03954,34.62763],[135.03965,34.6271],[135.0415,34.6269],[135.04211,34.62654],[135.04247,34.62598],[135.04378,34.62595],[135.0443,34.62543],[135.04386,34.6252],[135.0453,34.62515],[135.04508,34.62536],[135.04504,34.62613],[135.04546,34.62621],[135.0456,34.62477],[135.04664,34.62472],[135.04617,34.62481],[135.04613,34.62501],[135.04755,34.62569],[135.04789,34.62519],[135.04706,34.62491],[135.04714,34.62469],[135.05165,34.62446],[135.05172,34.62527],[135.05113,34.626],[135.05107,34.62654],[135.05177,34.62682],[135.05197,34.62578],[135.0526,34.62463],[135.05207,34.6258],[135.0528,34.626],[135.05204,34.626],[135.05202,34.62678],[135.05383,34.62687],[135.05395,34.62652],[135.05367,34.62639],[135.0543,34.62642],[135.05512,34.62649],[135.05515,34.62705],[135.05589,34.62711],[135.056,34.6269],[135.0563,34.62715],[135.05643,34.62693],[135.05649,34.62716],[135.0572,34.62723],[135.05732,34.62639],[135.05569,34.62601],[135.05547,34.62621],[135.05549,34.62589],[135.05352,34.62509],[135.05457,34.62531],[135.05536,34.62571],[135.05625,34.62564],[135.05641,34.62445],[135.05462,34.6246],[135.05551,34.62427],[135.05772,34.6245],[135.05816,34.62477],[135.058,34.62739],[135.05837,34.62775],[135.05917,34.62748],[135.0596,34.62583],[135.06008,34.62558],[135.07452,34.62832],[135.07483,34.62873],[135.0743,34.63067],[135.07475,34.63097],[135.07989,34.63193],[135.08024,34.63182],[135.08041,34.63114],[135.08041,34.63184],[135.08158,34.63173],[135.08167,34.631],[135.08053,34.63091],[135.08022,34.63059],[135.08238,34.63098],[135.0823,34.63208],[135.08262,34.63199],[135.08241,34.6326],[135.08416,34.63311],[135.08524,34.63371],[135.0868,34.63385],[135.08694,34.63368],[135.08706,34.63386],[135.0914,34.63434],[135.09292,34.63429],[135.09302,34.63481],[135.09335,34.63437],[135.09351,34.63477],[135.09655,34.63533],[135.10146,34.63699],[135.10232,34.63708],[135.10298,34.63771],[135.10331,34.63749],[135.10311,34.63783],[135.10376,34.63842],[135.10425,34.63818],[135.10392,34.63849],[135.10421,34.6388],[135.10469,34.6391],[135.10505,34.6388],[135.10482,34.63921],[135.10562,34.63965],[135.10609,34.63922],[135.10581,34.63968],[135.10637,34.63997],[135.10802,34.64006],[135.11045,34.63897],[135.11084,34.6391],[135.11041,34.63908],[135.10882,34.63989],[135.11041,34.64039],[135.11089,34.63954],[135.11047,34.64074],[135.11131,34.6411],[135.11151,34.64081],[135.11168,34.64113],[135.11286,34.6412],[135.11298,34.64102],[135.11321,34.64132],[135.11514,34.64138],[135.1154,34.64035],[135.11534,34.64171],[135.11579,34.64157],[135.11602,34.64053],[135.11598,34.64129],[135.1174,34.64161],[135.11749,34.64182],[135.11852,34.64178],[135.11958,34.64121],[135.11961,34.64143],[135.12082,34.64223],[135.12187,34.64239],[135.12234,34.64235],[135.12243,34.64215],[135.12281,34.64236],[135.12368,34.64211],[135.12454,34.64149],[135.1257,34.64241],[135.12746,34.64252],[135.12978,34.64208],[135.12983,34.64107],[135.1284,34.64094],[135.1298,34.64094],[135.12987,34.64068],[135.13156,34.63952],[135.13014,34.64063],[135.13024,34.64082],[135.13138,34.64091],[135.12999,34.64094],[135.13,34.64238],[135.13198,34.64238],[135.13208,34.64135],[135.13171,34.64107],[135.13132,34.64117],[135.13163,34.64095],[135.13206,34.64126],[135.13514,34.64101],[135.13513,34.64149],[135.13499,34.64106],[135.13406,34.6412],[135.13415,34.6419],[135.13489,34.64192],[135.13508,34.64162],[135.13495,34.64199],[135.13461,34.64206],[135.13474,34.6427],[135.13552,34.64277],[135.13651,34.6415],[135.13685,34.64143],[135.14754,34.64581],[135.1498,34.64604],[135.15081,34.64553],[135.1498,34.64613],[135.14939,34.64693],[135.1467,34.6472],[135.14627,34.64764],[135.14924,34.64898],[135.1495,34.64874],[135.15035,34.64898],[135.15058,34.64824],[135.14981,34.64783],[135.15089,34.64617],[135.15537,34.64666],[135.15653,34.64637],[135.1561,34.6467],[135.18331,34.6496],[135.18693,34.6526],[135.18762,34.65278],[135.18707,34.65267],[135.18691,34.65328],[135.18662,34.65307],[135.18619,34.65335],[135.18609,34.65614],[135.18604,34.65354],[135.18482,34.65366],[135.18435,34.65416],[135.18444,34.65464],[135.18515,34.65558],[135.18328,34.65681],[135.18427,34.65929],[135.18412,34.65933],[135.18256,34.65561],[135.18065,34.65546],[135.18064,34.65766],[135.18033,34.6583],[135.18058,34.65856],[135.18011,34.65902],[135.1798,34.65886],[135.17952,34.65912],[135.17874,34.66059],[135.18054,34.66117],[135.1786,34.66082],[135.17799,34.66247],[135.17744,34.663],[135.17742,34.66376],[135.17869,34.66384],[135.17981,34.66241],[135.18271,34.66166],[135.18368,34.6638],[135.186,34.66325],[135.18738,34.66688],[135.18256,34.66816],[135.18047,34.66798],[135.18019,34.66751],[135.17718,34.6678],[135.17708,34.66801],[135.17771,34.66842],[135.17775,34.67044],[135.1809,34.67073],[135.18238,34.67026],[135.18774,34.67013],[135.1881,34.67017],[135.18783,34.67047],[135.18859,34.67087],[135.18859,34.67053],[135.189,34.67046],[135.18878,34.67073],[135.1891,34.67089],[135.18919,34.67129],[135.18929,34.67192],[135.18908,34.67219],[135.18939,34.67233],[135.18923,34.67289],[135.18883,34.67288],[135.18862,34.67366],[135.18832,34.67372],[135.18781,34.67476],[135.187,34.67511],[135.18617,34.67497],[135.18597,34.67524],[135.18732,34.67584],[135.18696,34.67686],[135.1842,34.67673],[135.18387,34.67746],[135.18354,34.67753],[135.18378,34.6778],[135.18602,34.67798],[135.18502,34.68072],[135.184,34.6808],[135.18454,34.68098],[135.18431,34.68154],[135.18445,34.68207],[135.18629,34.68257],[135.18699,34.68103],[135.18876,34.67891],[135.18979,34.67949],[135.18856,34.68102],[135.19058,34.68139],[135.19033,34.68152],[135.19021,34.68551],[135.19314,34.68553],[135.19314,34.68484],[135.19292,34.6847],[135.19096,34.68472],[135.19098,34.68452],[135.19226,34.6845],[135.1925,34.68275],[135.19137,34.68255],[135.1926,34.6826],[135.19316,34.67941],[135.19426,34.67956],[135.19386,34.68272],[135.19529,34.68281],[135.19593,34.67969],[135.19693,34.67985],[135.19651,34.68296],[135.19767,34.6831],[135.19803,34.6827],[135.19853,34.67998],[135.1996,34.68011],[135.19928,34.68251],[135.20095,34.68289],[135.2024,34.67864],[135.20361,34.67933],[135.20189,34.68505],[135.20277,34.68583],[135.20389,34.68458],[135.20421,34.68477],[135.20309,34.68612],[135.20395,34.68688],[135.2075,34.68429],[135.21818,34.69002],[135.21457,34.69278],[135.21529,34.6936],[135.21885,34.69546],[135.22402,34.6917],[135.23831,34.69327],[135.23495,34.69854],[135.22826,34.69882],[135.2281,34.70006],[135.23975,34.7014],[135.2453,34.69936],[135.2682,34.70184],[135.26833,34.70246],[135.26769,34.70606],[135.268,34.70696],[135.2693,34.70621],[135.271,34.70671],[135.27158,34.70237],[135.27185,34.70221],[135.2881,34.70395],[135.28678,34.7119],[135.28344,34.71162],[135.28269,34.71128],[135.2818,34.71242],[135.282,34.71253],[135.28224,34.71225],[135.28322,34.71274],[135.28323,34.71309],[135.28422,34.71319],[135.28428,34.71355],[135.28558,34.71369],[135.28563,34.71407],[135.28732,34.71425],[135.28736,34.71462],[135.28943,34.71498],[135.29004,34.71484],[135.29074,34.7151],[135.2913,34.71495],[135.29195,34.71629],[135.29129,34.71704],[135.29241,34.71751],[135.29157,34.71728],[135.29133,34.71774],[135.29235,34.71815],[135.29268,34.71774],[135.2931,34.7178],[135.29254,34.71946],[135.29289,34.71935],[135.29302,34.71896],[135.29429,34.71946],[135.29761,34.71948],[135.30052,34.71905],[135.30055,34.71957],[135.30124,34.71957],[135.30346,34.71909],[135.30437,34.71867],[135.30507,34.71868],[135.3055,34.71844],[135.3058,34.7147],[135.30609,34.71448],[135.32377,34.71797],[135.32397,34.71819],[135.32387,34.72426],[135.32367,34.72441],[135.32386,34.72473],[135.32258,34.7256],[135.32264,34.72581],[135.32409,34.72585],[135.3242,34.72557],[135.32664,34.72509],[135.32826,34.72437],[135.32971,34.72423],[135.33305,34.72287],[135.33425,34.72211],[135.33436,34.72176],[135.33468,34.72176],[135.33491,34.72315],[135.33524,34.72324],[135.33538,34.72371],[135.33451,34.72425],[135.33569,34.72622],[135.33585,34.7257],[135.33739,34.72477],[135.33742,34.72398],[135.33781,34.72459],[135.33883,34.72399],[135.33892,34.7223],[135.34401,34.71914],[135.3437,34.71857],[135.34889,34.71467],[135.34954,34.7152],[135.34997,34.71524],[135.35117,34.7147],[135.35259,34.71305],[135.35675,34.70988],[135.35731,34.70926],[135.35706,34.70898],[135.35854,34.70803],[135.36028,34.70606],[135.36137,34.70579],[135.36313,34.70601],[135.36387,34.70504],[135.36209,34.70341],[135.36213,34.70318],[135.36158,34.70291],[135.3629,34.7015],[135.3614,34.70041],[135.36052,34.70117],[135.35975,34.7012],[135.3539,34.69682],[135.36301,34.68867],[135.36211,34.68595],[135.36303,34.6885],[135.36371,34.68844],[135.3652,34.68956],[135.36508,34.68984],[135.36725,34.69147],[135.36764,34.69217],[135.36797,34.69201],[135.36886,34.69268],[135.36736,34.69386],[135.36597,34.69293],[135.36518,34.69364],[135.36519,34.69388],[135.36768,34.69573],[135.36974,34.6939],[135.36995,34.69406],[135.36786,34.69571],[135.36843,34.69633],[135.36878,34.69631],[135.37089,34.69437],[135.36931,34.69321],[135.3695,34.69303],[135.37104,34.69428],[135.37367,34.69305],[135.3724,34.68988],[135.36856,34.68322],[135.37128,34.68087],[135.37666,34.68562],[135.37768,34.68487],[135.37545,34.68703],[135.37533,34.6874],[135.37706,34.69155],[135.37735,34.69159],[135.37761,34.69262],[135.37884,34.69229],[135.3789,34.69165],[135.38102,34.69115],[135.38243,34.69356],[135.38345,34.69375],[135.38468,34.69578],[135.38538,34.69638],[135.38663,34.6958],[135.38522,34.69276],[135.38828,34.69186],[135.38931,34.69192],[135.39183,34.69472],[135.39212,34.69473],[135.39385,34.69695],[135.39337,34.69732],[135.39385,34.69799],[135.39208,34.70046],[135.39235,34.70129],[135.3931,34.70113],[135.39471,34.69879],[135.39601,34.70029],[135.397,34.70013],[135.39799,34.70055],[135.39832,34.70003],[135.39875,34.7001],[135.39879,34.69975],[135.39949,34.69975],[135.39954,34.69946],[135.39998,34.69981],[135.40112,34.69927],[135.40011,34.69753],[135.39523,34.69173],[135.39538,34.6915],[135.39284,34.68824],[135.382,34.68227],[135.37571,34.67998],[135.37392,34.67863],[135.37621,34.67666],[135.39197,34.68006],[135.39849,34.68804],[135.39884,34.68819],[135.40448,34.69575],[135.40493,34.69579],[135.40632,34.69755],[135.40729,34.6971],[135.40956,34.69975],[135.41287,34.702],[135.41635,34.70341],[135.42492,34.70605],[135.42621,34.70715],[135.4288,34.71063],[135.4311,34.71235],[135.43591,34.71456],[135.44444,34.71737],[135.44652,34.71866],[135.44788,34.72078],[135.44806,34.7223],[135.44758,34.72389],[135.44626,34.72621],[135.44562,34.72841],[135.44556,34.7295],[135.44658,34.73229],[135.4477,34.73361],[135.44899,34.7341],[135.45477,34.73433],[135.45714,34.73405],[135.46029,34.73314],[135.45986,34.73402],[135.45921,34.73459],[135.45884,34.73585],[135.45853,34.73613],[135.45919,34.73821],[135.45984,34.74621],[135.4602,34.74773],[135.45919,34.75044],[135.45994,34.751],[135.45925,34.75209],[135.45822,34.75187],[135.45709,34.75104],[135.45667,34.75166],[135.45582,34.75506],[135.45673,34.75821],[135.45664,34.75954],[135.45629,34.76035],[135.45588,34.76049],[135.45446,34.75989],[135.45304,34.75789],[135.45259,34.75785],[135.45191,34.75819],[135.45007,34.76006],[135.4505,34.7626],[135.4499,34.76497],[135.45041,34.76632],[135.44949,34.76749],[135.44806,34.76832],[135.44706,34.76857],[135.44467,34.7686],[135.44451,34.76981],[135.44538,34.77142],[135.44565,34.77505],[135.44622,34.77538],[135.4462,34.77707],[135.44544,34.77759],[135.44497,34.78015],[135.44513,34.78074],[135.44452,34.78158],[135.44448,34.78212],[135.44381,34.78235],[135.44381,34.78416],[135.44232,34.7845],[135.44277,34.78633],[135.4416,34.78955],[135.44186,34.7897],[135.44209,34.78935],[135.44287,34.78931],[135.44239,34.78962],[135.44271,34.79],[135.44141,34.79066],[135.44279,34.79117],[135.44161,34.79196],[135.44116,34.79194],[135.44099,34.79262],[135.44183,34.79416],[135.4429,34.79419],[135.44339,34.79614],[135.44366,34.79625],[135.44371,34.79704],[135.44293,34.79804],[135.44289,34.7999],[135.44388,34.79943],[135.44507,34.79981],[135.44563,34.7996],[135.44644,34.79983],[135.44654,34.79934],[135.44797,34.79956],[135.44758,34.80142],[135.44706,34.8017],[135.44684,34.8028],[135.44723,34.80284],[135.44658,34.80431],[135.44943,34.80454],[135.45048,34.80536],[135.45084,34.80514],[135.45206,34.80528],[135.4524,34.80604],[135.45212,34.80626],[135.45157,34.80613],[135.4509,34.8064],[135.44958,34.80584],[135.44882,34.80614],[135.44812,34.80611],[135.44817,34.80893],[135.44855,34.80979],[135.44706,34.80989],[135.44813,34.811],[135.44921,34.81096],[135.44956,34.81178],[135.44959,34.81286],[135.4483,34.81451],[135.44828,34.81525],[135.44785,34.81595],[135.44938,34.81745],[135.45027,34.81749],[135.45074,34.81712],[135.45121,34.81731],[135.4509,34.81864],[135.45199,34.81898],[135.45152,34.82007],[135.45184,34.82068],[135.45168,34.82142],[135.45052,34.82234],[135.45033,34.82473],[135.45087,34.82665],[135.45072,34.82697],[135.45112,34.82953],[135.45137,34.82997],[135.45259,34.83053],[135.45271,34.83145],[135.45305,34.83221],[135.45362,34.83271],[135.45384,34.83354],[135.45371,34.83416],[135.45275,34.8355],[135.45307,34.83632],[135.45315,34.83806],[135.45452,34.83922],[135.45437,34.84109],[135.45366,34.84176],[135.45374,34.8428],[135.45405,34.84339],[135.45446,34.84356],[135.45459,34.84401],[135.45548,34.84403],[135.45587,34.84434],[135.45654,34.84427],[135.45709,34.84462],[135.45846,34.84401],[135.45947,34.84383],[135.45994,34.84446],[135.45882,34.84623],[135.45907,34.8466],[135.45983,34.85037],[135.46081,34.85133],[135.46044,34.85154],[135.45985,34.85112],[135.45966,34.8536],[135.45903,34.85476],[135.45838,34.8554],[135.45885,34.85712],[135.4588,34.85777],[135.45927,34.85858],[135.45952,34.86007],[135.45934,34.8612],[135.45734,34.86347],[135.45655,34.86406],[135.45627,34.86473],[135.45308,34.86518],[135.45113,34.86578],[135.44926,34.86705],[135.44863,34.86789],[135.4485,34.86863],[135.448,34.86925],[135.44726,34.86947],[135.4464,34.87059],[135.44569,34.87212],[135.44473,34.87223],[135.4436,34.87272],[135.44309,34.87352],[135.44354,34.87435],[135.44247,34.87417],[135.44207,34.87436],[135.44184,34.87497],[135.44143,34.87507],[135.43996,34.87428],[135.43969,34.87384],[135.43919,34.87374],[135.43825,34.87445],[135.43803,34.875],[135.43812,34.87685],[135.43703,34.87739],[135.43732,34.87947],[135.43791,34.88118],[135.43781,34.88174],[135.43893,34.88369],[135.43889,34.8845],[135.43992,34.88552],[135.43975,34.88638],[135.44015,34.88737],[135.44015,34.8882],[135.44096,34.88993],[135.44094,34.89044],[135.44224,34.89106],[135.44376,34.8912],[135.44394,34.89139],[135.44449,34.89309],[135.44406,34.89396],[135.44473,34.89538],[135.44513,34.89544],[135.44588,34.89671],[135.44565,34.89765],[135.44516,34.8984],[135.44358,34.89894],[135.44284,34.89857],[135.44202,34.89759],[135.44088,34.8971],[135.43948,34.89602],[135.43802,34.89605],[135.43604,34.89529],[135.43559,34.89498],[135.43467,34.8936],[135.43395,34.89323],[135.43333,34.89196],[135.43261,34.89174],[135.432,34.8919],[135.43057,34.89256],[135.4305,34.89346],[135.4316,34.89434],[135.43244,34.89599],[135.43175,34.89685],[135.4311,34.89724],[135.4303,34.89872],[135.4295,34.90059],[135.42737,34.90437],[135.4275,34.90535],[135.4272,34.90605],[135.42568,34.90674],[135.42443,34.9064],[135.41996,34.90648],[135.41967,34.90684],[135.41967,34.90749],[135.4186,34.9087],[135.41932,34.90994],[135.42257,34.91064],[135.42364,34.91123],[135.42413,34.91189],[135.42451,34.91351],[135.42542,34.91422],[135.42746,34.91472],[135.42809,34.91525],[135.43098,34.91656],[135.43326,34.91695],[135.43452,34.91677],[135.43654,34.91802],[135.43812,34.91975],[135.4393,34.9205],[135.44105,34.92017],[135.44392,34.92008],[135.44626,34.92036],[135.44847,34.91998],[135.45143,34.9199],[135.45272,34.91925],[135.45485,34.91878],[135.45579,34.91815],[135.45671,34.91791],[135.45828,34.91814],[135.46026,34.91807],[135.461,34.91829],[135.46229,34.91792],[135.4636,34.91831],[135.46444,34.91924],[135.4657,34.91983],[135.46627,34.92121],[135.46598,34.92273],[135.46599,34.92439],[135.46708,34.9252],[135.46852,34.92543],[135.46831,34.9274],[135.46769,34.92785],[135.46715,34.92879],[135.46361,34.92766],[135.46313,34.92703],[135.46194,34.92684],[135.46101,34.92628],[135.46057,34.9269],[135.45712,34.92914],[135.45253,34.92979],[135.45195,34.93043],[135.45219,34.93132],[135.45142,34.93203],[135.45025,34.9326],[135.44956,34.93346],[135.44913,34.9345],[135.44763,34.93441],[135.44247,34.93892],[135.44166,34.93939],[135.43855,34.93696],[135.43498,34.9383],[135.43288,34.93801],[135.43233,34.93702],[135.4306,34.93695],[135.42858,34.93646],[135.4274,34.93707],[135.4265,34.93689],[135.42535,34.93643],[135.42492,34.93574],[135.42336,34.93446],[135.42245,34.93434],[135.42148,34.93387],[135.41848,34.93389],[135.41737,34.93313],[135.41617,34.93121],[135.41623,34.92976],[135.41445,34.92944],[135.41378,34.92901],[135.41214,34.92865],[135.41076,34.92867],[135.40911,34.92813],[135.40709,34.9281],[135.40782,34.92723],[135.40766,34.92629],[135.40793,34.92569],[135.40842,34.92535],[135.41053,34.92476],[135.41075,34.92433],[135.41063,34.92368],[135.41162,34.92338],[135.41181,34.92306],[135.41155,34.92276],[135.41042,34.92264],[135.41009,34.92233],[135.4105,34.92109],[135.40629,34.9203],[135.40619,34.9199],[135.40644,34.91937],[135.4073,34.91856],[135.40697,34.91686],[135.40714,34.91645],[135.40682,34.91578],[135.40518,34.91557],[135.4051,34.91437],[135.40299,34.91415],[135.40225,34.9143],[135.40047,34.91152],[135.39922,34.9102],[135.39757,34.91149],[135.39472,34.90915],[135.39434,34.90835],[135.39567,34.90676],[135.39562,34.90638],[135.39669,34.90577],[135.39534,34.90438],[135.39414,34.90353],[135.394,34.90298],[135.39427,34.90206],[135.39189,34.90277],[135.39078,34.90235],[135.38876,34.89826],[135.38895,34.89761],[135.38732,34.89605],[135.3857,34.89497],[135.38443,34.89469],[135.38328,34.89412],[135.38362,34.89384],[135.38521,34.89352],[135.38547,34.89329],[135.38542,34.89291],[135.38498,34.89261],[135.38152,34.89213],[135.38088,34.89141],[135.38097,34.88849],[135.37948,34.88683],[135.37936,34.88574],[135.38019,34.88412],[135.38043,34.88198],[135.38107,34.88117],[135.3817,34.88082],[135.38243,34.87976],[135.38296,34.87964],[135.38368,34.87806],[135.38368,34.87752],[135.38138,34.87671],[135.3808,34.87574],[135.37984,34.87536],[135.37655,34.87538],[135.37615,34.87689],[135.3755,34.87683],[135.3751,34.87631],[135.37536,34.87394],[135.37433,34.87425],[135.37314,34.87373],[135.37204,34.87443],[135.37165,34.87349],[135.37076,34.8737],[135.3702,34.87324],[135.3702,34.87213],[135.37123,34.87108],[135.3717,34.87007],[135.36978,34.86984],[135.36803,34.87235],[135.36809,34.87378],[135.36484,34.87387],[135.36481,34.87291],[135.3637,34.8713],[135.3639,34.86858],[135.36324,34.86721],[135.36249,34.8668],[135.36081,34.86386],[135.3565,34.86494],[135.35051,34.86422],[135.34851,34.86614],[135.34826,34.86758],[135.34864,34.86901],[135.34758,34.87031],[135.34625,34.87122],[135.34548,34.87206],[135.34486,34.8737],[135.34342,34.87488],[135.34113,34.87518],[135.33922,34.87582],[135.33895,34.87775],[135.33956,34.87969],[135.33885,34.88005],[135.33853,34.88107],[135.33756,34.88215],[135.33723,34.88429],[135.33752,34.88703],[135.33746,34.88744],[135.3363,34.88748],[135.33643,34.88854],[135.3371,34.88971],[135.33621,34.8915],[135.33386,34.89341],[135.33329,34.89278],[135.33272,34.8926],[135.33196,34.89163],[135.33035,34.8925],[135.33029,34.89292],[135.3283,34.89296],[135.32363,34.89394],[135.32326,34.89424],[135.32379,34.89506],[135.32406,34.89641],[135.32381,34.89717],[135.32107,34.89761],[135.32026,34.89836],[135.32027,34.89899],[135.32232,34.89849],[135.32297,34.89879],[135.32501,34.8988],[135.32681,34.89818],[135.32945,34.89795],[135.33045,34.89893],[135.3307,34.8998],[135.33057,34.90026],[135.33159,34.90058],[135.33162,34.9017],[135.33234,34.90239],[135.33357,34.90291],[135.33481,34.9027],[135.33699,34.90308],[135.33886,34.90308],[135.33876,34.90499],[135.33933,34.90586],[135.33938,34.90751],[135.34159,34.90808],[135.34218,34.91104],[135.34088,34.91316],[135.34096,34.91476],[135.34052,34.91511],[135.34026,34.91596],[135.33979,34.91642],[135.33883,34.91608],[135.33809,34.91644],[135.33657,34.91612],[135.33398,34.91661],[135.33304,34.9173],[135.33305,34.91849],[135.33274,34.91976],[135.33234,34.92034],[135.3322,34.92159],[135.3316,34.92227],[135.33272,34.92529],[135.33251,34.92609],[135.33171,34.92672],[135.33137,34.92828],[135.33031,34.92994],[135.33077,34.93147],[135.33073,34.93214],[135.33002,34.93265],[135.32841,34.93307],[135.32741,34.93305],[135.32623,34.93386],[135.32499,34.93431],[135.32445,34.93563],[135.32437,34.93663],[135.32503,34.93764],[135.32482,34.93858],[135.32628,34.93924],[135.32642,34.93984],[135.32623,34.94039],[135.32657,34.94072],[135.32653,34.94126],[135.32544,34.94133],[135.32467,34.94176],[135.32362,34.94175],[135.32338,34.94216],[135.32247,34.94272],[135.32168,34.94381],[135.32076,34.94412],[135.32062,34.9454],[135.31916,34.94689],[135.31877,34.94782],[135.31764,34.94922],[135.31685,34.95096],[135.31656,34.95223],[135.31401,34.95312],[135.31397,34.95388],[135.31436,34.95419],[135.31448,34.95497],[135.31526,34.95597],[135.31574,34.95749],[135.31533,34.9579],[135.31494,34.95908],[135.31446,34.95963],[135.31226,34.9589],[135.30927,34.95964],[135.30725,34.96075],[135.30704,34.96159],[135.3053,34.96238],[135.30514,34.96169],[135.30419,34.96093],[135.30434,34.95997],[135.30403,34.95843],[135.30413,34.95741],[135.30389,34.95681],[135.30464,34.95552],[135.30504,34.95419],[135.30266,34.95181],[135.30237,34.95035],[135.30277,34.95006],[135.30311,34.94916],[135.30519,34.94894],[135.30628,34.94786],[135.30691,34.94767],[135.30743,34.94681],[135.30828,34.94641],[135.30862,34.94526],[135.30825,34.94414],[135.30876,34.94321],[135.30843,34.94158],[135.30903,34.94132],[135.30899,34.94065],[135.30936,34.93994],[135.30899,34.93913],[135.30889,34.93759],[135.3085,34.93724],[135.30694,34.93687],[135.30803,34.93453],[135.30735,34.93353],[135.3078,34.93312],[135.30873,34.93295],[135.30892,34.93222],[135.30822,34.93149],[135.30839,34.9305],[135.3076,34.92957],[135.30779,34.92905],[135.30764,34.92867],[135.30677,34.92781],[135.30562,34.92593],[135.30545,34.92535],[135.30565,34.92497],[135.30544,34.92453],[135.30555,34.92355],[135.30482,34.92298],[135.30388,34.92168],[135.30317,34.92122],[135.30269,34.92122],[135.30231,34.92235],[135.30101,34.92333],[135.29954,34.92599],[135.29845,34.92614],[135.29804,34.92673],[135.29614,34.92776],[135.29445,34.92819],[135.29125,34.92688],[135.28946,34.9268],[135.28702,34.92572],[135.28688,34.92372],[135.28433,34.92276],[135.28401,34.92308],[135.28222,34.92206],[135.28153,34.92112],[135.2805,34.92071],[135.27659,34.92057],[135.27575,34.91939],[135.27523,34.91727],[135.27542,34.91555],[135.2758,34.91444],[135.27651,34.91348],[135.27656,34.9123],[135.2777,34.91139],[135.27799,34.91084],[135.2761,34.90879],[135.27655,34.90683],[135.27773,34.90572],[135.27709,34.90418],[135.27796,34.90336],[135.27661,34.90216],[135.27654,34.90111],[135.27609,34.9008],[135.27566,34.89899],[135.27617,34.89769],[135.27547,34.89667],[135.2756,34.89579],[135.27486,34.89554],[135.27444,34.89455],[135.2748,34.89362],[135.27467,34.8931],[135.27523,34.89239],[135.27705,34.89066],[135.27951,34.889],[135.28043,34.88721],[135.28035,34.88578],[135.27897,34.8866],[135.27773,34.88606],[135.27529,34.88582],[135.26304,34.88481],[135.2614,34.88512],[135.25803,34.88334],[135.25724,34.88206],[135.25513,34.88115],[135.25362,34.88009],[135.25267,34.87995],[135.25215,34.87931],[135.25142,34.87897],[135.25029,34.87881],[135.24961,34.8783],[135.2482,34.87786],[135.24757,34.87828],[135.24689,34.87826],[135.24627,34.8787],[135.24465,34.87764],[135.24392,34.87816],[135.24294,34.87786],[135.2424,34.87834],[135.24194,34.87835],[135.23919,34.87705],[135.23703,34.87712],[135.23479,34.87595],[135.23474,34.87554],[135.23398,34.8748],[135.23374,34.87411],[135.23315,34.87366],[135.23102,34.87314],[135.22972,34.87342],[135.22835,34.87244],[135.22644,34.87293],[135.22576,34.87374],[135.22395,34.87441],[135.22188,34.87505],[135.22071,34.8749],[135.21958,34.87558],[135.21809,34.87567],[135.21664,34.87493],[135.21523,34.87501],[135.21311,34.8765],[135.21213,34.8783],[135.2101,34.87845],[135.20793,34.87699],[135.20661,34.87755],[135.20557,34.87734],[135.20525,34.87693],[135.20417,34.87641],[135.20197,34.876],[135.20122,34.87599],[135.20082,34.8764],[135.19969,34.87638],[135.19759,34.87737],[135.19786,34.87819],[135.19756,34.87921],[135.19702,34.87966],[135.19572,34.87947],[135.195,34.88032],[135.19393,34.88094],[135.19226,34.88044],[135.19176,34.88053],[135.1916,34.88105],[135.19078,34.88205],[135.18888,34.88334],[135.18852,34.88478],[135.18814,34.88492],[135.18602,34.88467],[135.18619,34.88564],[135.18577,34.88694],[135.18292,34.88845],[135.18128,34.88866],[135.1806,34.88784],[135.17954,34.88768],[135.17602,34.88814],[135.17477,34.8885],[135.17267,34.88812],[135.17058,34.88907],[135.17037,34.8896],[135.17061,34.89022],[135.17023,34.89058],[135.1699,34.8905],[135.16717,34.88895],[135.16611,34.88865],[135.16554,34.88763],[135.16214,34.88519],[135.16044,34.88493],[135.15905,34.88427],[135.15873,34.88358],[135.15722,34.88298],[135.15554,34.88309],[135.15445,34.88269],[135.15441,34.88247],[135.15525,34.88174],[135.15626,34.87819],[135.15753,34.87798],[135.15852,34.87618],[135.15775,34.87414],[135.15721,34.87363],[135.15737,34.87329],[135.15646,34.87256],[135.15614,34.87159],[135.1566,34.87065],[135.15729,34.87005],[135.15717,34.86904],[135.15757,34.86882],[135.15639,34.86826],[135.15588,34.86594],[135.15641,34.86405],[135.15624,34.8635],[135.15783,34.86141],[135.15764,34.86092],[135.15646,34.86015],[135.15637,34.8592],[135.15678,34.85855],[135.15683,34.85781],[135.15737,34.85645],[135.15729,34.85573],[135.15761,34.85446],[135.15724,34.85229],[135.15833,34.85115],[135.15768,34.85001],[135.15796,34.84913],[135.15792,34.84815],[135.15655,34.84649],[135.15633,34.84511],[135.15539,34.8435],[135.15559,34.84154],[135.15535,34.84112],[135.15417,34.84071],[135.15302,34.83974],[135.15231,34.84023],[135.15261,34.84146],[135.15125,34.84194],[135.15079,34.84183],[135.1493,34.84027],[135.14709,34.83921],[135.14561,34.83806],[135.14488,34.83793],[135.14361,34.83695],[135.14268,34.83576],[135.14287,34.83494],[135.14015,34.8345],[135.13965,34.83465],[135.13924,34.83517],[135.13823,34.8354],[135.13755,34.83614],[135.13639,34.83615],[135.13524,34.83571],[135.13426,34.8357],[135.13397,34.83601],[135.13387,34.83677],[135.13318,34.83712],[135.13197,34.83718],[135.13123,34.83679],[135.12933,34.83701],[135.12853,34.83685],[135.1274,34.83722],[135.12649,34.83699],[135.12523,34.83706],[135.12419,34.83744],[135.12268,34.83757],[135.12112,34.8393],[135.12035,34.83961],[135.1196,34.84047],[135.1185,34.84286],[135.11657,34.84401],[135.11533,34.8456],[135.11341,34.84646],[135.11178,34.8462],[135.11142,34.84637],[135.11028,34.84523],[135.10873,34.84499],[135.10703,34.84375],[135.10607,34.84365],[135.10573,34.84281],[135.10582,34.84184],[135.10396,34.83871],[135.10395,34.83818],[135.10269,34.83657],[135.10144,34.83603],[135.10133,34.83501],[135.101,34.83455],[135.09946,34.8337],[135.09756,34.8333],[135.0967,34.83283],[135.095,34.8332],[135.09241,34.83232],[135.09292,34.83085],[135.09226,34.82807],[135.09123,34.82748],[135.09096,34.82691],[135.08953,34.82675],[135.08848,34.82595],[135.08702,34.8263],[135.08663,34.82605],[135.08599,34.82503],[135.08495,34.82417],[135.08498,34.82357],[135.08569,34.82263],[135.08554,34.82173],[135.08276,34.81849],[135.08144,34.81761],[135.08116,34.81705],[135.07759,34.817],[135.07599,34.81605],[135.07612,34.81511],[135.07648,34.8146],[135.07601,34.81414],[135.0764,34.81379],[135.07667,34.81278],[135.07731,34.81178],[135.07578,34.80886],[135.07655,34.80838],[135.07673,34.80791],[135.07561,34.80732],[135.07495,34.80572],[135.07708,34.80485],[135.07718,34.80402],[135.07748,34.80364],[135.07838,34.80354],[135.07989,34.80289],[135.08192,34.8015],[135.08294,34.79933],[135.08331,34.7974],[135.08462,34.796],[135.08568,34.79358],[135.08667,34.79267],[135.08868,34.79215],[135.08923,34.79237],[135.08961,34.79191],[135.09239,34.7909],[135.09406,34.78974],[135.09558,34.78812],[135.09571,34.78633],[135.09501,34.78617],[135.09397,34.78637],[135.09253,34.78555],[135.09333,34.78329],[135.09281,34.78259],[135.09281,34.7818],[135.09458,34.77863],[135.09283,34.77823],[135.09181,34.77885],[135.09038,34.77915],[135.0883,34.77847],[135.08741,34.77877],[135.08684,34.77866],[135.08604,34.77924],[135.08306,34.7786],[135.08169,34.77772],[135.08157,34.777],[135.07934,34.77454],[135.07772,34.77399],[135.0776,34.77366],[135.07829,34.77156],[135.07819,34.77116],[135.07583,34.77091],[135.07342,34.76963],[135.07103,34.76889],[135.06963,34.76745],[135.06634,34.76766],[135.06511,34.767],[135.06511,34.76584],[135.06457,34.76526],[135.06342,34.76507],[135.06203,34.76405],[135.06119,34.76375],[135.05922,34.76433],[135.05784,34.76371],[135.05701,34.76368],[135.05616,34.76428],[135.05421,34.76479],[135.0538,34.76545],[135.05387,34.76636],[135.05249,34.76686],[135.0522,34.76741],[135.05159,34.76768],[135.05155,34.76795],[135.05195,34.76841],[135.051,34.76974],[135.0497,34.76983],[135.04721,34.77166],[135.04671,34.77159],[135.04613,34.77104],[135.04554,34.771],[135.0452,34.77029],[135.04465,34.77004],[135.04344,34.77043],[135.04231,34.76981],[135.04057,34.76984],[135.0406,34.76865],[135.04029,34.76798],[135.04053,34.76731],[135.03953,34.76545],[135.03869,34.76475],[135.03557,34.76539],[135.03388,34.766],[135.03175,34.76574],[135.02977,34.76477],[135.02562,34.76415],[135.02561,34.76279],[135.02497,34.76243],[135.02108,34.76451],[135.01912,34.76536],[135.01732,34.76574],[135.01651,34.76629],[135.01349,34.76635],[135.00748,34.76781],[135.0054,34.77021],[135.00067,34.77024],[135.00059,34.7719],[135.002,34.77385],[135.00178,34.77567],[135.00014,34.77551],[134.99858,34.77475],[134.99749,34.77496],[134.99662,34.77424],[134.99312,34.77408],[134.99167,34.77347],[134.99027,34.77402],[134.98954,34.77352],[134.9887,34.77357],[134.98785,34.77301],[134.98606,34.77289],[134.98529,34.77191],[134.9836,34.7725],[134.98264,34.77217],[134.9818,34.77052],[134.9808,34.77007],[134.98054,34.76946],[134.97883,34.76884],[134.97773,34.76888],[134.9775,34.76748],[134.97657,34.7674],[134.97669,34.76618],[134.97526,34.76512],[134.97467,34.76499],[134.97373,34.76391],[134.97327,34.76407],[134.97286,34.76379],[134.97217,34.76235],[134.97174,34.7624],[134.97096,34.76347],[134.97012,34.76369],[134.96988,34.76368],[134.96903,34.76237],[134.96864,34.76213],[134.96819,34.76222],[134.96741,34.76311],[134.9666,34.76343],[134.96601,34.76333],[134.96498,34.76259],[134.96404,34.76231],[134.96242,34.76253],[134.96137,34.76302],[134.96101,34.76282],[134.96159,34.76126],[134.96264,34.7612],[134.9645,34.75627],[134.96431,34.7551],[134.96641,34.75251],[134.9665,34.7514],[134.95953,34.74445],[134.95407,34.73703],[134.94922,34.73291],[134.94851,34.73259],[134.94245,34.73221],[134.93583,34.73077],[134.93487,34.73044],[134.93499,34.72985],[134.92744,34.72722],[134.92609,34.72718],[134.9242,34.72781],[134.92319,34.72777],[134.92204,34.72719],[134.91829,34.7261],[134.91607,34.72412],[134.91507,34.72291],[134.91289,34.72167],[134.91204,34.72091],[134.91002,34.72028],[134.91106,34.71746]],[[135.03907,34.62705],[135.04076,34.62621],[135.03962,34.62688],[135.03956,34.62695],[135.03907,34.62705]],[[135.18903,34.67313],[135.1891,34.67315],[135.18907,34.67322],[135.189,34.67318],[135.18903,34.67313]],[[135.35374,34.67643],[135.35549,34.67586],[135.35968,34.6723],[135.35555,34.67592],[135.3547,34.67631],[135.35377,34.6765],[135.31334,34.67771],[135.35374,34.67643]],[[135.35629,34.70227],[135.35873,34.70409],[135.35867,34.70415],[135.35623,34.70231],[135.35629,34.70227]],[[135.34501,34.70478],[135.347,34.70287],[135.35311,34.70733],[135.35236,34.70798],[135.3524,34.7087],[135.35103,34.70971],[135.35008,34.70985],[135.34996,34.71068],[135.34763,34.71274],[135.34796,34.71374],[135.3475,34.71411],[135.34323,34.71539],[135.34241,34.71366],[135.34501,34.70478]],[[135.32489,34.70951],[135.32538,34.70892],[135.32539,34.70855],[135.32546,34.70893],[135.32493,34.7096],[135.32502,34.71037],[135.33436,34.71034],[135.33445,34.70825],[135.33406,34.70783],[135.33449,34.70815],[135.33957,34.70771],[135.34103,34.70329],[135.33965,34.70781],[135.33453,34.70832],[135.33459,34.71071],[135.33881,34.71092],[135.34116,34.71579],[135.34076,34.71809],[135.34014,34.71798],[135.3347,34.72136],[135.33036,34.7217],[135.33026,34.72211],[135.33018,34.72173],[135.3248,34.71696],[135.32489,34.70951]],[[135.3249,34.70789],[135.3255,34.7074],[135.33353,34.70741],[135.33406,34.70699],[135.33496,34.70733],[135.33412,34.70705],[135.33359,34.70746],[135.32555,34.70745],[135.32497,34.70792],[135.3249,34.70881],[135.3249,34.70789]],[[135.30694,34.70616],[135.30805,34.70606],[135.3072,34.70652],[135.30745,34.70709],[135.30826,34.70762],[135.30919,34.70773],[135.31041,34.70754],[135.31114,34.70715],[135.31154,34.70656],[135.31141,34.70598],[135.31071,34.70578],[135.32095,34.70485],[135.32209,34.70566],[135.32201,34.70797],[135.32063,34.70818],[135.31849,34.70908],[135.31744,34.70774],[135.31591,34.70843],[135.3161,34.70861],[135.31727,34.7081],[135.31758,34.70859],[135.31642,34.70925],[135.3166,34.70936],[135.31775,34.70886],[135.31795,34.70924],[135.31662,34.70989],[135.3167,34.71021],[135.31725,34.71025],[135.31838,34.70976],[135.31873,34.71029],[135.31934,34.71017],[135.31937,34.71149],[135.32065,34.71193],[135.32097,34.71102],[135.32087,34.70902],[135.32141,34.70852],[135.32208,34.70849],[135.32205,34.71642],[135.30613,34.71327],[135.30694,34.70616]],[[135.29335,34.70473],[135.29364,34.70454],[135.30407,34.7057],[135.30429,34.70592],[135.30329,34.71688],[135.29841,34.7176],[135.29693,34.71859],[135.29455,34.71857],[135.29378,34.71833],[135.29387,34.71761],[135.29504,34.71556],[135.2933,34.71481],[135.29221,34.71203],[135.29335,34.70473]],[[135.25549,34.67085],[135.25627,34.67142],[135.25755,34.6719],[135.29578,34.67626],[135.25752,34.67198],[135.25638,34.67156],[135.2556,34.67105],[135.25508,34.67052],[135.25383,34.66879],[135.25549,34.67085]],[[135.25296,34.68865],[135.2527,34.68849],[135.25446,34.67776],[135.27347,34.68005],[135.27696,34.68019],[135.2905,34.6817],[135.28947,34.68803],[135.27876,34.68975],[135.27846,34.69242],[135.2891,34.69087],[135.28802,34.69676],[135.28589,34.69674],[135.28578,34.69705],[135.2833,34.69701],[135.28321,34.69734],[135.28149,34.6973],[135.28139,34.69761],[135.27277,34.69875],[135.27229,34.69656],[135.26539,34.69581],[135.26416,34.69778],[135.25221,34.6933],[135.25296,34.68865]],[[135.27681,34.6513],[135.28285,34.65141],[135.28046,34.66608],[135.27454,34.66542],[135.27681,34.6513]],[[135.25595,34.64826],[135.25599,34.64832],[135.25479,34.64888],[135.25475,34.64883],[135.25595,34.64826]],[[135.20236,34.65924],[135.20276,34.65897],[135.20414,34.65924],[135.20427,34.65621],[135.20438,34.65621],[135.20437,34.65718],[135.20577,34.65772],[135.20671,34.65688],[135.21716,34.65008],[135.25165,34.65085],[135.24511,34.65084],[135.23889,34.66125],[135.22811,34.65803],[135.22583,34.66202],[135.23645,34.66529],[135.23415,34.66933],[135.24537,34.67068],[135.24325,34.67044],[135.24303,34.67137],[135.2424,34.67171],[135.24237,34.67167],[135.24299,34.67133],[135.24304,34.67041],[135.23421,34.66943],[135.2334,34.67105],[135.22099,34.66732],[135.21968,34.66969],[135.23189,34.67343],[135.23172,34.67375],[135.22802,34.67581],[135.21779,34.67274],[135.2165,34.67511],[135.22552,34.67789],[135.22533,34.67831],[135.2218,34.6813],[135.22293,34.68154],[135.22158,34.68145],[135.22,34.68278],[135.21029,34.68129],[135.21039,34.68065],[135.20922,34.67996],[135.21033,34.68051],[135.21064,34.67891],[135.20652,34.67686],[135.20525,34.67776],[135.20676,34.67879],[135.20323,34.67713],[135.20203,34.67626],[135.20161,34.67566],[135.20152,34.67528],[135.2016,34.67417],[135.2016,34.67551],[135.20218,34.67632],[135.20333,34.67696],[135.20418,34.67588],[135.20273,34.67473],[135.20274,34.67382],[135.20144,34.67363],[135.20236,34.65924]],[[135.24656,34.66786],[135.24667,34.66792],[135.24497,34.66982],[135.24487,34.66976],[135.24656,34.66786]],[[135.23224,34.68487],[135.2405,34.68578],[135.2403,34.68588],[135.23222,34.68496],[135.23224,34.68487]],[[135.20928,34.63014],[135.211,34.62942],[135.21482,34.63054],[135.22703,34.6315],[135.22863,34.63065],[135.22972,34.63171],[135.23871,34.6324],[135.24049,34.63311],[135.24029,34.63484],[135.2385,34.6353],[135.23813,34.63784],[135.23616,34.64151],[135.2357,34.64173],[135.23197,34.64144],[135.23198,34.64025],[135.22806,34.63996],[135.22784,34.64113],[135.22718,34.64115],[135.21334,34.63996],[135.2127,34.63952],[135.20887,34.63385],[135.20928,34.63014]],[[135.23881,34.68642],[135.23891,34.68642],[135.2389,34.68649],[135.2388,34.68648],[135.23881,34.68642]],[[135.23804,34.68641],[135.23812,34.68641],[135.23811,34.68647],[135.23803,34.68646],[135.23804,34.68641]],[[135.23739,34.68634],[135.23746,34.68635],[135.23745,34.6864],[135.23738,34.6864],[135.23739,34.68634]],[[135.23664,34.68617],[135.23673,34.68618],[135.23672,34.68625],[135.23663,34.68624],[135.23664,34.68617]],[[135.23588,34.68616],[135.23595,34.68617],[135.23593,34.68623],[135.23587,34.68622],[135.23588,34.68616]],[[135.23523,34.6861],[135.2353,34.6861],[135.23529,34.68615],[135.23522,34.68614],[135.23523,34.6861]],[[135.23449,34.68594],[135.23457,34.68595],[135.23455,34.68601],[135.23447,34.686],[135.23449,34.68594]],[[135.23372,34.68593],[135.23379,34.68593],[135.23378,34.68598],[135.23371,34.68598],[135.23372,34.68593]],[[135.23307,34.68585],[135.23314,34.68586],[135.23313,34.68592],[135.23306,34.6859],[135.23307,34.68585]],[[135.23232,34.6857],[135.2324,34.68571],[135.23239,34.68577],[135.23231,34.68576],[135.23232,34.6857]],[[135.22422,34.68918],[135.22429,34.68918],[135.22411,34.6908],[135.22405,34.69079],[135.22422,34.68918]],[[135.20435,34.65145],[135.20443,34.65151],[135.2023,34.65356],[135.20224,34.65353],[135.20435,34.65145]],[[135.19023,34.65288],[135.20246,34.65431],[135.20244,34.6544],[135.19021,34.653],[135.19023,34.65288]],[[135.13173,34.64043],[135.13703,34.64013],[135.13165,34.64052],[135.13145,34.6402],[135.13173,34.64043]],[[135.12675,34.64093],[135.12762,34.64094],[135.12761,34.64103],[135.12675,34.64102],[135.12675,34.64093]],[[135.12597,34.64093],[135.12597,34.64101],[135.12326,34.64102],[135.12315,34.64091],[135.12597,34.64093]],[[135.12168,34.64077],[135.12241,34.64084],[135.12238,34.64093],[135.12167,34.64086],[135.12168,34.64077]],[[135.11835,34.64044],[135.12093,34.64071],[135.12089,34.64081],[135.11834,34.64053],[135.11835,34.64044]],[[135.1162,34.63983],[135.11712,34.64009],[135.11707,34.64019],[135.11618,34.63988],[135.1162,34.63983]],[[135.11502,34.63948],[135.11594,34.63975],[135.11592,34.6398],[135.11499,34.63957],[135.11502,34.63948]],[[135.11354,34.63904],[135.11432,34.63927],[135.11429,34.63935],[135.1135,34.63912],[135.11354,34.63904]],[[135.11138,34.63816],[135.11283,34.63883],[135.11278,34.6389],[135.11134,34.63823],[135.11138,34.63816]],[[135.10451,34.63415],[135.10462,34.63423],[135.10454,34.63432],[135.10443,34.63426],[135.10451,34.63415]],[[135.0543,34.62359],[135.05592,34.62329],[135.05433,34.62373],[135.04561,34.6242],[135.0456,34.62403],[135.0543,34.62359]],[[135.04215,34.62541],[135.043,34.62527],[135.04147,34.6258],[135.0414,34.62569],[135.04215,34.62541]]],[[[135.33583,34.72725],[135.33744,34.72701],[135.33731,34.72669],[135.33565,34.72675],[135.33583,34.72725]]],[[[135.29187,34.72064],[135.29249,34.72012],[135.29245,34.72052],[135.29273,34.72064],[135.29305,34.72019],[135.29239,34.71959],[135.29187,34.72064]]],[[[135.2822,34.71256],[135.28296,34.71278],[135.28291,34.71261],[135.28219,34.71235],[135.2822,34.71256]]],[[[135.18279,34.67745],[135.18349,34.67726],[135.18217,34.67684],[135.18211,34.67724],[135.18232,34.67727],[135.18279,34.67745]]]]}}]}